{"type": "FeatureCollection", "features": [{"id": "0", "type": "Feature", "properties": {"min_value": 0.0, "max_value": 0.10623931884765628, "color": "#eff3ff"}, "geometry": {"type": "MultiPolygon", "coordinates": [[[[-97.75, 23.922300469483567], [-97.5665, 23.75], [-97.7013779527559, 23.5], [-97.7310082063306, 23.25], [-97.75, 23.21470588235294], [-97.78673469387755, 23.25], [-97.77714285714286, 23.5], [-97.76956289978678, 23.75], [-97.75, 23.922300469483567]]], [[[-99.25, 24.770459770114943], [-99.24786809326093, 24.75], [-99.25, 24.732560418027433], [-99.49760083449235, 24.5], [-99.5, 24.48193717277487], [-99.5001776061776, 24.5], [-99.5030330672748, 24.75], [-99.5, 24.806118143459916], [-99.25, 24.770459770114943]]], [[[-102.75, 24.74791666666667], [-102.78172043010753, 24.75], [-102.75, 24.75686046511628], [-102.7290780141844, 24.75], [-102.75, 24.74791666666667]]], [[[-102.22888888888889, 24.75], [-102.25, 24.749644859813085], [-102.25714285714285, 24.75], [-102.3555944055944, 25.0], [-102.25, 25.11705426356589], [-102.0, 25.140555555555558], [-101.89743243243244, 25.0], [-101.75, 24.83006230529595], [-101.5, 24.79217252396166], [-101.47781512605042, 24.75], [-101.5, 24.745477903391574], [-101.75, 24.744002333722285], [-101.92847222222223, 24.75], [-102.0, 24.803367875647666], [-102.22888888888889, 24.75]]], [[[-103.125, 25.61585714285714], [-103.125, 25.625], [-103.125, 25.75], [-103.125, 25.875], [-103.125, 26.0], [-103.125, 26.125], [-103.125, 26.25], [-103.125, 26.375], [-103.125, 26.5], [-103.125, 26.625], [-103.125, 26.654545454545456], [-103.0, 26.654545454545456], [-102.91052631578947, 26.5], [-102.75, 26.387792642140468], [-102.53085106382979, 26.25], [-102.5, 26.21], [-102.38967391304348, 26.0], [-102.25, 25.844556451612902], [-102.10613496932515, 25.75], [-102.25, 25.68041543026706], [-102.46484098939929, 25.5], [-102.5, 25.472664835164835], [-102.75, 25.498765432098764], [-102.75424242424242, 25.5], [-103.0, 25.61585714285714], [-103.125, 25.61585714285714]]], [[[-102.25, 26.606716417910448], [-102.29304932735425, 26.75], [-102.25, 26.77861400894188], [-102.21534296028881, 26.75], [-102.25, 26.606716417910448]]], [[[-103.125, 28.1046875], [-103.0, 28.1046875], [-102.75, 28.04294871794872], [-102.73264248704663, 28.0], [-102.75, 27.98490990990991], [-103.0, 27.89093023255814], [-103.125, 27.89093023255814], [-103.125, 28.0], [-103.125, 28.1046875]]], [[[-99.5, 25.444232804232804], [-99.6919979079498, 25.25], [-99.75, 25.137525354969576], [-99.97003968253968, 25.25], [-99.9719123505976, 25.5], [-100.0, 25.52842741935484], [-100.25, 25.682186948853616], [-100.39903100775194, 25.75], [-100.5, 25.837123745819397], [-100.69558232931728, 26.0], [-100.75, 26.096099290780142], [-100.84475524475525, 26.0], [-101.0, 25.875905931419222], [-101.08604651162791, 26.0], [-101.25, 26.203365384615385], [-101.287890625, 26.25], [-101.25, 26.290416666666665], [-101.10420289855072, 26.5], [-101.11026315789474, 26.75], [-101.25, 26.86108786610879], [-101.5, 26.77811158798283], [-101.70846774193548, 27.0], [-101.72716049382716, 27.25], [-101.75, 27.276179245283018], [-102.0, 27.4640625], [-102.0331869510665, 27.5], [-102.11369047619047, 27.75], [-102.25, 27.903177257525083], [-102.31094736842105, 28.0], [-102.25, 28.015236842105264], [-102.06677215189873, 28.0], [-102.0, 27.945897435897436], [-101.7641975308642, 27.75], [-101.75, 27.738442211055276], [-101.73496732026143, 27.75], [-101.70413043478261, 28.0], [-101.5, 28.177169811320756], [-101.43566666666666, 28.25], [-101.5, 28.315870307167234], [-101.75, 28.323392857142856], [-102.0, 28.49193722943723], [-102.03143459915611, 28.5], [-102.0, 28.551379310344828], [-101.82545454545455, 28.75], [-101.75, 28.781518987341773], [-101.5, 28.95826771653543], [-101.46708074534162, 29.0], [-101.5, 29.11521739130435], [-101.53369565217392, 29.25], [-101.72633333333333, 29.5], [-101.75, 29.517574257425743], [-102.0, 29.608999999999998], [-102.25, 29.723318042813453], [-102.5, 29.73098318240621], [-102.75, 29.64439775910364], [-102.89728571428572, 29.5], [-102.98767313019391, 29.25], [-102.96227154046997, 29.0], [-102.88333333333334, 28.75], [-102.91308139534884, 28.5], [-103.0, 28.421315789473685], [-103.125, 28.421315789473685], [-103.125, 28.5], [-103.125, 28.625], [-103.125, 28.75], [-103.125, 28.875], [-103.125, 29.0], [-103.125, 29.125], [-103.125, 29.25], [-103.125, 29.375], [-103.125, 29.5], [-103.125, 29.625], [-103.125, 29.75], [-103.125, 29.7715625], [-103.0, 29.7715625], [-102.83536036036035, 30.0], [-102.82924528301886, 30.25], [-102.75, 30.29158415841584], [-102.50235294117647, 30.5], [-102.75, 30.581906614785993], [-103.0, 30.622976878612718], [-103.125, 30.622976878612718], [-103.125, 30.625], [-103.125, 30.75], [-103.125, 30.875], [-103.125, 31.0], [-103.125, 31.125], [-103.125, 31.227777777777778], [-103.0, 31.227777777777778], [-102.97018633540372, 31.25], [-102.88664383561644, 31.5], [-103.0, 31.616549295774647], [-103.125, 31.616549295774647], [-103.125, 31.625], [-103.125, 31.75], [-103.125, 31.875], [-103.125, 32.0], [-103.125, 32.125], [-103.125, 32.204187192118226], [-103.0, 32.204187192118226], [-102.91842105263157, 32.25], [-102.75, 32.443939393939395], [-102.53181818181818, 32.25], [-102.5, 32.22021276595745], [-102.44909090909091, 32.25], [-102.5, 32.27456140350877], [-102.7056, 32.5], [-102.58833333333334, 32.75], [-102.57111801242236, 33.0], [-102.5, 33.05871794871795], [-102.32570093457944, 33.25], [-102.26915584415585, 33.5], [-102.5, 33.67775], [-102.75, 33.61941176470588], [-103.0, 33.607718120805366], [-103.125, 33.607718120805366], [-103.125, 33.625], [-103.125, 33.75], [-103.125, 33.875], [-103.125, 34.0], [-103.125, 34.125], [-103.125, 34.25], [-103.125, 34.375], [-103.125, 34.5], [-103.125, 34.625], [-103.125, 34.75], [-103.125, 34.875], [-103.125, 35.0], [-103.125, 35.125], [-103.0, 35.125], [-102.875, 35.125], [-102.75, 35.125], [-102.625, 35.125], [-102.5, 35.125], [-102.375, 35.125], [-102.25, 35.125], [-102.125, 35.125], [-102.0, 35.125], [-101.875, 35.125], [-101.75, 35.125], [-101.625, 35.125], [-101.5, 35.125], [-101.375, 35.125], [-101.25, 35.125], [-101.125, 35.125], [-101.0, 35.125], [-100.875, 35.125], [-100.75, 35.125], [-100.625, 35.125], [-100.5, 35.125], [-100.375, 35.125], [-100.25, 35.125], [-100.125, 35.125], [-100.0, 35.125], [-99.875, 35.125], [-99.75, 35.125], [-99.625, 35.125], [-99.5, 35.125], [-99.375, 35.125], [-99.25, 35.125], [-99.125, 35.125], [-99.0, 35.125], [-98.875, 35.125], [-98.75, 35.125], [-98.625, 35.125], [-98.5, 35.125], [-98.375, 35.125], [-98.25, 35.125], [-98.125, 35.125], [-98.0, 35.125], [-97.875, 35.125], [-97.75, 35.125], [-97.625, 35.125], [-97.5, 35.125], [-97.375, 35.125], [-97.25, 35.125], [-97.125, 35.125], [-97.0, 35.125], [-96.875, 35.125], [-96.75, 35.125], [-96.625, 35.125], [-96.5, 35.125], [-96.375, 35.125], [-96.25, 35.125], [-96.125, 35.125], [-96.0, 35.125], [-95.875, 35.125], [-95.75, 35.125], [-95.625, 35.125], [-95.5, 35.125], [-95.375, 35.125], [-95.25, 35.125], [-95.125, 35.125], [-95.0, 35.125], [-94.875, 35.125], [-94.75, 35.125], [-94.69340659340659, 35.125], [-94.69340659340659, 35.0], [-94.5, 34.77756714060032], [-94.25, 34.77090395480226], [-94.04133790737565, 35.0], [-94.04133790737565, 35.125], [-94.0, 35.125], [-93.875, 35.125], [-93.75, 35.125], [-93.625, 35.125], [-93.5, 35.125], [-93.375, 35.125], [-93.25, 35.125], [-93.125, 35.125], [-93.0, 35.125], [-92.875, 35.125], [-92.75, 35.125], [-92.625, 35.125], [-92.5, 35.125], [-92.375, 35.125], [-92.25, 35.125], [-92.18160621761658, 35.125], [-92.18160621761658, 35.0], [-92.25, 34.98143459915612], [-92.5, 34.921375], [-92.75, 34.81809045226131], [-93.0, 34.797916666666666], [-93.07815533980582, 34.75], [-93.0, 34.658522727272725], [-92.75, 34.673446327683614], [-92.54934640522876, 34.5], [-92.5, 34.45635838150289], [-92.25, 34.28275709219858], [-92.22599090318388, 34.25], [-92.25, 34.188519134775376], [-92.5, 34.211363636363636], [-92.75, 34.16957831325301], [-92.91805970149254, 34.0], [-93.0, 33.92089337175793], [-93.02815384615384, 34.0], [-93.07769461077845, 34.25], [-93.25, 34.408977900552486], [-93.5, 34.47477477477477], [-93.75, 34.47982608695652], [-94.0, 34.495991561181434], [-94.1936877076412, 34.25], [-94.0, 34.09285714285714], [-93.96230853391685, 34.0], [-93.83862275449101, 33.75], [-94.0, 33.723237338629595], [-94.25, 33.6382], [-94.5, 33.70284090909091], [-94.62205882352941, 33.75], [-94.71122448979592, 34.0], [-94.75, 34.086363636363636], [-95.0, 34.19789915966386], [-95.03483146067416, 34.25], [-95.0676, 34.5], [-95.25, 34.600884955752214], [-95.5, 34.568805309734515], [-95.71301369863014, 34.5], [-95.75, 34.483125], [-96.0, 34.43407766990291], [-96.17588126159555, 34.25], [-96.25, 34.14024725274725], [-96.4768888888889, 34.0], [-96.5, 33.994144144144144], [-96.75, 33.95140607424072], [-96.97607323232323, 33.75], [-97.0, 33.73050411522634], [-97.25, 33.72283950617284], [-97.5, 33.70790884718499], [-97.75, 33.679450261780104], [-97.98080808080807, 33.5], [-98.0, 33.49033898305085], [-98.25, 33.3051094890511], [-98.30392857142857, 33.25], [-98.5, 33.224321796071095], [-98.75, 33.115492957746476], [-99.0, 33.02763157894737], [-99.0323076923077, 33.0], [-99.0, 32.89322033898305], [-98.98784172661871, 32.75], [-99.0, 32.74615209471767], [-99.25, 32.72677444794952], [-99.37069672131148, 32.75], [-99.5, 32.869056603773586], [-99.64276018099548, 32.75], [-99.67152777777778, 32.5], [-99.75, 32.461824324324326], [-100.0, 32.496650717703346], [-100.007, 32.5], [-100.17409638554217, 32.75], [-100.25, 32.785195530726256], [-100.31176470588235, 32.75], [-100.46315789473684, 32.5], [-100.46142131979695, 32.25], [-100.42796208530805, 32.0], [-100.5, 31.986042240587697], [-100.74388045540798, 31.75], [-100.75, 31.734823529411763], [-100.82247191011236, 31.75], [-100.99865944885902, 32.0], [-101.0, 32.00266136613598], [-101.10381944444444, 32.25], [-101.00416666666666, 32.5], [-101.0, 32.503076923076925], [-100.75, 32.67777777777778], [-100.65867768595041, 32.75], [-100.66641414141414, 33.0], [-100.75, 33.08897849462365], [-101.0, 33.10722222222222], [-101.25, 33.11008771929824], [-101.5, 33.11774193548387], [-101.59733333333334, 33.0], [-101.5, 32.927], [-101.264, 32.75], [-101.5, 32.631208053691275], [-101.75, 32.61027397260274], [-101.80590277777777, 32.5], [-101.80458333333333, 32.25], [-101.75, 32.06285714285714], [-101.74035087719298, 32.0], [-101.73542435424355, 31.75], [-101.72907608695652, 31.5], [-101.74058544303797, 31.25], [-101.75, 31.147413793103446], [-101.80245398773006, 31.0], [-102.0, 30.752307692307692], [-102.00258620689655, 30.75], [-102.0, 30.74818181818182], [-101.75, 30.686666666666667], [-101.5, 30.614931506849317], [-101.25, 30.628097345132744], [-101.1313524590164, 30.5], [-101.0, 30.3103550295858], [-100.98175313059033, 30.25], [-100.96648, 30.0], [-100.9533064516129, 29.75], [-100.75, 29.518290441176468], [-100.5, 29.526102941176468], [-100.25, 29.57780548628429], [-100.06428571428572, 29.5], [-100.0, 29.354054054054053], [-99.99864888576943, 29.25], [-99.99843155893537, 29.0], [-99.9763856544015, 28.75], [-99.97096686583379, 28.5], [-99.98336824465856, 28.25], [-99.75, 28.012755536626916], [-99.7454036218539, 28.0], [-99.73460296965784, 27.75], [-99.5, 27.51448476992871], [-99.4875383328687, 27.5], [-99.25, 27.260256049521665], [-99.23194650817236, 27.25], [-99.0, 27.020890410958906], [-98.91561264822134, 27.0], [-98.75, 26.849280575539566], [-98.5, 26.804256360078277], [-98.25, 26.797184377838327], [-98.0, 26.788550135501353], [-97.85845771144278, 26.75], [-97.93970588235294, 26.5], [-98.0, 26.48264346190028], [-98.21154833190761, 26.25], [-98.23682508086588, 26.0], [-98.25, 25.99401965213463], [-98.49534976152623, 25.75], [-98.5, 25.67815789473684], [-98.66379032258064, 25.5], [-98.748487544484, 25.25], [-98.75, 25.204054054054055], [-98.7547619047619, 25.25], [-99.0, 25.409762773722626], [-99.25, 25.472099892588616], [-99.5, 25.444232804232804]], [[-100.5, 26.196370967741935], [-100.25, 26.230973451327433], [-100.22584269662921, 26.25], [-100.25, 26.27375690607735], [-100.5, 26.31303317535545], [-100.595, 26.25], [-100.5, 26.196370967741935]]], [[[-97.49889825016203, 24.25], [-97.49934886908842, 24.0], [-97.5, 23.983333333333334], [-97.51357142857142, 24.0], [-97.5045945945946, 24.25], [-97.5, 24.255182926829267], [-97.49889825016203, 24.25]]], [[[-88.5, 30.248974216800665], [-88.50554722638681, 30.25], [-88.75, 30.450553505535055], [-88.959375, 30.5], [-89.0, 30.55492957746479], [-89.25, 30.747327394209353], [-89.25229007633588, 30.75], [-89.39442508710802, 31.0], [-89.31559633027523, 31.25], [-89.27870065789473, 31.5], [-89.25, 31.53401559454191], [-89.01017316017317, 31.75], [-89.0, 31.781543624161074], [-88.75, 31.9896], [-88.73, 32.0], [-88.5, 32.13], [-88.428125, 32.25], [-88.35242537313432, 32.5], [-88.28298647242455, 32.75], [-88.25, 32.812278978388996], [-88.0, 32.77128751974723], [-87.75, 32.903300330033005], [-87.63773946360153, 33.0], [-87.75, 33.23821138211382], [-87.75379581151833, 33.25], [-87.75, 33.267682926829266], [-87.74627249357326, 33.25], [-87.5, 33.06821631878558], [-87.25, 33.04333333333334], [-87.09658385093168, 33.0], [-87.21508771929825, 32.75], [-87.0, 32.61586433260394], [-86.875, 32.61586433260394], [-86.875, 32.5], [-86.875, 32.375], [-86.875, 32.25], [-86.875, 32.125], [-86.875, 32.0], [-86.875, 31.875], [-86.875, 31.75], [-86.875, 31.625], [-86.875, 31.5], [-86.875, 31.375], [-86.875, 31.25], [-86.875, 31.125], [-86.875, 31.0], [-86.875, 30.875], [-86.875, 30.75], [-86.875, 30.625], [-86.875, 30.53153846153846], [-87.0, 30.53153846153846], [-87.1126984126984, 30.75], [-87.25, 30.82654867256637], [-87.5, 30.997491039426524], [-87.5095890410959, 31.0], [-87.67527472527473, 31.25], [-87.5, 31.34011299435028], [-87.2823076923077, 31.5], [-87.46764705882353, 31.75], [-87.5, 31.75316091954023], [-87.52894736842106, 31.75], [-87.75, 31.710747663551402], [-87.93636363636364, 31.5], [-87.79657534246576, 31.25], [-87.81072664359861, 31.0], [-87.89648288973385, 30.75], [-87.75, 30.582135076252722], [-87.5, 30.57950617283951], [-87.25, 30.639808917197453], [-87.02135416666667, 30.5], [-87.25, 30.44371794871795], [-87.40545267489712, 30.25], [-87.5, 30.213818897637793], [-87.75, 30.240496657115568], [-88.0, 30.237243947858474], [-88.25, 30.23029411764706], [-88.5, 30.248974216800665]]], [[[-90.5, 32.49922413793104], [-90.5095744680851, 32.5], [-90.5, 32.50049889135255], [-90.49905063291139, 32.5], [-90.5, 32.49922413793104]]], [[[-91.5, 32.776581576026636], [-91.25, 32.780258014073496], [-91.0, 32.78128536782538], [-90.80552763819095, 32.75], [-91.0, 32.53258426966292], [-91.25, 32.654444444444444], [-91.5, 32.72820746132848], [-91.58646209386282, 32.75], [-91.5, 32.776581576026636]]], [[[-89.0, 32.95585106382979], [-89.0140360766629, 33.0], [-89.0, 33.03128140703517], [-88.8703125, 33.0], [-89.0, 32.95585106382979]]], [[[-87.5, 33.73653846153846], [-87.50736842105263, 33.75], [-87.55047258979207, 34.0], [-87.5, 34.05550935550936], [-87.42624309392265, 34.0], [-87.25, 33.77847222222222], [-87.15989010989011, 33.75], [-87.0, 33.542142857142856], [-86.875, 33.542142857142856], [-86.875, 33.5], [-86.875, 33.375], [-86.875, 33.25], [-86.875, 33.125], [-86.875, 33.08543956043956], [-87.0, 33.08543956043956], [-87.05067681895093, 33.25], [-87.00921875, 33.5], [-87.25, 33.725953079178886], [-87.5, 33.73653846153846]]], [[[-89.0, 33.69573002754821], [-89.04570765661254, 33.75], [-89.0, 33.79487471526196], [-88.9519512195122, 33.75], [-89.0, 33.69573002754821]]], [[[-88.75, 34.87296819787986], [-88.95, 34.75], [-89.0, 34.74366812227074], [-89.0039926571822, 34.75], [-89.04441687344914, 35.0], [-89.04441687344914, 35.125], [-89.0, 35.125], [-88.875, 35.125], [-88.75, 35.125], [-88.625, 35.125], [-88.5, 35.125], [-88.375, 35.125], [-88.25, 35.125], [-88.125, 35.125], [-88.0, 35.125], [-87.94029411764706, 35.125], [-87.94029411764706, 35.0], [-87.97807283763278, 34.75], [-88.0, 34.74360902255639], [-88.07014563106796, 34.75], [-88.25, 34.85865102639296], [-88.5, 34.8796918767507], [-88.75, 34.87296819787986]]]]}}, {"id": "1", "type": "Feature", "properties": {"min_value": 0.10623931884765628, "max_value": 0.9327888488769536, "color": "#bdd7e7"}, "geometry": {"type": "MultiPolygon", "coordinates": [[[[-96.0, 23.590429338103757], [-95.89767206477732, 23.5], [-95.81936090225564, 23.25], [-96.0, 23.003589743589743], [-96.02520986358867, 23.25], [-96.04050480769232, 23.5], [-96.0, 23.590429338103757]]], [[[-97.75, 22.875], [-97.875, 22.875], [-98.0, 22.875], [-98.06679033785917, 22.875], [-98.06679033785917, 23.0], [-98.0381836596894, 23.25], [-98.02862197392923, 23.5], [-98.00030755711775, 23.75], [-98.0, 23.75053057099545], [-97.86444261394838, 24.0], [-97.8189096761215, 24.25], [-97.77446544888133, 24.5], [-97.76454515527269, 24.75], [-97.75, 24.863097269624575], [-97.67673515981735, 25.0], [-97.51454368350068, 25.25], [-97.5, 25.274317213730896], [-97.25, 25.38432916892993], [-97.19503222938431, 25.25], [-97.22587727708533, 25.0], [-97.23206854345165, 24.75], [-97.22679845708775, 24.5], [-97.22928571428571, 24.25], [-97.21904761904761, 24.0], [-97.19717583497054, 23.75], [-97.22844899665552, 23.5], [-97.24485567970206, 23.25], [-97.25, 23.128571428571426], [-97.29448669201521, 23.0], [-97.29448669201521, 22.875], [-97.375, 22.875], [-97.5, 22.875], [-97.625, 22.875], [-97.75, 22.875]], [[-97.75, 23.922300469483567], [-97.76956289978678, 23.75], [-97.77714285714286, 23.5], [-97.78673469387755, 23.25], [-97.75, 23.21470588235294], [-97.7310082063306, 23.25], [-97.7013779527559, 23.5], [-97.5665, 23.75], [-97.75, 23.922300469483567]], [[-97.5045945945946, 24.25], [-97.51357142857142, 24.0], [-97.5, 23.983333333333334], [-97.49934886908842, 24.0], [-97.49889825016203, 24.25], [-97.5, 24.255182926829267], [-97.5045945945946, 24.25]]], [[[-100.5, 26.31303317535545], [-100.25, 26.27375690607735], [-100.22584269662921, 26.25], [-100.25, 26.230973451327433], [-100.5, 26.196370967741935], [-100.595, 26.25], [-100.5, 26.31303317535545]]], [[[-99.02127481309616, 23.75], [-99.25, 23.953421987848216], [-99.2741013168822, 24.0], [-99.5, 24.226827089165525], [-99.52894071263854, 24.25], [-99.52248648648649, 24.5], [-99.52773945267958, 24.75], [-99.75, 24.97856765947467], [-99.77777313478195, 25.0], [-100.0, 25.218230993061255], [-100.01727453446387, 25.25], [-100.25, 25.486398664798486], [-100.32332814930015, 25.5], [-100.5, 25.665322245322244], [-100.73631500742943, 25.5], [-100.75, 25.377851458885942], [-100.79630163304515, 25.25], [-100.75, 25.1794289897511], [-100.70363223609534, 25.0], [-100.50089753178759, 24.75], [-100.5, 24.748781725888325], [-100.4836785666711, 24.5], [-100.5, 24.387848970251717], [-100.75, 24.4194247603168], [-101.0, 24.48704196519959], [-101.03037428023032, 24.5], [-101.25, 24.651455989410984], [-101.5, 24.597019527235354], [-101.75, 24.64287047841307], [-102.0, 24.657872386759582], [-102.25, 24.587644859813082], [-102.46083633093525, 24.5], [-102.5, 24.47789340101523], [-102.75, 24.420174587778856], [-102.82917418772563, 24.25], [-102.96930228731281, 24.0], [-103.0, 23.94781818181818], [-103.125, 23.94781818181818], [-103.125, 24.0], [-103.125, 24.125], [-103.125, 24.25], [-103.125, 24.375], [-103.125, 24.5], [-103.125, 24.625], [-103.125, 24.75], [-103.125, 24.875], [-103.125, 25.0], [-103.125, 25.125], [-103.125, 25.25], [-103.125, 25.375], [-103.125, 25.5], [-103.125, 25.61585714285714], [-103.0, 25.61585714285714], [-102.75424242424242, 25.5], [-102.75, 25.498765432098764], [-102.5, 25.472664835164835], [-102.46484098939929, 25.5], [-102.25, 25.68041543026706], [-102.10613496932515, 25.75], [-102.25, 25.844556451612902], [-102.38967391304348, 26.0], [-102.5, 26.21], [-102.53085106382979, 26.25], [-102.75, 26.387792642140468], [-102.91052631578947, 26.5], [-103.0, 26.654545454545456], [-103.125, 26.654545454545456], [-103.125, 26.75], [-103.125, 26.875], [-103.125, 27.0], [-103.125, 27.125], [-103.125, 27.25], [-103.125, 27.375], [-103.125, 27.5], [-103.125, 27.625], [-103.125, 27.75], [-103.125, 27.875], [-103.125, 27.89093023255814], [-103.0, 27.89093023255814], [-102.75, 27.98490990990991], [-102.73264248704663, 28.0], [-102.75, 28.04294871794872], [-103.0, 28.1046875], [-103.125, 28.1046875], [-103.125, 28.125], [-103.125, 28.25], [-103.125, 28.375], [-103.125, 28.421315789473685], [-103.0, 28.421315789473685], [-102.91308139534884, 28.5], [-102.88333333333334, 28.75], [-102.96227154046997, 29.0], [-102.98767313019391, 29.25], [-102.89728571428572, 29.5], [-102.75, 29.64439775910364], [-102.5, 29.73098318240621], [-102.25, 29.723318042813453], [-102.0, 29.608999999999998], [-101.75, 29.517574257425743], [-101.72633333333333, 29.5], [-101.53369565217392, 29.25], [-101.5, 29.11521739130435], [-101.46708074534162, 29.0], [-101.5, 28.95826771653543], [-101.75, 28.781518987341773], [-101.82545454545455, 28.75], [-102.0, 28.551379310344828], [-102.03143459915611, 28.5], [-102.0, 28.49193722943723], [-101.75, 28.323392857142856], [-101.5, 28.315870307167234], [-101.43566666666666, 28.25], [-101.5, 28.177169811320756], [-101.70413043478261, 28.0], [-101.73496732026143, 27.75], [-101.75, 27.738442211055276], [-101.7641975308642, 27.75], [-102.0, 27.945897435897436], [-102.06677215189873, 28.0], [-102.25, 28.015236842105264], [-102.31094736842105, 28.0], [-102.25, 27.903177257525083], [-102.11369047619047, 27.75], [-102.0331869510665, 27.5], [-102.0, 27.4640625], [-101.75, 27.276179245283018], [-101.72716049382716, 27.25], [-101.70846774193548, 27.0], [-101.5, 26.77811158798283], [-101.25, 26.86108786610879], [-101.11026315789474, 26.75], [-101.10420289855072, 26.5], [-101.25, 26.290416666666665], [-101.287890625, 26.25], [-101.25, 26.203365384615385], [-101.08604651162791, 26.0], [-101.0, 25.875905931419222], [-100.84475524475525, 26.0], [-100.75, 26.096099290780142], [-100.69558232931728, 26.0], [-100.5, 25.837123745819397], [-100.39903100775194, 25.75], [-100.25, 25.682186948853616], [-100.0, 25.52842741935484], [-99.9719123505976, 25.5], [-99.97003968253968, 25.25], [-99.75, 25.137525354969576], [-99.6919979079498, 25.25], [-99.5, 25.444232804232804], [-99.25, 25.472099892588616], [-99.0, 25.409762773722626], [-98.7547619047619, 25.25], [-98.75, 25.204054054054055], [-98.748487544484, 25.25], [-98.66379032258064, 25.5], [-98.5, 25.67815789473684], [-98.49534976152623, 25.75], [-98.25, 25.99401965213463], [-98.23682508086588, 26.0], [-98.21154833190761, 26.25], [-98.0, 26.48264346190028], [-97.93970588235294, 26.5], [-97.85845771144278, 26.75], [-98.0, 26.788550135501353], [-98.25, 26.797184377838327], [-98.5, 26.804256360078277], [-98.75, 26.849280575539566], [-98.91561264822134, 27.0], [-99.0, 27.020890410958906], [-99.23194650817236, 27.25], [-99.25, 27.260256049521665], [-99.4875383328687, 27.5], [-99.5, 27.51448476992871], [-99.73460296965784, 27.75], [-99.7454036218539, 28.0], [-99.75, 28.012755536626916], [-99.98336824465856, 28.25], [-99.97096686583379, 28.5], [-99.9763856544015, 28.75], [-99.99843155893537, 29.0], [-99.99864888576943, 29.25], [-100.0, 29.354054054054053], [-100.06428571428572, 29.5], [-100.25, 29.57780548628429], [-100.5, 29.526102941176468], [-100.75, 29.518290441176468], [-100.9533064516129, 29.75], [-100.96648, 30.0], [-100.98175313059033, 30.25], [-101.0, 30.3103550295858], [-101.1313524590164, 30.5], [-101.25, 30.628097345132744], [-101.5, 30.614931506849317], [-101.75, 30.686666666666667], [-102.0, 30.74818181818182], [-102.00258620689655, 30.75], [-102.0, 30.752307692307692], [-101.80245398773006, 31.0], [-101.75, 31.147413793103446], [-101.74058544303797, 31.25], [-101.72907608695652, 31.5], [-101.73542435424355, 31.75], [-101.74035087719298, 32.0], [-101.75, 32.06285714285714], [-101.80458333333333, 32.25], [-101.80590277777777, 32.5], [-101.75, 32.61027397260274], [-101.5, 32.631208053691275], [-101.264, 32.75], [-101.5, 32.927], [-101.59733333333334, 33.0], [-101.5, 33.11774193548387], [-101.25, 33.11008771929824], [-101.0, 33.10722222222222], [-100.75, 33.08897849462365], [-100.66641414141414, 33.0], [-100.65867768595041, 32.75], [-100.75, 32.67777777777778], [-101.0, 32.503076923076925], [-101.00416666666666, 32.5], [-101.10381944444444, 32.25], [-101.0, 32.00266136613598], [-100.99865944885902, 32.0], [-100.82247191011236, 31.75], [-100.75, 31.734823529411763], [-100.74388045540798, 31.75], [-100.5, 31.986042240587697], [-100.42796208530805, 32.0], [-100.46142131979695, 32.25], [-100.46315789473684, 32.5], [-100.31176470588235, 32.75], [-100.25, 32.785195530726256], [-100.17409638554217, 32.75], [-100.007, 32.5], [-100.0, 32.496650717703346], [-99.75, 32.461824324324326], [-99.67152777777778, 32.5], [-99.64276018099548, 32.75], [-99.5, 32.869056603773586], [-99.37069672131148, 32.75], [-99.25, 32.72677444794952], [-99.0, 32.74615209471767], [-98.98784172661871, 32.75], [-99.0, 32.89322033898305], [-99.0323076923077, 33.0], [-99.0, 33.02763157894737], [-98.75, 33.115492957746476], [-98.5, 33.224321796071095], [-98.30392857142857, 33.25], [-98.25, 33.3051094890511], [-98.0, 33.49033898305085], [-97.98080808080807, 33.5], [-97.75, 33.679450261780104], [-97.5, 33.70790884718499], [-97.25, 33.72283950617284], [-97.0, 33.73050411522634], [-96.97607323232323, 33.75], [-96.75, 33.95140607424072], [-96.5, 33.994144144144144], [-96.4768888888889, 34.0], [-96.25, 34.14024725274725], [-96.17588126159555, 34.25], [-96.0, 34.43407766990291], [-95.75, 34.483125], [-95.71301369863014, 34.5], [-95.5, 34.568805309734515], [-95.25, 34.600884955752214], [-95.0676, 34.5], [-95.03483146067416, 34.25], [-95.0, 34.19789915966386], [-94.75, 34.086363636363636], [-94.71122448979592, 34.0], [-94.62205882352941, 33.75], [-94.5, 33.70284090909091], [-94.25, 33.6382], [-94.0, 33.723237338629595], [-93.83862275449101, 33.75], [-93.96230853391685, 34.0], [-94.0, 34.09285714285714], [-94.1936877076412, 34.25], [-94.0, 34.495991561181434], [-93.75, 34.47982608695652], [-93.5, 34.47477477477477], [-93.25, 34.408977900552486], [-93.07769461077845, 34.25], [-93.02815384615384, 34.0], [-93.0, 33.92089337175793], [-92.91805970149254, 34.0], [-92.75, 34.16957831325301], [-92.5, 34.211363636363636], [-92.25, 34.188519134775376], [-92.22599090318388, 34.25], [-92.25, 34.28275709219858], [-92.5, 34.45635838150289], [-92.54934640522876, 34.5], [-92.75, 34.673446327683614], [-93.0, 34.658522727272725], [-93.07815533980582, 34.75], [-93.0, 34.797916666666666], [-92.75, 34.81809045226131], [-92.5, 34.921375], [-92.25, 34.98143459915612], [-92.18160621761658, 35.0], [-92.18160621761658, 35.125], [-92.125, 35.125], [-92.0, 35.125], [-91.875, 35.125], [-91.75, 35.125], [-91.66082725060828, 35.125], [-91.66082725060828, 35.0], [-91.5427192498621, 34.75], [-91.75, 34.63546174946663], [-91.94252049180328, 34.75], [-92.0, 34.80494613124388], [-92.0736220472441, 34.75], [-92.16631111111111, 34.5], [-92.0, 34.29651984774334], [-91.93166932907349, 34.25], [-91.75, 34.02700980392157], [-91.72743652743652, 34.0], [-91.5, 33.81682058047493], [-91.41635012386458, 33.75], [-91.46434911242604, 33.5], [-91.5, 33.44097959183674], [-91.66257817929117, 33.25], [-91.5, 33.12449034334764], [-91.25, 33.07730964467005], [-91.0, 33.15714285714286], [-90.75, 33.20603582554517], [-90.5, 33.144340770791075], [-90.26327345309382, 33.0], [-90.42824664140544, 32.75], [-90.25, 32.594656259381566], [-90.05677744585512, 32.75], [-90.23159594095941, 33.0], [-90.0, 33.22657942238267], [-89.75, 33.127459526774594], [-89.5, 33.092806645457756], [-89.26206527554842, 33.25], [-89.5, 33.41774801961524], [-89.75, 33.3959940652819], [-90.0, 33.28405511811024], [-90.25, 33.253102961918195], [-90.34801231802912, 33.5], [-90.5, 33.70816717791411], [-90.56644336175395, 33.75], [-90.75, 33.85026613439787], [-91.0, 33.929108449767135], [-91.08383162863886, 34.0], [-91.0, 34.03012439920837], [-90.75, 34.035318581293154], [-90.6227092760181, 34.0], [-90.5, 33.80023020257827], [-90.25, 33.9], [-90.0, 33.95343347639485], [-89.92800947867299, 34.0], [-89.75, 34.09015842534806], [-89.5, 34.138885390428214], [-89.34801894918174, 34.25], [-89.25, 34.337673343605545], [-89.0796685529507, 34.5], [-89.2028682882056, 34.75], [-89.25, 34.839304347826086], [-89.5, 34.80049295774648], [-89.64426559356137, 34.75], [-89.75, 34.721189692982456], [-89.79105468750001, 34.75], [-90.0, 34.91937935402153], [-90.25, 34.92207266360254], [-90.5, 34.931689214580985], [-90.75, 34.94968152866242], [-91.0, 34.95057925223802], [-91.06649740198394, 35.0], [-91.06649740198394, 35.125], [-91.0, 35.125], [-90.875, 35.125], [-90.75, 35.125], [-90.625, 35.125], [-90.5, 35.125], [-90.375, 35.125], [-90.25, 35.125], [-90.125, 35.125], [-90.0, 35.125], [-89.875, 35.125], [-89.75, 35.125], [-89.625, 35.125], [-89.5, 35.125], [-89.375, 35.125], [-89.25, 35.125], [-89.125, 35.125], [-89.04441687344914, 35.125], [-89.04441687344914, 35.0], [-89.0039926571822, 34.75], [-89.0, 34.74366812227074], [-88.95, 34.75], [-88.75, 34.87296819787986], [-88.5, 34.8796918767507], [-88.25, 34.85865102639296], [-88.07014563106796, 34.75], [-88.0, 34.74360902255639], [-87.97807283763278, 34.75], [-87.94029411764706, 35.0], [-87.94029411764706, 35.125], [-87.875, 35.125], [-87.75, 35.125], [-87.625, 35.125], [-87.60905280804694, 35.125], [-87.60905280804694, 35.0], [-87.5, 34.827910052910056], [-87.42172757475083, 34.75], [-87.37317301686446, 34.5], [-87.25, 34.397077244258874], [-87.0, 34.2535118354676], [-86.875, 34.2535118354676], [-86.875, 34.25], [-86.875, 34.125], [-86.875, 34.0], [-86.875, 33.875], [-86.875, 33.75], [-86.875, 33.625], [-86.875, 33.542142857142856], [-87.0, 33.542142857142856], [-87.15989010989011, 33.75], [-87.25, 33.77847222222222], [-87.42624309392265, 34.0], [-87.5, 34.05550935550936], [-87.55047258979207, 34.0], [-87.50736842105263, 33.75], [-87.5, 33.73653846153846], [-87.25, 33.725953079178886], [-87.00921875, 33.5], [-87.05067681895093, 33.25], [-87.0, 33.08543956043956], [-86.875, 33.08543956043956], [-86.875, 33.0], [-86.875, 32.875], [-86.875, 32.75], [-86.875, 32.625], [-86.875, 32.61586433260394], [-87.0, 32.61586433260394], [-87.21508771929825, 32.75], [-87.09658385093168, 33.0], [-87.25, 33.04333333333334], [-87.5, 33.06821631878558], [-87.74627249357326, 33.25], [-87.75, 33.267682926829266], [-87.75379581151833, 33.25], [-87.75, 33.23821138211382], [-87.63773946360153, 33.0], [-87.75, 32.903300330033005], [-88.0, 32.77128751974723], [-88.25, 32.812278978388996], [-88.28298647242455, 32.75], [-88.35242537313432, 32.5], [-88.428125, 32.25], [-88.5, 32.13], [-88.73, 32.0], [-88.75, 31.9896], [-89.0, 31.781543624161074], [-89.01017316017317, 31.75], [-89.25, 31.53401559454191], [-89.27870065789473, 31.5], [-89.31559633027523, 31.25], [-89.39442508710802, 31.0], [-89.25229007633588, 30.75], [-89.25, 30.747327394209353], [-89.0, 30.55492957746479], [-88.959375, 30.5], [-88.75, 30.450553505535055], [-88.50554722638681, 30.25], [-88.5, 30.248974216800665], [-88.25, 30.23029411764706], [-88.0, 30.237243947858474], [-87.75, 30.240496657115568], [-87.5, 30.213818897637793], [-87.40545267489712, 30.25], [-87.25, 30.44371794871795], [-87.02135416666667, 30.5], [-87.25, 30.639808917197453], [-87.5, 30.57950617283951], [-87.75, 30.582135076252722], [-87.89648288973385, 30.75], [-87.81072664359861, 31.0], [-87.79657534246576, 31.25], [-87.93636363636364, 31.5], [-87.75, 31.710747663551402], [-87.52894736842106, 31.75], [-87.5, 31.75316091954023], [-87.46764705882353, 31.75], [-87.2823076923077, 31.5], [-87.5, 31.34011299435028], [-87.67527472527473, 31.25], [-87.5095890410959, 31.0], [-87.5, 30.997491039426524], [-87.25, 30.82654867256637], [-87.1126984126984, 30.75], [-87.0, 30.53153846153846], [-86.875, 30.53153846153846], [-86.875, 30.5], [-86.875, 30.375], [-86.875, 30.25], [-86.875, 30.125], [-86.875, 30.076228107646305], [-87.0, 30.076228107646305], [-87.25, 30.089046333783177], [-87.38756080611536, 30.0], [-87.5, 29.933769954973393], [-87.75, 29.930173076923076], [-88.0, 29.92478938500421], [-88.25, 29.965954263731568], [-88.31382211538461, 30.0], [-88.5, 30.12883282506238], [-88.75, 30.220059813912272], [-88.85777511961723, 30.25], [-89.0, 30.363998082454458], [-89.25, 30.463295752192234], [-89.5, 30.4795349190668], [-89.56165293040293, 30.5], [-89.75, 30.736816350028786], [-89.78696529459242, 30.75], [-89.86982152514872, 31.0], [-89.8858286908078, 31.25], [-89.82076023391812, 31.5], [-89.83994490358127, 31.75], [-89.88396805896807, 32.0], [-90.0, 32.09161008729389], [-90.11072684642438, 32.0], [-90.25, 31.887924528301888], [-90.44866220735786, 32.0], [-90.5, 32.02402190923318], [-90.75, 32.158719945817815], [-91.0, 32.19047929572872], [-91.25, 32.23558965734707], [-91.30966057441253, 32.25], [-91.5, 32.38626168224299], [-91.75, 32.47795081967213], [-91.8061586638831, 32.5], [-92.0, 32.592618453865335], [-92.25, 32.6691067961165], [-92.5, 32.7305641025641], [-92.61347305389222, 32.75], [-92.75, 32.85446735395189], [-93.0, 32.939213775178686], [-93.25, 32.93472622478386], [-93.5, 32.9393397940642], [-93.75, 32.97429882712902], [-94.0, 32.980110192837465], [-94.25, 32.99279580152672], [-94.5, 32.99749020745684], [-94.6453781512605, 33.0], [-94.63269938650306, 33.25], [-94.75, 33.36758917589176], [-95.0, 33.329912980420595], [-95.18275290215588, 33.25], [-95.25, 33.1818487394958], [-95.5, 33.06506316812439], [-95.70921875, 33.0], [-95.75, 32.99693661971831], [-96.0, 32.95928549894483], [-96.25, 32.924357929066446], [-96.5, 32.916690647482014], [-96.57808496291301, 33.0], [-96.5, 33.14191176470588], [-96.25, 33.09975806451613], [-96.0, 33.04812900926586], [-95.81965934415791, 33.25], [-95.77914572864321, 33.5], [-96.0, 33.57564543889845], [-96.25, 33.506607574536666], [-96.5, 33.59387166546503], [-96.75, 33.57229210342418], [-96.83269384492407, 33.5], [-97.0, 33.429953145917004], [-97.25, 33.34304683727668], [-97.5, 33.35333882934872], [-97.65323960880195, 33.25], [-97.75, 33.21043489127718], [-98.0, 33.114960629921256], [-98.14078275666478, 33.0], [-98.25, 32.9812967459932], [-98.5, 32.92400863761288], [-98.65578207381371, 32.75], [-98.75, 32.70815641586013], [-99.0, 32.5488160291439], [-99.10592885375495, 32.5], [-99.25, 32.40161943319838], [-99.40369357045144, 32.25], [-99.5, 32.20851502651738], [-99.71642201834862, 32.0], [-99.75, 31.942723004694834], [-99.9349099099099, 31.75], [-100.0, 31.723507842737828], [-100.23723243243244, 31.5], [-100.25, 31.483252977878617], [-100.35996275605214, 31.5], [-100.5, 31.57475149105368], [-100.54599388379205, 31.5], [-100.51341653666147, 31.25], [-100.5, 31.202747252747255], [-100.4891677675033, 31.0], [-100.4748551465576, 30.75], [-100.41664757541047, 30.5], [-100.37146486028789, 30.25], [-100.25, 30.138539238539238], [-100.04898534385569, 30.0], [-100.0, 29.966028146989835], [-99.95280150324564, 29.75], [-99.93926261319534, 29.5], [-99.92260922968941, 29.25], [-99.86112167300381, 29.0], [-99.77454587796926, 28.75], [-99.75, 28.583753943217665], [-99.74799137539719, 28.5], [-99.75, 28.455823627287852], [-99.80182237117721, 28.25], [-99.75, 28.197316865417378], [-99.67889809699201, 28.0], [-99.59472240154939, 27.75], [-99.5, 27.6549092676604], [-99.36672706997491, 27.5], [-99.25, 27.38218908272369], [-99.01731054977712, 27.25], [-99.0, 27.232901174168298], [-98.75, 27.078745212885785], [-98.5, 27.05635265700483], [-98.25, 27.088330529857025], [-98.0, 27.116659655027345], [-97.75, 27.195258620689657], [-97.5, 27.088490566037734], [-97.25, 27.086100549218422], [-97.20991345397324, 27.0], [-97.2162581813118, 26.75], [-97.24513017498933, 26.5], [-97.25, 26.493841088200366], [-97.5, 26.36652666946661], [-97.6766072565245, 26.25], [-97.75, 26.23992132867133], [-98.0, 26.183977998580552], [-98.12899975118188, 26.0], [-98.25, 25.94507567201265], [-98.446138996139, 25.75], [-98.44823712948518, 25.5], [-98.4650283768445, 25.25], [-98.42347451543432, 25.0], [-98.5, 24.921885686370295], [-98.75, 24.913997172288425], [-99.0, 24.974298790728923], [-99.21326652826573, 24.75], [-99.24629292154229, 24.5], [-99.23819589163442, 24.25], [-99.08436608234814, 24.0], [-99.0, 23.86092069892473], [-98.99456446566771, 23.75], [-98.75, 23.504530129243378], [-98.73707197434204, 23.5], [-98.75, 23.490755480607085], [-98.88650398406375, 23.5], [-99.0, 23.602105734767026], [-99.02127481309616, 23.75]], [[-90.5095744680851, 32.5], [-90.5, 32.49922413793104], [-90.49905063291139, 32.5], [-90.5, 32.50049889135255], [-90.5095744680851, 32.5]], [[-91.25, 32.780258014073496], [-91.5, 32.776581576026636], [-91.58646209386282, 32.75], [-91.5, 32.72820746132848], [-91.25, 32.654444444444444], [-91.0, 32.53258426966292], [-90.80552763819095, 32.75], [-91.0, 32.78128536782538], [-91.25, 32.780258014073496]], [[-89.0140360766629, 33.0], [-89.0, 32.95585106382979], [-88.8703125, 33.0], [-89.0, 33.03128140703517], [-89.0140360766629, 33.0]], [[-102.50483983286908, 29.0], [-102.5, 28.990518417462482], [-102.25, 28.95864737550471], [-102.15989736070381, 29.0], [-102.25, 29.19143302180685], [-102.5, 29.047278911564625], [-102.50483983286908, 29.0]], [[-102.25, 28.243315789473684], [-102.23573033707865, 28.25], [-102.25, 28.258053265694357], [-102.25712682379348, 28.25], [-102.25, 28.243315789473684]], [[-102.29304932735425, 26.75], [-102.25, 26.606716417910448], [-102.21534296028881, 26.75], [-102.25, 26.77861400894188], [-102.29304932735425, 26.75]], [[-91.88659066232356, 33.25], [-92.0, 33.30648999459167], [-92.25, 33.42204861111111], [-92.5, 33.39857938718663], [-92.75, 33.337640449438204], [-93.0, 33.493898809523806], [-93.00169141914192, 33.5], [-93.25, 33.7014390896921], [-93.5, 33.70728459530026], [-93.69204160619255, 33.5], [-93.5, 33.341410307630845], [-93.25, 33.28865870786517], [-93.14954379562045, 33.25], [-93.0, 33.13326210826211], [-92.75, 33.16102661596958], [-92.56452554744526, 33.0], [-92.5, 32.907916666666665], [-92.455081300813, 33.0], [-92.25, 33.0778849864917], [-92.0, 33.19562727745966], [-91.88659066232356, 33.25]], [[-93.75, 33.05823223570191], [-93.60200624164065, 33.25], [-93.75, 33.433702268954065], [-93.9707114361702, 33.25], [-93.75, 33.05823223570191]], [[-102.0, 26.279163214581608], [-102.02682926829269, 26.25], [-102.0, 26.220617696160268], [-101.75595567867036, 26.0], [-101.75, 25.995685618729098], [-101.74153543307087, 26.0], [-101.75, 26.005743544078364], [-101.97156704361873, 26.25], [-102.0, 26.279163214581608]], [[-89.04570765661254, 33.75], [-89.0, 33.69573002754821], [-88.9519512195122, 33.75], [-89.0, 33.79487471526196], [-89.04570765661254, 33.75]], [[-102.78172043010753, 24.75], [-102.75, 24.74791666666667], [-102.7290780141844, 24.75], [-102.75, 24.75686046511628], [-102.78172043010753, 24.75]], [[-101.75, 24.83006230529595], [-101.89743243243244, 25.0], [-102.0, 25.140555555555558], [-102.25, 25.11705426356589], [-102.3555944055944, 25.0], [-102.25714285714285, 24.75], [-102.25, 24.749644859813085], [-102.22888888888889, 24.75], [-102.0, 24.803367875647666], [-101.92847222222223, 24.75], [-101.75, 24.744002333722285], [-101.5, 24.745477903391574], [-101.47781512605042, 24.75], [-101.5, 24.79217252396166], [-101.75, 24.83006230529595]], [[-99.24786809326093, 24.75], [-99.25, 24.770459770114943], [-99.5, 24.806118143459916], [-99.5030330672748, 24.75], [-99.5001776061776, 24.5], [-99.5, 24.48193717277487], [-99.49760083449235, 24.5], [-99.25, 24.732560418027433], [-99.24786809326093, 24.75]], [[-88.0, 34.38394268774704], [-87.83197424892704, 34.5], [-88.0, 34.551946041574524], [-88.09525547445256, 34.5], [-88.0, 34.38394268774704]]], [[[-103.125, 30.0], [-103.125, 30.125], [-103.125, 30.25], [-103.125, 30.375], [-103.125, 30.5], [-103.125, 30.622976878612718], [-103.0, 30.622976878612718], [-102.75, 30.581906614785993], [-102.50235294117647, 30.5], [-102.75, 30.29158415841584], [-102.82924528301886, 30.25], [-102.83536036036035, 30.0], [-103.0, 29.7715625], [-103.125, 29.7715625], [-103.125, 29.875], [-103.125, 30.0]]], [[[-103.125, 31.375], [-103.125, 31.5], [-103.125, 31.616549295774647], [-103.0, 31.616549295774647], [-102.88664383561644, 31.5], [-102.97018633540372, 31.25], [-103.0, 31.227777777777778], [-103.125, 31.227777777777778], [-103.125, 31.25], [-103.125, 31.375]]], [[[-102.75, 32.443939393939395], [-102.91842105263157, 32.25], [-103.0, 32.204187192118226], [-103.125, 32.204187192118226], [-103.125, 32.25], [-103.125, 32.375], [-103.125, 32.5], [-103.125, 32.625], [-103.125, 32.75], [-103.125, 32.875], [-103.125, 33.0], [-103.125, 33.125], [-103.125, 33.25], [-103.125, 33.375], [-103.125, 33.5], [-103.125, 33.607718120805366], [-103.0, 33.607718120805366], [-102.75, 33.61941176470588], [-102.5, 33.67775], [-102.26915584415585, 33.5], [-102.32570093457944, 33.25], [-102.5, 33.05871794871795], [-102.57111801242236, 33.0], [-102.58833333333334, 32.75], [-102.7056, 32.5], [-102.5, 32.27456140350877], [-102.44909090909091, 32.25], [-102.5, 32.22021276595745], [-102.53181818181818, 32.25], [-102.75, 32.443939393939395]]], [[[-91.625, 22.875], [-91.75, 22.875], [-91.875, 22.875], [-92.0, 22.875], [-92.125, 22.875], [-92.25, 22.875], [-92.375, 22.875], [-92.38771739130435, 22.875], [-92.38771739130435, 23.0], [-92.5, 23.12837613918807], [-92.59563517915309, 23.25], [-92.75, 23.431154434250764], [-92.78298534798535, 23.5], [-92.75, 23.581863636363636], [-92.57267497603068, 23.75], [-92.5, 23.786547733847637], [-92.25, 23.873834586466167], [-92.0, 23.973463508322663], [-91.84358490566038, 24.0], [-91.75, 24.008361429534727], [-91.5, 24.016475781436412], [-91.39934402332361, 24.0], [-91.25, 23.924335302806497], [-91.0, 23.834484484484484], [-90.90949061662198, 23.75], [-91.0, 23.670113582584], [-91.25, 23.571983408748114], [-91.30026329647183, 23.5], [-91.25632727272728, 23.25], [-91.25, 23.17232142857143], [-91.2375322997416, 23.0], [-91.2375322997416, 22.875], [-91.25, 22.875], [-91.375, 22.875], [-91.5, 22.875], [-91.625, 22.875]]], [[[-87.875, 22.875], [-87.90294117647059, 22.875], [-87.90294117647059, 23.0], [-87.9734309623431, 23.25], [-87.96083573487032, 23.5], [-87.81596434359805, 23.75], [-87.85068728522337, 24.0], [-87.75, 24.162476894639557], [-87.5, 24.03344680851064], [-87.48475562451513, 24.0], [-87.27527426160337, 23.75], [-87.28048694424841, 23.5], [-87.44457692307692, 23.25], [-87.44320585842148, 23.0], [-87.44320585842148, 22.875], [-87.5, 22.875], [-87.625, 22.875], [-87.75, 22.875], [-87.875, 22.875]]], [[[-95.63214862681745, 23.5], [-95.56231086657496, 23.75], [-95.5, 23.817511177347242], [-95.38053658536586, 24.0], [-95.25, 24.08320895522388], [-95.13095872170439, 24.25], [-95.08861759425494, 24.5], [-95.01631469979296, 24.75], [-95.0, 24.7699949251459], [-94.75, 24.919208715596334], [-94.62769097222223, 25.0], [-94.5, 25.036213687838504], [-94.25, 25.15], [-94.07461139896373, 25.25], [-94.0, 25.30570599613153], [-93.87868357487923, 25.5], [-93.75, 25.680593220338984], [-93.69561752988048, 25.75], [-93.5, 25.880353982300885], [-93.25, 25.93741610738255], [-93.17733766233766, 26.0], [-93.0621686223381, 26.25], [-93.0, 26.32912057522124], [-92.93086031899469, 26.25], [-92.95144025604552, 26.0], [-92.9819280273181, 25.75], [-93.0, 25.683397870280736], [-93.18251445086705, 25.5], [-93.23785091965149, 25.25], [-93.25, 25.212537313432833], [-93.36355661881977, 25.0], [-93.5, 24.85836092715232], [-93.58522135416666, 24.75], [-93.75, 24.667179319371726], [-93.92109845947756, 24.5], [-94.0, 24.44588883785025], [-94.22539640591967, 24.25], [-94.2107086861085, 24.0], [-94.25, 23.8825679475164], [-94.34367549668875, 23.75], [-94.33034274193548, 23.5], [-94.5, 23.264944134078213], [-94.75, 23.308340649692713], [-94.92486842105264, 23.25], [-95.0, 23.17844611528822], [-95.25, 23.009942363112394], [-95.5, 23.18846153846154], [-95.6024, 23.25], [-95.63214862681745, 23.5]]], [[[-86.875, 25.875], [-86.875, 25.75], [-86.875, 25.686097010716303], [-87.0, 25.686097010716303], [-87.02128898910183, 25.75], [-87.0, 25.963370998116762], [-86.875, 25.963370998116762], [-86.875, 25.875]]], [[[-86.875, 26.75], [-86.875, 26.735739644970415], [-87.0, 26.735739644970415], [-87.01083633093525, 26.75], [-87.0, 26.783013698630135], [-86.875, 26.783013698630135], [-86.875, 26.75]]], [[[-94.69340659340659, 35.125], [-94.625, 35.125], [-94.5, 35.125], [-94.375, 35.125], [-94.25, 35.125], [-94.125, 35.125], [-94.04133790737565, 35.125], [-94.04133790737565, 35.0], [-94.25, 34.77090395480226], [-94.5, 34.77756714060032], [-94.69340659340659, 35.0], [-94.69340659340659, 35.125]]]]}}, {"id": "2", "type": "Feature", "properties": {"min_value": 0.9327888488769536, "max_value": 4.3460845947265625, "color": "#6baed6"}, "geometry": {"type": "MultiPolygon", "coordinates": [[[[-100.375, 22.875], [-100.5, 22.875], [-100.5765201005025, 22.875], [-100.5765201005025, 23.0], [-100.5404736510399, 23.25], [-100.5, 23.32029131935674], [-100.41424242424242, 23.25], [-100.25, 23.062621586780736], [-100.11379046647974, 23.0], [-100.11379046647974, 22.875], [-100.125, 22.875], [-100.25, 22.875], [-100.375, 22.875]]], [[[-102.02682926829269, 26.25], [-102.0, 26.279163214581608], [-101.97156704361873, 26.25], [-101.75, 26.005743544078364], [-101.74153543307087, 26.0], [-101.75, 25.995685618729098], [-101.75595567867036, 26.0], [-102.0, 26.220617696160268], [-102.02682926829269, 26.25]]], [[[-87.44320585842148, 22.875], [-87.44320585842148, 23.0], [-87.44457692307692, 23.25], [-87.28048694424841, 23.5], [-87.27527426160337, 23.75], [-87.48475562451513, 24.0], [-87.5, 24.03344680851064], [-87.75, 24.162476894639557], [-87.85068728522337, 24.0], [-87.81596434359805, 23.75], [-87.96083573487032, 23.5], [-87.9734309623431, 23.25], [-87.90294117647059, 23.0], [-87.90294117647059, 22.875], [-88.0, 22.875], [-88.125, 22.875], [-88.25, 22.875], [-88.375, 22.875], [-88.5, 22.875], [-88.625, 22.875], [-88.75, 22.875], [-88.875, 22.875], [-89.0, 22.875], [-89.125, 22.875], [-89.25, 22.875], [-89.375, 22.875], [-89.5, 22.875], [-89.625, 22.875], [-89.75, 22.875], [-89.875, 22.875], [-90.0, 22.875], [-90.125, 22.875], [-90.25, 22.875], [-90.375, 22.875], [-90.5, 22.875], [-90.625, 22.875], [-90.75, 22.875], [-90.875, 22.875], [-91.0, 22.875], [-91.125, 22.875], [-91.2375322997416, 22.875], [-91.2375322997416, 23.0], [-91.25, 23.17232142857143], [-91.25632727272728, 23.25], [-91.30026329647183, 23.5], [-91.25, 23.571983408748114], [-91.0, 23.670113582584], [-90.90949061662198, 23.75], [-91.0, 23.834484484484484], [-91.25, 23.924335302806497], [-91.39934402332361, 24.0], [-91.5, 24.016475781436412], [-91.75, 24.008361429534727], [-91.84358490566038, 24.0], [-92.0, 23.973463508322663], [-92.25, 23.873834586466167], [-92.5, 23.786547733847637], [-92.57267497603068, 23.75], [-92.75, 23.581863636363636], [-92.78298534798535, 23.5], [-92.75, 23.431154434250764], [-92.59563517915309, 23.25], [-92.5, 23.12837613918807], [-92.38771739130435, 23.0], [-92.38771739130435, 22.875], [-92.5, 22.875], [-92.625, 22.875], [-92.75, 22.875], [-92.875, 22.875], [-93.0, 22.875], [-93.125, 22.875], [-93.25, 22.875], [-93.375, 22.875], [-93.5, 22.875], [-93.625, 22.875], [-93.75, 22.875], [-93.875, 22.875], [-94.0, 22.875], [-94.125, 22.875], [-94.25, 22.875], [-94.375, 22.875], [-94.5, 22.875], [-94.625, 22.875], [-94.75, 22.875], [-94.875, 22.875], [-95.0, 22.875], [-95.125, 22.875], [-95.25, 22.875], [-95.375, 22.875], [-95.5, 22.875], [-95.625, 22.875], [-95.75, 22.875], [-95.875, 22.875], [-96.0, 22.875], [-96.125, 22.875], [-96.25, 22.875], [-96.375, 22.875], [-96.5, 22.875], [-96.625, 22.875], [-96.75, 22.875], [-96.875, 22.875], [-97.0, 22.875], [-97.125, 22.875], [-97.25, 22.875], [-97.29448669201521, 22.875], [-97.29448669201521, 23.0], [-97.25, 23.128571428571426], [-97.24485567970206, 23.25], [-97.22844899665552, 23.5], [-97.19717583497054, 23.75], [-97.21904761904761, 24.0], [-97.22928571428571, 24.25], [-97.22679845708775, 24.5], [-97.23206854345165, 24.75], [-97.22587727708533, 25.0], [-97.19503222938431, 25.25], [-97.25, 25.38432916892993], [-97.5, 25.274317213730896], [-97.51454368350068, 25.25], [-97.67673515981735, 25.0], [-97.75, 24.863097269624575], [-97.76454515527269, 24.75], [-97.77446544888133, 24.5], [-97.8189096761215, 24.25], [-97.86444261394838, 24.0], [-98.0, 23.75053057099545], [-98.00030755711775, 23.75], [-98.02862197392923, 23.5], [-98.0381836596894, 23.25], [-98.06679033785917, 23.0], [-98.06679033785917, 22.875], [-98.125, 22.875], [-98.25, 22.875], [-98.375, 22.875], [-98.5, 22.875], [-98.625, 22.875], [-98.75, 22.875], [-98.875, 22.875], [-98.91363181590795, 22.875], [-98.91363181590795, 23.0], [-98.75, 23.03881571140382], [-98.5, 23.073588330196287], [-98.25, 23.217907862833393], [-98.23957348638308, 23.25], [-98.25, 23.483964646464646], [-98.25217465753424, 23.5], [-98.32467527293011, 23.75], [-98.25, 23.82396211523283], [-98.09187167671038, 24.0], [-98.05237015663644, 24.25], [-98.0, 24.347292418772565], [-97.90116822429907, 24.5], [-97.96091846812246, 24.75], [-98.0, 24.823523947151116], [-98.25, 24.780222956234518], [-98.2797017650639, 24.75], [-98.5, 24.668473609129816], [-98.75, 24.67254179542033], [-98.88146853146853, 24.75], [-99.0, 24.824017467248908], [-99.07037687639732, 24.75], [-99.16047141760983, 24.5], [-99.0, 24.263389195304768], [-98.9950920165889, 24.25], [-98.96610626860557, 24.0], [-98.93562983698337, 23.75], [-98.75, 23.563682940534825], [-98.56826242807283, 23.5], [-98.75, 23.37004384485666], [-99.0, 23.394576569774756], [-99.14916763108698, 23.5], [-99.25, 23.74671095621869], [-99.25058620288054, 23.75], [-99.38025566496619, 24.0], [-99.5, 24.120236464351656], [-99.66206203972328, 24.25], [-99.61461261261262, 24.5], [-99.62976624857468, 24.75], [-99.75, 24.873645637898687], [-99.91373651420757, 25.0], [-100.0, 25.08471237782586], [-100.08987585703274, 25.25], [-100.25, 25.41265144646831], [-100.45800527009223, 25.25], [-100.45730200975876, 25.0], [-100.42555365914578, 24.75], [-100.364486479286, 24.5], [-100.25, 24.25680531975099], [-100.2465373263264, 24.25], [-100.1000441774165, 24.0], [-100.25, 23.93519663993891], [-100.44901500938086, 24.0], [-100.5, 24.03186281694269], [-100.75, 24.085443188578225], [-101.0, 24.18640116805961], [-101.20413703943116, 24.25], [-101.25, 24.27407124681934], [-101.5, 24.30477579056506], [-101.75, 24.368921175684704], [-102.0, 24.35348197082301], [-102.0888665642359, 24.25], [-102.0, 24.1309342834521], [-101.89485630722278, 24.0], [-101.96160696008188, 23.75], [-102.0, 23.645398773006136], [-102.25, 23.613669301712783], [-102.5, 23.578906917164815], [-102.53133265513733, 23.5], [-102.5, 23.44092071611253], [-102.37395525538201, 23.25], [-102.28525784753363, 23.0], [-102.28525784753363, 22.875], [-102.375, 22.875], [-102.5, 22.875], [-102.625, 22.875], [-102.75, 22.875], [-102.83548076923077, 22.875], [-102.83548076923077, 23.0], [-103.0, 23.164203454894434], [-103.125, 23.164203454894434], [-103.125, 23.25], [-103.125, 23.375], [-103.125, 23.5], [-103.125, 23.625], [-103.125, 23.75], [-103.125, 23.875], [-103.125, 23.94781818181818], [-103.0, 23.94781818181818], [-102.96930228731281, 24.0], [-102.82917418772563, 24.25], [-102.75, 24.420174587778856], [-102.5, 24.47789340101523], [-102.46083633093525, 24.5], [-102.25, 24.587644859813082], [-102.0, 24.657872386759582], [-101.75, 24.64287047841307], [-101.5, 24.597019527235354], [-101.25, 24.651455989410984], [-101.03037428023032, 24.5], [-101.0, 24.48704196519959], [-100.75, 24.4194247603168], [-100.5, 24.387848970251717], [-100.4836785666711, 24.5], [-100.5, 24.748781725888325], [-100.50089753178759, 24.75], [-100.70363223609534, 25.0], [-100.75, 25.1794289897511], [-100.79630163304515, 25.25], [-100.75, 25.377851458885942], [-100.73631500742943, 25.5], [-100.5, 25.665322245322244], [-100.32332814930015, 25.5], [-100.25, 25.486398664798486], [-100.01727453446387, 25.25], [-100.0, 25.218230993061255], [-99.77777313478195, 25.0], [-99.75, 24.97856765947467], [-99.52773945267958, 24.75], [-99.52248648648649, 24.5], [-99.52894071263854, 24.25], [-99.5, 24.226827089165525], [-99.2741013168822, 24.0], [-99.25, 23.953421987848216], [-99.02127481309616, 23.75], [-99.0, 23.602105734767026], [-98.88650398406375, 23.5], [-98.75, 23.490755480607085], [-98.73707197434204, 23.5], [-98.75, 23.504530129243378], [-98.99456446566771, 23.75], [-99.0, 23.86092069892473], [-99.08436608234814, 24.0], [-99.23819589163442, 24.25], [-99.24629292154229, 24.5], [-99.21326652826573, 24.75], [-99.0, 24.974298790728923], [-98.75, 24.913997172288425], [-98.5, 24.921885686370295], [-98.42347451543432, 25.0], [-98.4650283768445, 25.25], [-98.44823712948518, 25.5], [-98.446138996139, 25.75], [-98.25, 25.94507567201265], [-98.12899975118188, 26.0], [-98.0, 26.183977998580552], [-97.75, 26.23992132867133], [-97.6766072565245, 26.25], [-97.5, 26.36652666946661], [-97.25, 26.493841088200366], [-97.24513017498933, 26.5], [-97.2162581813118, 26.75], [-97.20991345397324, 27.0], [-97.25, 27.086100549218422], [-97.5, 27.088490566037734], [-97.75, 27.195258620689657], [-98.0, 27.116659655027345], [-98.25, 27.088330529857025], [-98.5, 27.05635265700483], [-98.75, 27.078745212885785], [-99.0, 27.232901174168298], [-99.01731054977712, 27.25], [-99.25, 27.38218908272369], [-99.36672706997491, 27.5], [-99.5, 27.6549092676604], [-99.59472240154939, 27.75], [-99.67889809699201, 28.0], [-99.75, 28.197316865417378], [-99.80182237117721, 28.25], [-99.75, 28.455823627287852], [-99.74799137539719, 28.5], [-99.75, 28.583753943217665], [-99.77454587796926, 28.75], [-99.86112167300381, 29.0], [-99.92260922968941, 29.25], [-99.93926261319534, 29.5], [-99.95280150324564, 29.75], [-100.0, 29.966028146989835], [-100.04898534385569, 30.0], [-100.25, 30.138539238539238], [-100.37146486028789, 30.25], [-100.41664757541047, 30.5], [-100.4748551465576, 30.75], [-100.4891677675033, 31.0], [-100.5, 31.202747252747255], [-100.51341653666147, 31.25], [-100.54599388379205, 31.5], [-100.5, 31.57475149105368], [-100.35996275605214, 31.5], [-100.25, 31.483252977878617], [-100.23723243243244, 31.5], [-100.0, 31.723507842737828], [-99.9349099099099, 31.75], [-99.75, 31.942723004694834], [-99.71642201834862, 32.0], [-99.5, 32.20851502651738], [-99.40369357045144, 32.25], [-99.25, 32.40161943319838], [-99.10592885375495, 32.5], [-99.0, 32.5488160291439], [-98.75, 32.70815641586013], [-98.65578207381371, 32.75], [-98.5, 32.92400863761288], [-98.25, 32.9812967459932], [-98.14078275666478, 33.0], [-98.0, 33.114960629921256], [-97.75, 33.21043489127718], [-97.65323960880195, 33.25], [-97.5, 33.35333882934872], [-97.25, 33.34304683727668], [-97.0, 33.429953145917004], [-96.83269384492407, 33.5], [-96.75, 33.57229210342418], [-96.5, 33.59387166546503], [-96.25, 33.506607574536666], [-96.0, 33.57564543889845], [-95.77914572864321, 33.5], [-95.81965934415791, 33.25], [-96.0, 33.04812900926586], [-96.25, 33.09975806451613], [-96.5, 33.14191176470588], [-96.57808496291301, 33.0], [-96.5, 32.916690647482014], [-96.25, 32.924357929066446], [-96.0, 32.95928549894483], [-95.75, 32.99693661971831], [-95.70921875, 33.0], [-95.5, 33.06506316812439], [-95.25, 33.1818487394958], [-95.18275290215588, 33.25], [-95.0, 33.329912980420595], [-94.75, 33.36758917589176], [-94.63269938650306, 33.25], [-94.6453781512605, 33.0], [-94.5, 32.99749020745684], [-94.25, 32.99279580152672], [-94.0, 32.980110192837465], [-93.75, 32.97429882712902], [-93.5, 32.9393397940642], [-93.25, 32.93472622478386], [-93.0, 32.939213775178686], [-92.75, 32.85446735395189], [-92.61347305389222, 32.75], [-92.5, 32.7305641025641], [-92.25, 32.6691067961165], [-92.0, 32.592618453865335], [-91.8061586638831, 32.5], [-91.75, 32.47795081967213], [-91.5, 32.38626168224299], [-91.30966057441253, 32.25], [-91.25, 32.23558965734707], [-91.0, 32.19047929572872], [-90.75, 32.158719945817815], [-90.5, 32.02402190923318], [-90.44866220735786, 32.0], [-90.25, 31.887924528301888], [-90.11072684642438, 32.0], [-90.0, 32.09161008729389], [-89.88396805896807, 32.0], [-89.83994490358127, 31.75], [-89.82076023391812, 31.5], [-89.8858286908078, 31.25], [-89.86982152514872, 31.0], [-89.78696529459242, 30.75], [-89.75, 30.736816350028786], [-89.56165293040293, 30.5], [-89.5, 30.4795349190668], [-89.25, 30.463295752192234], [-89.0, 30.363998082454458], [-88.85777511961723, 30.25], [-88.75, 30.220059813912272], [-88.5, 30.12883282506238], [-88.31382211538461, 30.0], [-88.25, 29.965954263731568], [-88.0, 29.92478938500421], [-87.75, 29.930173076923076], [-87.5, 29.933769954973393], [-87.38756080611536, 30.0], [-87.25, 30.089046333783177], [-87.0, 30.076228107646305], [-86.875, 30.076228107646305], [-86.875, 30.0], [-86.875, 29.875], [-86.875, 29.75], [-86.875, 29.625], [-86.875, 29.5], [-86.875, 29.375], [-86.875, 29.25], [-86.875, 29.125], [-86.875, 29.0], [-86.875, 28.875], [-86.875, 28.75], [-86.875, 28.625], [-86.875, 28.62492868785656], [-87.0, 28.62492868785656], [-87.13632023095714, 28.75], [-87.25, 28.9121989860583], [-87.44652482269504, 29.0], [-87.5, 29.02626262626263], [-87.75, 29.21545317869416], [-87.78644086995922, 29.25], [-87.99976970317297, 29.5], [-88.0, 29.500163576881135], [-88.25, 29.608576874205845], [-88.44526315789474, 29.75], [-88.5, 29.785379880123116], [-88.71761662286465, 30.0], [-88.75, 30.02183761630483], [-89.0, 30.135316952137025], [-89.23624896949711, 30.25], [-89.25, 30.259497779296208], [-89.5, 30.343540542594422], [-89.75, 30.42596293743778], [-89.91601133241758, 30.5], [-90.0, 30.56069611614344], [-90.25, 30.663496712492528], [-90.5, 30.60096445301736], [-90.62713916314057, 30.75], [-90.69739010989011, 31.0], [-90.75, 31.059968684759916], [-91.0, 31.198534525583707], [-91.04013948082138, 31.25], [-91.11508394543547, 31.5], [-91.25, 31.73570119156737], [-91.25805369127517, 31.75], [-91.5, 31.897466960352425], [-91.63028788484606, 32.0], [-91.75, 32.04883379546567], [-92.0, 32.11264761627059], [-92.25, 32.17245294293397], [-92.5, 32.23831889344885], [-92.52493510707333, 32.25], [-92.75, 32.442680555555555], [-92.84615563839702, 32.5], [-93.0, 32.5451394585726], [-93.25, 32.6160221822542], [-93.5, 32.65208964009418], [-93.75, 32.68712597609011], [-94.0, 32.720402647545505], [-94.25, 32.73590541047778], [-94.5, 32.74575914371227], [-94.68786516853933, 32.75], [-94.75, 32.75383017038371], [-94.77285123966942, 32.75], [-95.0, 32.73678415156032], [-95.25, 32.72822746713132], [-95.5, 32.71818234375903], [-95.75, 32.700229419703106], [-96.0, 32.672721179624666], [-96.25, 32.6379412490743], [-96.5, 32.5488053725946], [-96.75, 32.50295404814004], [-96.92625325238508, 32.75], [-97.0, 32.83245733126455], [-97.18317430025445, 33.0], [-97.25, 33.04120685146444], [-97.38382165605096, 33.0], [-97.5, 32.98392668311597], [-97.75, 32.96221087892806], [-98.0, 32.93836818745252], [-98.25, 32.80746964545896], [-98.32632223942208, 32.75], [-98.5, 32.62257713420405], [-98.68488936473948, 32.5], [-98.75, 32.46898122959739], [-99.0, 32.367406210592684], [-99.12192257325258, 32.25], [-99.20684433080932, 32.0], [-99.25, 31.933778481967707], [-99.42136625861826, 31.75], [-99.5, 31.650631223328592], [-99.70398507103299, 31.5], [-99.75, 31.475547024952014], [-100.0, 31.338875959972075], [-100.07077464788732, 31.25], [-100.21081742535488, 31.0], [-100.0, 30.75978806469604], [-99.98494208494209, 30.75], [-99.78787266296109, 30.5], [-99.76457683128328, 30.25], [-99.75, 30.20564245810056], [-99.7217042047813, 30.0], [-99.70809447613748, 29.75], [-99.71099241049332, 29.5], [-99.68072128610729, 29.25], [-99.65084418716836, 29.0], [-99.63137080800492, 28.75], [-99.61260402481464, 28.5], [-99.55367118444313, 28.25], [-99.5, 28.144510076441975], [-99.4248464040477, 28.0], [-99.25, 27.75676219205631], [-99.24484542667348, 27.75], [-99.0, 27.526510027985076], [-98.94910454443698, 27.5], [-98.75, 27.38411726384365], [-98.5, 27.401673575925074], [-98.25, 27.469546875], [-98.14870062370062, 27.5], [-98.0, 27.69124331550802], [-97.75, 27.564149305555556], [-97.51243818001979, 27.5], [-97.5, 27.494827231591938], [-97.25, 27.495507094062006], [-97.21427576601671, 27.5], [-97.0, 27.52721082419526], [-96.94837248322148, 27.5], [-96.93663860440896, 27.25], [-96.968722667244, 27.0], [-96.99176900330492, 26.75], [-97.0, 26.70514691943128], [-97.092373026035, 26.5], [-97.25, 26.30064773831372], [-97.30919873817035, 26.25], [-97.25, 26.12653947368421], [-97.0, 26.01243001119821], [-96.75, 26.04087457449594], [-96.70613936499016, 26.0], [-96.75, 25.967492711370262], [-96.88022443890274, 25.75], [-96.82645006541648, 25.5], [-96.86535281960437, 25.25], [-96.91207590569293, 25.0], [-96.9336942492471, 24.75], [-96.81315468940316, 24.5], [-96.75, 24.418346456692912], [-96.5533118675253, 24.25], [-96.5, 24.16226343679031], [-96.25, 24.16123131392604], [-96.17443067649029, 24.25], [-96.03133276377616, 24.5], [-96.0, 24.529660331581077], [-95.75, 24.57826765509169], [-95.5, 24.641454802259886], [-95.42063000258197, 24.75], [-95.25, 24.917813610970036], [-95.1829500725088, 25.0], [-95.0, 25.21172380724047], [-94.96400225479144, 25.25], [-94.75, 25.47190787935469], [-94.69934654300168, 25.5], [-94.5, 25.71522530723714], [-94.46613475177305, 25.75], [-94.25, 25.968556701030927], [-94.2323166120494, 26.0], [-94.0, 26.240689475058762], [-93.98887328339575, 26.25], [-93.75, 26.475567344532863], [-93.70329577464788, 26.5], [-93.5, 26.603573478760048], [-93.25, 26.72356687898089], [-93.17396053558844, 26.75], [-93.0, 26.794167113973877], [-92.94997973657549, 26.75], [-92.75, 26.618448413756333], [-92.6060971659919, 26.5], [-92.5, 26.341942098914352], [-92.40776863504357, 26.25], [-92.36573916737468, 26.0], [-92.26035316884374, 25.75], [-92.25, 25.695408163265306], [-92.185413153457, 25.5], [-92.16828885400314, 25.25], [-92.0, 25.145871782418652], [-91.86591619762352, 25.25], [-91.75, 25.313672277567846], [-91.54267337807606, 25.25], [-91.5, 25.23609187021509], [-91.46281676413255, 25.25], [-91.25, 25.34752121482805], [-91.0, 25.39101099830795], [-90.75, 25.45525462962963], [-90.5, 25.402200614124872], [-90.25, 25.40865671641791], [-90.05711693548388, 25.25], [-90.0, 25.193655529037393], [-89.90066619915848, 25.25], [-89.75, 25.314538900570742], [-89.5, 25.301162790697674], [-89.25, 25.312824339839267], [-89.0, 25.30784070397112], [-88.85953424657535, 25.25], [-88.75, 25.19913486005089], [-88.5, 25.10041305245766], [-88.35775307197191, 25.0], [-88.25, 24.940074845427922], [-88.0, 24.904957038995374], [-87.75, 24.819772827525362], [-87.62719332298137, 24.75], [-87.5, 24.67894166124485], [-87.29919688488684, 24.5], [-87.25, 24.4317521944632], [-87.09525725783271, 24.25], [-87.05723470052084, 24.0], [-87.0, 23.77031352057479], [-86.875, 23.77031352057479], [-86.875, 23.75], [-86.875, 23.625], [-86.875, 23.5], [-86.875, 23.375], [-86.875, 23.25], [-86.875, 23.125], [-86.875, 23.0], [-86.875, 22.875], [-87.0, 22.875], [-87.125, 22.875], [-87.25, 22.875], [-87.375, 22.875], [-87.44320585842148, 22.875]], [[-97.39329682997118, 25.75], [-97.29133499527207, 26.0], [-97.5, 26.154042391166392], [-97.75, 26.083492132867132], [-97.85725996631106, 26.0], [-98.0, 25.90619188191882], [-98.24284566838784, 25.75], [-98.17189522805961, 25.5], [-98.12050730207532, 25.25], [-98.0, 25.1304118993135], [-97.80446495385382, 25.25], [-97.75, 25.2771985550573], [-97.58299253034548, 25.5], [-97.5, 25.62246486635437], [-97.39329682997118, 25.75]], [[-102.48069182389938, 24.0], [-102.5, 24.023355874894335], [-102.55804621848739, 24.0], [-102.5, 23.897968980797636], [-102.48069182389938, 24.0]], [[-88.48866129032258, 24.0], [-88.5, 24.00940845824411], [-88.66818181818182, 24.0], [-88.5, 23.923253275109168], [-88.48866129032258, 24.0]], [[-89.75, 23.86994663108739], [-90.0, 23.929143214509068], [-90.25, 23.869953884356157], [-90.33894003156233, 23.75], [-90.3468188976378, 23.5], [-90.25, 23.40141116100064], [-90.03428070175438, 23.5], [-90.0, 23.51964213912344], [-89.9534761904762, 23.5], [-89.75, 23.42688227241615], [-89.59278881530537, 23.5], [-89.5, 23.59058908045977], [-89.39764760147601, 23.75], [-89.5, 23.810777869076965], [-89.75, 23.86994663108739]], [[-96.04050480769232, 23.5], [-96.02520986358867, 23.25], [-96.0, 23.003589743589743], [-95.81936090225564, 23.25], [-95.89767206477732, 23.5], [-96.0, 23.590429338103757], [-96.04050480769232, 23.5]], [[-94.33034274193548, 23.5], [-94.34367549668875, 23.75], [-94.25, 23.8825679475164], [-94.2107086861085, 24.0], [-94.22539640591967, 24.25], [-94.0, 24.44588883785025], [-93.92109845947756, 24.5], [-93.75, 24.667179319371726], [-93.58522135416666, 24.75], [-93.5, 24.85836092715232], [-93.36355661881977, 25.0], [-93.25, 25.212537313432833], [-93.23785091965149, 25.25], [-93.18251445086705, 25.5], [-93.0, 25.683397870280736], [-92.9819280273181, 25.75], [-92.95144025604552, 26.0], [-92.93086031899469, 26.25], [-93.0, 26.32912057522124], [-93.0621686223381, 26.25], [-93.17733766233766, 26.0], [-93.25, 25.93741610738255], [-93.5, 25.880353982300885], [-93.69561752988048, 25.75], [-93.75, 25.680593220338984], [-93.87868357487923, 25.5], [-94.0, 25.30570599613153], [-94.07461139896373, 25.25], [-94.25, 25.15], [-94.5, 25.036213687838504], [-94.62769097222223, 25.0], [-94.75, 24.919208715596334], [-95.0, 24.7699949251459], [-95.01631469979296, 24.75], [-95.08861759425494, 24.5], [-95.13095872170439, 24.25], [-95.25, 24.08320895522388], [-95.38053658536586, 24.0], [-95.5, 23.817511177347242], [-95.56231086657496, 23.75], [-95.63214862681745, 23.5], [-95.6024, 23.25], [-95.5, 23.18846153846154], [-95.25, 23.009942363112394], [-95.0, 23.17844611528822], [-94.92486842105264, 23.25], [-94.75, 23.308340649692713], [-94.5, 23.264944134078213], [-94.33034274193548, 23.5]], [[-90.24877128172182, 31.0], [-90.25, 31.00282600664943], [-90.25435897435898, 31.0], [-90.25, 30.997384615384615], [-90.24877128172182, 31.0]]], [[[-102.25, 28.258053265694357], [-102.23573033707865, 28.25], [-102.25, 28.243315789473684], [-102.25712682379348, 28.25], [-102.25, 28.258053265694357]]], [[[-102.5, 29.047278911564625], [-102.25, 29.19143302180685], [-102.15989736070381, 29.0], [-102.25, 28.95864737550471], [-102.5, 28.990518417462482], [-102.50483983286908, 29.0], [-102.5, 29.047278911564625]]], [[[-97.0, 32.493135790172644], [-97.01085017055891, 32.5], [-97.0, 32.52215969989282], [-96.80677570093458, 32.5], [-97.0, 32.493135790172644]]], [[[-93.75, 33.433702268954065], [-93.60200624164065, 33.25], [-93.75, 33.05823223570191], [-93.9707114361702, 33.25], [-93.75, 33.433702268954065]]], [[[-87.25, 25.55545547246771], [-87.5, 25.6366570327553], [-87.75, 25.64709769370303], [-88.0, 25.706923076923076], [-88.0479695431472, 25.75], [-88.06211711711711, 26.0], [-88.20260804769002, 26.25], [-88.25, 26.413076923076922], [-88.2734008283479, 26.5], [-88.5, 26.749695740365112], [-88.50019181585678, 26.75], [-88.75, 26.926547672842297], [-88.87998800479808, 27.0], [-89.0, 27.167307692307695], [-89.0492203052422, 27.25], [-89.0, 27.330712731229596], [-88.75, 27.479302987197723], [-88.5, 27.314920071047958], [-88.25, 27.435628227194492], [-88.22558746736293, 27.5], [-88.04586016559338, 27.75], [-88.0, 27.764324712643678], [-87.93245257452574, 27.75], [-87.75, 27.698091750192752], [-87.5, 27.700796552624706], [-87.25, 27.649538145740678], [-87.05667846085802, 27.5], [-87.0, 27.472739842586684], [-86.875, 27.472739842586684], [-86.875, 27.375], [-86.875, 27.25], [-86.875, 27.125], [-86.875, 27.0], [-86.875, 26.875], [-86.875, 26.783013698630135], [-87.0, 26.783013698630135], [-87.01083633093525, 26.75], [-87.0, 26.735739644970415], [-86.875, 26.735739644970415], [-86.875, 26.625], [-86.875, 26.5], [-86.875, 26.375], [-86.875, 26.25], [-86.875, 26.125], [-86.875, 26.0], [-86.875, 25.963370998116762], [-87.0, 25.963370998116762], [-87.02128898910183, 25.75], [-87.0, 25.686097010716303], [-86.875, 25.686097010716303], [-86.875, 25.625], [-86.875, 25.5], [-86.875, 25.375], [-86.875, 25.25], [-86.875, 25.125], [-86.875, 25.0], [-86.875, 24.979838915878293], [-87.0, 24.979838915878293], [-87.01463708928904, 25.0], [-87.1757676997441, 25.25], [-87.22486519796641, 25.5], [-87.25, 25.55545547246771]]], [[[-89.5, 27.536784850926672], [-89.60605210420842, 27.75], [-89.5, 27.799310473350726], [-89.3972427184466, 27.75], [-89.5, 27.536784850926672]]], [[[-93.0, 33.13326210826211], [-93.14954379562045, 33.25], [-93.25, 33.28865870786517], [-93.5, 33.341410307630845], [-93.69204160619255, 33.5], [-93.5, 33.70728459530026], [-93.25, 33.7014390896921], [-93.00169141914192, 33.5], [-93.0, 33.493898809523806], [-92.75, 33.337640449438204], [-92.5, 33.39857938718663], [-92.25, 33.42204861111111], [-92.0, 33.30648999459167], [-91.88659066232356, 33.25], [-92.0, 33.19562727745966], [-92.25, 33.0778849864917], [-92.455081300813, 33.0], [-92.5, 32.907916666666665], [-92.56452554744526, 33.0], [-92.75, 33.16102661596958], [-93.0, 33.13326210826211]]], [[[-90.5, 33.144340770791075], [-90.75, 33.20603582554517], [-91.0, 33.15714285714286], [-91.25, 33.07730964467005], [-91.5, 33.12449034334764], [-91.66257817929117, 33.25], [-91.5, 33.44097959183674], [-91.46434911242604, 33.5], [-91.41635012386458, 33.75], [-91.5, 33.81682058047493], [-91.72743652743652, 34.0], [-91.75, 34.02700980392157], [-91.93166932907349, 34.25], [-92.0, 34.29651984774334], [-92.16631111111111, 34.5], [-92.0736220472441, 34.75], [-92.0, 34.80494613124388], [-91.94252049180328, 34.75], [-91.75, 34.63546174946663], [-91.5427192498621, 34.75], [-91.66082725060828, 35.0], [-91.66082725060828, 35.125], [-91.625, 35.125], [-91.5, 35.125], [-91.375, 35.125], [-91.25, 35.125], [-91.125, 35.125], [-91.06649740198394, 35.125], [-91.06649740198394, 35.0], [-91.0, 34.95057925223802], [-90.75, 34.94968152866242], [-90.5, 34.931689214580985], [-90.25, 34.92207266360254], [-90.0, 34.91937935402153], [-89.79105468750001, 34.75], [-89.75, 34.721189692982456], [-89.64426559356137, 34.75], [-89.5, 34.80049295774648], [-89.25, 34.839304347826086], [-89.2028682882056, 34.75], [-89.0796685529507, 34.5], [-89.25, 34.337673343605545], [-89.34801894918174, 34.25], [-89.5, 34.138885390428214], [-89.75, 34.09015842534806], [-89.92800947867299, 34.0], [-90.0, 33.95343347639485], [-90.25, 33.9], [-90.5, 33.80023020257827], [-90.6227092760181, 34.0], [-90.75, 34.035318581293154], [-91.0, 34.03012439920837], [-91.08383162863886, 34.0], [-91.0, 33.929108449767135], [-90.75, 33.85026613439787], [-90.56644336175395, 33.75], [-90.5, 33.70816717791411], [-90.34801231802912, 33.5], [-90.25, 33.253102961918195], [-90.0, 33.28405511811024], [-89.75, 33.3959940652819], [-89.5, 33.41774801961524], [-89.26206527554842, 33.25], [-89.5, 33.092806645457756], [-89.75, 33.127459526774594], [-90.0, 33.22657942238267], [-90.23159594095941, 33.0], [-90.05677744585512, 32.75], [-90.25, 32.594656259381566], [-90.42824664140544, 32.75], [-90.26327345309382, 33.0], [-90.5, 33.144340770791075]], [[-90.75, 34.670495011996465], [-91.0, 34.5730716630197], [-91.06551005394802, 34.5], [-91.0, 34.44778146989836], [-90.75, 34.309489205587695], [-90.59168231318063, 34.25], [-90.5, 34.21640291729737], [-90.25, 34.24206539673016], [-90.23841182913472, 34.25], [-90.12576112412178, 34.5], [-90.25, 34.6219073152049], [-90.5, 34.65926538716082], [-90.75, 34.670495011996465]]], [[[-87.83197424892704, 34.5], [-88.0, 34.38394268774704], [-88.09525547445256, 34.5], [-88.0, 34.551946041574524], [-87.83197424892704, 34.5]]], [[[-87.42172757475083, 34.75], [-87.5, 34.827910052910056], [-87.60905280804694, 35.0], [-87.60905280804694, 35.125], [-87.5, 35.125], [-87.375, 35.125], [-87.25, 35.125], [-87.17405818181818, 35.125], [-87.17405818181818, 35.0], [-87.0, 34.77027260510655], [-86.875, 34.77027260510655], [-86.875, 34.75], [-86.875, 34.625], [-86.875, 34.5], [-86.875, 34.375], [-86.875, 34.2535118354676], [-87.0, 34.2535118354676], [-87.25, 34.397077244258874], [-87.37317301686446, 34.5], [-87.42172757475083, 34.75]]]]}}, {"id": "3", "type": "Feature", "properties": {"min_value": 4.3460845947265625, "max_value": 13.657855987548837, "color": "#3182bd"}, "geometry": {"type": "MultiPolygon", "coordinates": [[[[-103.0, 22.875], [-103.125, 22.875], [-103.125, 23.0], [-103.125, 23.125], [-103.125, 23.164203454894434], [-103.0, 23.164203454894434], [-102.83548076923077, 23.0], [-102.83548076923077, 22.875], [-102.875, 22.875], [-103.0, 22.875]]], [[[-102.5, 24.023355874894335], [-102.48069182389938, 24.0], [-102.5, 23.897968980797636], [-102.55804621848739, 24.0], [-102.5, 24.023355874894335]]], [[[-99.125, 22.875], [-99.25, 22.875], [-99.375, 22.875], [-99.5, 22.875], [-99.625, 22.875], [-99.75, 22.875], [-99.875, 22.875], [-100.0, 22.875], [-100.11379046647974, 22.875], [-100.11379046647974, 23.0], [-100.25, 23.062621586780736], [-100.41424242424242, 23.25], [-100.5, 23.32029131935674], [-100.5404736510399, 23.25], [-100.5765201005025, 23.0], [-100.5765201005025, 22.875], [-100.625, 22.875], [-100.75, 22.875], [-100.875, 22.875], [-101.0, 22.875], [-101.125, 22.875], [-101.25, 22.875], [-101.375, 22.875], [-101.5, 22.875], [-101.625, 22.875], [-101.75, 22.875], [-101.875, 22.875], [-102.0, 22.875], [-102.125, 22.875], [-102.25, 22.875], [-102.28525784753363, 22.875], [-102.28525784753363, 23.0], [-102.37395525538201, 23.25], [-102.5, 23.44092071611253], [-102.53133265513733, 23.5], [-102.5, 23.578906917164815], [-102.25, 23.613669301712783], [-102.0, 23.645398773006136], [-101.96160696008188, 23.75], [-101.89485630722278, 24.0], [-102.0, 24.1309342834521], [-102.0888665642359, 24.25], [-102.0, 24.35348197082301], [-101.75, 24.368921175684704], [-101.5, 24.30477579056506], [-101.25, 24.27407124681934], [-101.20413703943116, 24.25], [-101.0, 24.18640116805961], [-100.75, 24.085443188578225], [-100.5, 24.03186281694269], [-100.44901500938086, 24.0], [-100.25, 23.93519663993891], [-100.1000441774165, 24.0], [-100.2465373263264, 24.25], [-100.25, 24.25680531975099], [-100.364486479286, 24.5], [-100.42555365914578, 24.75], [-100.45730200975876, 25.0], [-100.45800527009223, 25.25], [-100.25, 25.41265144646831], [-100.08987585703274, 25.25], [-100.0, 25.08471237782586], [-99.91373651420757, 25.0], [-99.75, 24.873645637898687], [-99.62976624857468, 24.75], [-99.61461261261262, 24.5], [-99.66206203972328, 24.25], [-99.5, 24.120236464351656], [-99.38025566496619, 24.0], [-99.25058620288054, 23.75], [-99.25, 23.74671095621869], [-99.14916763108698, 23.5], [-99.0, 23.394576569774756], [-98.75, 23.37004384485666], [-98.56826242807283, 23.5], [-98.75, 23.563682940534825], [-98.93562983698337, 23.75], [-98.96610626860557, 24.0], [-98.9950920165889, 24.25], [-99.0, 24.263389195304768], [-99.16047141760983, 24.5], [-99.07037687639732, 24.75], [-99.0, 24.824017467248908], [-98.88146853146853, 24.75], [-98.75, 24.67254179542033], [-98.5, 24.668473609129816], [-98.2797017650639, 24.75], [-98.25, 24.780222956234518], [-98.0, 24.823523947151116], [-97.96091846812246, 24.75], [-97.90116822429907, 24.5], [-98.0, 24.347292418772565], [-98.05237015663644, 24.25], [-98.09187167671038, 24.0], [-98.25, 23.82396211523283], [-98.32467527293011, 23.75], [-98.25217465753424, 23.5], [-98.25, 23.483964646464646], [-98.23957348638308, 23.25], [-98.25, 23.217907862833393], [-98.5, 23.073588330196287], [-98.75, 23.03881571140382], [-98.91363181590795, 23.0], [-98.91363181590795, 22.875], [-99.0, 22.875], [-99.125, 22.875]], [[-100.75, 23.33630970724191], [-100.68029199475066, 23.5], [-100.75, 23.5951500223914], [-100.80718322747336, 23.5], [-100.75, 23.33630970724191]], [[-98.32164858900315, 24.25], [-98.5, 24.39753165540278], [-98.75, 24.40710359989008], [-98.86854847071021, 24.25], [-98.86154991112159, 24.0], [-98.77485097974642, 23.75], [-98.75, 23.725057019138596], [-98.69510403026335, 23.75], [-98.5, 23.867144229929238], [-98.36643832608792, 24.0], [-98.32164858900315, 24.25]], [[-101.75, 23.29436939371015], [-101.79560146617794, 23.25], [-101.75, 23.154855156431054], [-101.5, 23.118007698807624], [-101.25, 23.223760330578514], [-101.2022818914956, 23.25], [-101.25, 23.265217137179263], [-101.5, 23.335540006084578], [-101.75, 23.29436939371015]], [[-99.523187874343, 23.5], [-99.5, 23.549349635796048], [-99.44011413486548, 23.75], [-99.5, 23.837528370403994], [-99.75, 23.902160156605664], [-100.0, 23.784194209710485], [-100.05443365438191, 23.75], [-100.17381865863727, 23.5], [-100.12076756543988, 23.25], [-100.0, 23.147781109445276], [-99.75, 23.09940934564367], [-99.5, 23.16346227255376], [-99.25, 23.06129990418397], [-99.11665011510857, 23.25], [-99.25, 23.360170060416202], [-99.5, 23.41047663992449], [-99.523187874343, 23.5]], [[-100.18960779352227, 25.0], [-100.25, 25.140163260512097], [-100.29071894086736, 25.0], [-100.25, 24.839452441813535], [-100.11016824395374, 24.75], [-100.00945627376426, 24.5], [-100.0, 24.480346135609295], [-99.9869187881338, 24.5], [-99.96027828328783, 24.75], [-100.0, 24.780666783748977], [-100.18960779352227, 25.0]]], [[[-98.24284566838784, 25.75], [-98.0, 25.90619188191882], [-97.85725996631106, 26.0], [-97.75, 26.083492132867132], [-97.5, 26.154042391166392], [-97.29133499527207, 26.0], [-97.39329682997118, 25.75], [-97.5, 25.62246486635437], [-97.58299253034548, 25.5], [-97.75, 25.2771985550573], [-97.80446495385382, 25.25], [-98.0, 25.1304118993135], [-98.12050730207532, 25.25], [-98.17189522805961, 25.5], [-98.24284566838784, 25.75]]], [[[-87.25, 24.4317521944632], [-87.29919688488684, 24.5], [-87.5, 24.67894166124485], [-87.62719332298137, 24.75], [-87.75, 24.819772827525362], [-88.0, 24.904957038995374], [-88.25, 24.940074845427922], [-88.35775307197191, 25.0], [-88.5, 25.10041305245766], [-88.75, 25.19913486005089], [-88.85953424657535, 25.25], [-89.0, 25.30784070397112], [-89.25, 25.312824339839267], [-89.5, 25.301162790697674], [-89.75, 25.314538900570742], [-89.90066619915848, 25.25], [-90.0, 25.193655529037393], [-90.05711693548388, 25.25], [-90.25, 25.40865671641791], [-90.5, 25.402200614124872], [-90.75, 25.45525462962963], [-91.0, 25.39101099830795], [-91.25, 25.34752121482805], [-91.46281676413255, 25.25], [-91.5, 25.23609187021509], [-91.54267337807606, 25.25], [-91.75, 25.313672277567846], [-91.86591619762352, 25.25], [-92.0, 25.145871782418652], [-92.16828885400314, 25.25], [-92.185413153457, 25.5], [-92.25, 25.695408163265306], [-92.26035316884374, 25.75], [-92.36573916737468, 26.0], [-92.40776863504357, 26.25], [-92.5, 26.341942098914352], [-92.6060971659919, 26.5], [-92.75, 26.618448413756333], [-92.94997973657549, 26.75], [-93.0, 26.794167113973877], [-93.17396053558844, 26.75], [-93.25, 26.72356687898089], [-93.5, 26.603573478760048], [-93.70329577464788, 26.5], [-93.75, 26.475567344532863], [-93.98887328339575, 26.25], [-94.0, 26.240689475058762], [-94.2323166120494, 26.0], [-94.25, 25.968556701030927], [-94.46613475177305, 25.75], [-94.5, 25.71522530723714], [-94.69934654300168, 25.5], [-94.75, 25.47190787935469], [-94.96400225479144, 25.25], [-95.0, 25.21172380724047], [-95.1829500725088, 25.0], [-95.25, 24.917813610970036], [-95.42063000258197, 24.75], [-95.5, 24.641454802259886], [-95.75, 24.57826765509169], [-96.0, 24.529660331581077], [-96.03133276377616, 24.5], [-96.17443067649029, 24.25], [-96.25, 24.16123131392604], [-96.5, 24.16226343679031], [-96.5533118675253, 24.25], [-96.75, 24.418346456692912], [-96.81315468940316, 24.5], [-96.9336942492471, 24.75], [-96.91207590569293, 25.0], [-96.86535281960437, 25.25], [-96.82645006541648, 25.5], [-96.88022443890274, 25.75], [-96.75, 25.967492711370262], [-96.70613936499016, 26.0], [-96.75, 26.04087457449594], [-97.0, 26.01243001119821], [-97.25, 26.12653947368421], [-97.30919873817035, 26.25], [-97.25, 26.30064773831372], [-97.092373026035, 26.5], [-97.0, 26.70514691943128], [-96.99176900330492, 26.75], [-96.968722667244, 27.0], [-96.93663860440896, 27.25], [-96.94837248322148, 27.5], [-97.0, 27.52721082419526], [-97.21427576601671, 27.5], [-97.25, 27.495507094062006], [-97.5, 27.494827231591938], [-97.51243818001979, 27.5], [-97.75, 27.564149305555556], [-98.0, 27.69124331550802], [-98.14870062370062, 27.5], [-98.25, 27.469546875], [-98.5, 27.401673575925074], [-98.75, 27.38411726384365], [-98.94910454443698, 27.5], [-99.0, 27.526510027985076], [-99.24484542667348, 27.75], [-99.25, 27.75676219205631], [-99.4248464040477, 28.0], [-99.5, 28.144510076441975], [-99.55367118444313, 28.25], [-99.61260402481464, 28.5], [-99.63137080800492, 28.75], [-99.65084418716836, 29.0], [-99.68072128610729, 29.25], [-99.71099241049332, 29.5], [-99.70809447613748, 29.75], [-99.7217042047813, 30.0], [-99.75, 30.20564245810056], [-99.76457683128328, 30.25], [-99.78787266296109, 30.5], [-99.98494208494209, 30.75], [-100.0, 30.75978806469604], [-100.21081742535488, 31.0], [-100.07077464788732, 31.25], [-100.0, 31.338875959972075], [-99.75, 31.475547024952014], [-99.70398507103299, 31.5], [-99.5, 31.650631223328592], [-99.42136625861826, 31.75], [-99.25, 31.933778481967707], [-99.20684433080932, 32.0], [-99.12192257325258, 32.25], [-99.0, 32.367406210592684], [-98.75, 32.46898122959739], [-98.68488936473948, 32.5], [-98.5, 32.62257713420405], [-98.32632223942208, 32.75], [-98.25, 32.80746964545896], [-98.0, 32.93836818745252], [-97.75, 32.96221087892806], [-97.5, 32.98392668311597], [-97.38382165605096, 33.0], [-97.25, 33.04120685146444], [-97.18317430025445, 33.0], [-97.0, 32.83245733126455], [-96.92625325238508, 32.75], [-96.75, 32.50295404814004], [-96.5, 32.5488053725946], [-96.25, 32.6379412490743], [-96.0, 32.672721179624666], [-95.75, 32.700229419703106], [-95.5, 32.71818234375903], [-95.25, 32.72822746713132], [-95.0, 32.73678415156032], [-94.77285123966942, 32.75], [-94.75, 32.75383017038371], [-94.68786516853933, 32.75], [-94.5, 32.74575914371227], [-94.25, 32.73590541047778], [-94.0, 32.720402647545505], [-93.75, 32.68712597609011], [-93.5, 32.65208964009418], [-93.25, 32.6160221822542], [-93.0, 32.5451394585726], [-92.84615563839702, 32.5], [-92.75, 32.442680555555555], [-92.52493510707333, 32.25], [-92.5, 32.23831889344885], [-92.25, 32.17245294293397], [-92.0, 32.11264761627059], [-91.75, 32.04883379546567], [-91.63028788484606, 32.0], [-91.5, 31.897466960352425], [-91.25805369127517, 31.75], [-91.25, 31.73570119156737], [-91.11508394543547, 31.5], [-91.04013948082138, 31.25], [-91.0, 31.198534525583707], [-90.75, 31.059968684759916], [-90.69739010989011, 31.0], [-90.62713916314057, 30.75], [-90.5, 30.60096445301736], [-90.25, 30.663496712492528], [-90.0, 30.56069611614344], [-89.91601133241758, 30.5], [-89.75, 30.42596293743778], [-89.5, 30.343540542594422], [-89.25, 30.259497779296208], [-89.23624896949711, 30.25], [-89.0, 30.135316952137025], [-88.75, 30.02183761630483], [-88.71761662286465, 30.0], [-88.5, 29.785379880123116], [-88.44526315789474, 29.75], [-88.25, 29.608576874205845], [-88.0, 29.500163576881135], [-87.99976970317297, 29.5], [-87.78644086995922, 29.25], [-87.75, 29.21545317869416], [-87.5, 29.02626262626263], [-87.44652482269504, 29.0], [-87.25, 28.9121989860583], [-87.13632023095714, 28.75], [-87.0, 28.62492868785656], [-86.875, 28.62492868785656], [-86.875, 28.5], [-86.875, 28.375], [-86.875, 28.25], [-86.875, 28.125], [-86.875, 28.0], [-86.875, 27.875], [-86.875, 27.75], [-86.875, 27.625], [-86.875, 27.5], [-86.875, 27.472739842586684], [-87.0, 27.472739842586684], [-87.05667846085802, 27.5], [-87.25, 27.649538145740678], [-87.5, 27.700796552624706], [-87.75, 27.698091750192752], [-87.93245257452574, 27.75], [-88.0, 27.764324712643678], [-88.04586016559338, 27.75], [-88.22558746736293, 27.5], [-88.25, 27.435628227194492], [-88.5, 27.314920071047958], [-88.75, 27.479302987197723], [-89.0, 27.330712731229596], [-89.0492203052422, 27.25], [-89.0, 27.167307692307695], [-88.87998800479808, 27.0], [-88.75, 26.926547672842297], [-88.50019181585678, 26.75], [-88.5, 26.749695740365112], [-88.2734008283479, 26.5], [-88.25, 26.413076923076922], [-88.20260804769002, 26.25], [-88.06211711711711, 26.0], [-88.0479695431472, 25.75], [-88.0, 25.706923076923076], [-87.75, 25.64709769370303], [-87.5, 25.6366570327553], [-87.25, 25.55545547246771], [-87.22486519796641, 25.5], [-87.1757676997441, 25.25], [-87.01463708928904, 25.0], [-87.0, 24.979838915878293], [-86.875, 24.979838915878293], [-86.875, 24.875], [-86.875, 24.75], [-86.875, 24.625], [-86.875, 24.5], [-86.875, 24.375], [-86.875, 24.25], [-86.875, 24.125], [-86.875, 24.0], [-86.875, 23.875], [-86.875, 23.77031352057479], [-87.0, 23.77031352057479], [-87.05723470052084, 24.0], [-87.09525725783271, 24.25], [-87.25, 24.4317521944632]], [[-95.25, 26.296935306469354], [-95.0272213690215, 26.5], [-95.0, 26.559380234505866], [-94.91835605206518, 26.75], [-94.7986892297703, 27.0], [-94.75, 27.05622305529522], [-94.60620805369128, 27.0], [-94.5, 26.852741774675973], [-94.33241301059002, 27.0], [-94.25, 27.145752508361205], [-94.15684399282726, 27.25], [-94.0, 27.302042840142803], [-93.75, 27.441451309258944], [-93.65526170036001, 27.5], [-93.5, 27.569620017384825], [-93.25, 27.709074850960477], [-93.0, 27.738055062166964], [-92.98622866894198, 27.75], [-92.85098039215686, 28.0], [-92.75, 28.15261392228124], [-92.5, 28.15185281837161], [-92.38131756067713, 28.0], [-92.5, 27.75529857022708], [-92.50446967009577, 27.75], [-92.5, 27.72649253731344], [-92.35767878077374, 27.5], [-92.25, 27.462632221318145], [-92.0, 27.440755297334245], [-91.75, 27.4592523364486], [-91.57815315315315, 27.5], [-91.5, 27.537513513513517], [-91.31254172627564, 27.75], [-91.25, 27.829484848484853], [-91.0344061302682, 28.0], [-91.0, 28.027596803933623], [-90.93981204258151, 28.25], [-90.84072447859495, 28.5], [-90.75, 28.556830162732066], [-90.5, 28.63091836734694], [-90.25, 28.64621499929647], [-90.0, 28.51635662431942], [-89.79473159712995, 28.75], [-89.7503149370126, 29.0], [-89.76108350767085, 29.25], [-89.75, 29.365381125226865], [-89.70348071495766, 29.5], [-89.5, 29.695216606498196], [-89.41312022900763, 29.75], [-89.5, 29.819029567854432], [-89.75, 29.789007383100902], [-89.88169482846902, 30.0], [-89.93998309072195, 30.25], [-90.0, 30.289177904688774], [-90.25, 30.2903853035906], [-90.5, 30.277246941594317], [-90.75, 30.2832392542724], [-91.0, 30.296558445513796], [-91.25, 30.38429916897507], [-91.44419750790404, 30.5], [-91.5, 30.539374056820417], [-91.72099339116068, 30.75], [-91.75, 30.812972649828126], [-91.81902371759514, 31.0], [-91.94758511911238, 31.25], [-92.0, 31.33266426488248], [-92.20917864036028, 31.5], [-92.25, 31.522903381061244], [-92.5, 31.6811229428848], [-92.73682130226753, 31.75], [-92.75, 31.755479155855387], [-93.0, 31.897777465184976], [-93.14510782747604, 32.0], [-93.25, 32.08630575864618], [-93.5, 32.243380457992785], [-93.51240171058078, 32.25], [-93.75, 32.36050622353394], [-94.0, 32.441646911629135], [-94.25, 32.46947378407438], [-94.5, 32.49763859073115], [-94.51784351145038, 32.5], [-94.75, 32.52277663358922], [-95.0, 32.50203635139684], [-95.01758720930232, 32.5], [-95.25, 32.46748300505491], [-95.5, 32.443596986817326], [-95.75, 32.408673980443595], [-96.0, 32.375210213289584], [-96.25, 32.29748246888622], [-96.38440629470672, 32.25], [-96.5, 32.224980647159], [-96.75, 32.15394118332621], [-97.0, 32.05386822773186], [-97.10860911825966, 32.0], [-97.25, 31.96948073032445], [-97.5, 31.923391949980463], [-97.75, 31.858480641376612], [-97.90286288989309, 31.75], [-98.0, 31.706232463437043], [-98.25, 31.642179748289728], [-98.40938414705538, 31.5], [-98.5, 31.442636377112365], [-98.71139940623856, 31.25], [-98.75, 31.215626697569984], [-98.97269140142873, 31.0], [-99.0, 30.973973408426605], [-99.21650299772587, 30.75], [-99.25, 30.702462102689488], [-99.40599826683244, 30.5], [-99.43952197637913, 30.25], [-99.42903420594608, 30.0], [-99.41363781685317, 29.75], [-99.39408065618592, 29.5], [-99.31952217100564, 29.25], [-99.3255731865285, 29.0], [-99.28088943197808, 28.75], [-99.25, 28.619329573934838], [-99.19128256513027, 28.5], [-99.0, 28.31482614535144], [-98.96283049542227, 28.25], [-98.75, 28.019753772100344], [-98.5, 28.09905581677537], [-98.26944862736013, 28.25], [-98.25, 28.269088221919056], [-98.0, 28.427491836417353], [-97.85702897439829, 28.5], [-97.93096431731053, 28.75], [-97.75, 28.84642520427404], [-97.63284650630011, 28.75], [-97.65521992940538, 28.5], [-97.5, 28.363545769184867], [-97.3700095641481, 28.25], [-97.25, 28.169350840143238], [-97.0, 28.177015281087904], [-96.75, 28.14997278467233], [-96.58119103051096, 28.0], [-96.58984476668526, 27.75], [-96.63890010874631, 27.5], [-96.7351974019358, 27.25], [-96.75, 27.05641239173884], [-96.7573327560078, 27.0], [-96.82192903113585, 26.75], [-96.81018532394225, 26.5], [-96.75, 26.4430411761925], [-96.5, 26.391167559188276], [-96.25, 26.338445323647683], [-96.19603893791302, 26.25], [-96.17669610598153, 26.0], [-96.25, 25.911712800676902], [-96.4092868198595, 25.75], [-96.25, 25.644458030924582], [-96.0, 25.63914846791942], [-95.75, 25.71087483176312], [-95.67815126050421, 25.75], [-95.5311719430729, 26.0], [-95.5, 26.055393548387098], [-95.345913363302, 26.25], [-95.25, 26.296935306469354]], [[-89.5, 27.536784850926672], [-89.3972427184466, 27.75], [-89.5, 27.799310473350726], [-89.60605210420842, 27.75], [-89.5, 27.536784850926672]], [[-97.0, 32.493135790172644], [-96.80677570093458, 32.5], [-97.0, 32.52215969989282], [-97.01085017055891, 32.5], [-97.0, 32.493135790172644]], [[-97.66800111982083, 32.75], [-97.75, 32.76752073695964], [-97.929914004914, 32.75], [-97.75, 32.68241808952469], [-97.66800111982083, 32.75]]], [[[-90.59168231318063, 34.25], [-90.75, 34.309489205587695], [-91.0, 34.44778146989836], [-91.06551005394802, 34.5], [-91.0, 34.5730716630197], [-90.75, 34.670495011996465], [-90.5, 34.65926538716082], [-90.25, 34.6219073152049], [-90.12576112412178, 34.5], [-90.23841182913472, 34.25], [-90.25, 34.24206539673016], [-90.5, 34.21640291729737], [-90.59168231318063, 34.25]]], [[[-90.03428070175438, 23.5], [-90.25, 23.40141116100064], [-90.3468188976378, 23.5], [-90.33894003156233, 23.75], [-90.25, 23.869953884356157], [-90.0, 23.929143214509068], [-89.75, 23.86994663108739], [-89.5, 23.810777869076965], [-89.39764760147601, 23.75], [-89.5, 23.59058908045977], [-89.59278881530537, 23.5], [-89.75, 23.42688227241615], [-89.9534761904762, 23.5], [-90.0, 23.51964213912344], [-90.03428070175438, 23.5]]], [[[-88.48866129032258, 24.0], [-88.5, 23.923253275109168], [-88.66818181818182, 24.0], [-88.5, 24.00940845824411], [-88.48866129032258, 24.0]]], [[[-90.25, 29.83971797141773], [-90.0, 29.94541696196551], [-89.76358959702772, 29.75], [-90.0, 29.527724036006987], [-90.25, 29.530710973724883], [-90.39982048574446, 29.75], [-90.25, 29.83971797141773]]], [[[-90.24877128172182, 31.0], [-90.25, 30.997384615384615], [-90.25435897435898, 31.0], [-90.25, 31.00282600664943], [-90.24877128172182, 31.0]]], [[[-87.125, 35.125], [-87.0, 35.125], [-86.875, 35.125], [-86.875, 35.0], [-86.875, 34.875], [-86.875, 34.77027260510655], [-87.0, 34.77027260510655], [-87.17405818181818, 35.0], [-87.17405818181818, 35.125], [-87.125, 35.125]]]]}}, {"id": "4", "type": "Feature", "properties": {"min_value": 13.657855987548837, "max_value": 213.75274658203125, "color": "#08519c"}, "geometry": {"type": "MultiPolygon", "coordinates": [[[[-101.5, 23.118007698807624], [-101.75, 23.154855156431054], [-101.79560146617794, 23.25], [-101.75, 23.29436939371015], [-101.5, 23.335540006084578], [-101.25, 23.265217137179263], [-101.2022818914956, 23.25], [-101.25, 23.223760330578514], [-101.5, 23.118007698807624]]], [[[-100.75, 23.5951500223914], [-100.68029199475066, 23.5], [-100.75, 23.33630970724191], [-100.80718322747336, 23.5], [-100.75, 23.5951500223914]]], [[[-99.75, 23.09940934564367], [-100.0, 23.147781109445276], [-100.12076756543988, 23.25], [-100.17381865863727, 23.5], [-100.05443365438191, 23.75], [-100.0, 23.784194209710485], [-99.75, 23.902160156605664], [-99.5, 23.837528370403994], [-99.44011413486548, 23.75], [-99.5, 23.549349635796048], [-99.523187874343, 23.5], [-99.5, 23.41047663992449], [-99.25, 23.360170060416202], [-99.11665011510857, 23.25], [-99.25, 23.06129990418397], [-99.5, 23.16346227255376], [-99.75, 23.09940934564367]]], [[[-98.86154991112159, 24.0], [-98.86854847071021, 24.25], [-98.75, 24.40710359989008], [-98.5, 24.39753165540278], [-98.32164858900315, 24.25], [-98.36643832608792, 24.0], [-98.5, 23.867144229929238], [-98.69510403026335, 23.75], [-98.75, 23.725057019138596], [-98.77485097974642, 23.75], [-98.86154991112159, 24.0]]], [[[-100.11016824395374, 24.75], [-100.25, 24.839452441813535], [-100.29071894086736, 25.0], [-100.25, 25.140163260512097], [-100.18960779352227, 25.0], [-100.0, 24.780666783748977], [-99.96027828328783, 24.75], [-99.9869187881338, 24.5], [-100.0, 24.480346135609295], [-100.00945627376426, 24.5], [-100.11016824395374, 24.75]]], [[[-96.25, 25.644458030924582], [-96.4092868198595, 25.75], [-96.25, 25.911712800676902], [-96.17669610598153, 26.0], [-96.19603893791302, 26.25], [-96.25, 26.338445323647683], [-96.5, 26.391167559188276], [-96.75, 26.4430411761925], [-96.81018532394225, 26.5], [-96.82192903113585, 26.75], [-96.7573327560078, 27.0], [-96.75, 27.05641239173884], [-96.7351974019358, 27.25], [-96.63890010874631, 27.5], [-96.58984476668526, 27.75], [-96.58119103051096, 28.0], [-96.75, 28.14997278467233], [-97.0, 28.177015281087904], [-97.25, 28.169350840143238], [-97.3700095641481, 28.25], [-97.5, 28.363545769184867], [-97.65521992940538, 28.5], [-97.63284650630011, 28.75], [-97.75, 28.84642520427404], [-97.93096431731053, 28.75], [-97.85702897439829, 28.5], [-98.0, 28.427491836417353], [-98.25, 28.269088221919056], [-98.26944862736013, 28.25], [-98.5, 28.09905581677537], [-98.75, 28.019753772100344], [-98.96283049542227, 28.25], [-99.0, 28.31482614535144], [-99.19128256513027, 28.5], [-99.25, 28.619329573934838], [-99.28088943197808, 28.75], [-99.3255731865285, 29.0], [-99.31952217100564, 29.25], [-99.39408065618592, 29.5], [-99.41363781685317, 29.75], [-99.42903420594608, 30.0], [-99.43952197637913, 30.25], [-99.40599826683244, 30.5], [-99.25, 30.702462102689488], [-99.21650299772587, 30.75], [-99.0, 30.973973408426605], [-98.97269140142873, 31.0], [-98.75, 31.215626697569984], [-98.71139940623856, 31.25], [-98.5, 31.442636377112365], [-98.40938414705538, 31.5], [-98.25, 31.642179748289728], [-98.0, 31.706232463437043], [-97.90286288989309, 31.75], [-97.75, 31.858480641376612], [-97.5, 31.923391949980463], [-97.25, 31.96948073032445], [-97.10860911825966, 32.0], [-97.0, 32.05386822773186], [-96.75, 32.15394118332621], [-96.5, 32.224980647159], [-96.38440629470672, 32.25], [-96.25, 32.29748246888622], [-96.0, 32.375210213289584], [-95.75, 32.408673980443595], [-95.5, 32.443596986817326], [-95.25, 32.46748300505491], [-95.01758720930232, 32.5], [-95.0, 32.50203635139684], [-94.75, 32.52277663358922], [-94.51784351145038, 32.5], [-94.5, 32.49763859073115], [-94.25, 32.46947378407438], [-94.0, 32.441646911629135], [-93.75, 32.36050622353394], [-93.51240171058078, 32.25], [-93.5, 32.243380457992785], [-93.25, 32.08630575864618], [-93.14510782747604, 32.0], [-93.0, 31.897777465184976], [-92.75, 31.755479155855387], [-92.73682130226753, 31.75], [-92.5, 31.6811229428848], [-92.25, 31.522903381061244], [-92.20917864036028, 31.5], [-92.0, 31.33266426488248], [-91.94758511911238, 31.25], [-91.81902371759514, 31.0], [-91.75, 30.812972649828126], [-91.72099339116068, 30.75], [-91.5, 30.539374056820417], [-91.44419750790404, 30.5], [-91.25, 30.38429916897507], [-91.0, 30.296558445513796], [-90.75, 30.2832392542724], [-90.5, 30.277246941594317], [-90.25, 30.2903853035906], [-90.0, 30.289177904688774], [-89.93998309072195, 30.25], [-89.88169482846902, 30.0], [-89.75, 29.789007383100902], [-89.5, 29.819029567854432], [-89.41312022900763, 29.75], [-89.5, 29.695216606498196], [-89.70348071495766, 29.5], [-89.75, 29.365381125226865], [-89.76108350767085, 29.25], [-89.7503149370126, 29.0], [-89.79473159712995, 28.75], [-90.0, 28.51635662431942], [-90.25, 28.64621499929647], [-90.5, 28.63091836734694], [-90.75, 28.556830162732066], [-90.84072447859495, 28.5], [-90.93981204258151, 28.25], [-91.0, 28.027596803933623], [-91.0344061302682, 28.0], [-91.25, 27.829484848484853], [-91.31254172627564, 27.75], [-91.5, 27.537513513513517], [-91.57815315315315, 27.5], [-91.75, 27.4592523364486], [-92.0, 27.440755297334245], [-92.25, 27.462632221318145], [-92.35767878077374, 27.5], [-92.5, 27.72649253731344], [-92.50446967009577, 27.75], [-92.5, 27.75529857022708], [-92.38131756067713, 28.0], [-92.5, 28.15185281837161], [-92.75, 28.15261392228124], [-92.85098039215686, 28.0], [-92.98622866894198, 27.75], [-93.0, 27.738055062166964], [-93.25, 27.709074850960477], [-93.5, 27.569620017384825], [-93.65526170036001, 27.5], [-93.75, 27.441451309258944], [-94.0, 27.302042840142803], [-94.15684399282726, 27.25], [-94.25, 27.145752508361205], [-94.33241301059002, 27.0], [-94.5, 26.852741774675973], [-94.60620805369128, 27.0], [-94.75, 27.05622305529522], [-94.7986892297703, 27.0], [-94.91835605206518, 26.75], [-95.0, 26.559380234505866], [-95.0272213690215, 26.5], [-95.25, 26.296935306469354], [-95.345913363302, 26.25], [-95.5, 26.055393548387098], [-95.5311719430729, 26.0], [-95.67815126050421, 25.75], [-95.75, 25.71087483176312], [-96.0, 25.63914846791942], [-96.25, 25.644458030924582]], [[-90.25, 29.83971797141773], [-90.39982048574446, 29.75], [-90.25, 29.530710973724883], [-90.0, 29.527724036006987], [-89.76358959702772, 29.75], [-90.0, 29.94541696196551], [-90.25, 29.83971797141773]]], [[[-97.75, 32.76752073695964], [-97.66800111982083, 32.75], [-97.75, 32.68241808952469], [-97.929914004914, 32.75], [-97.75, 32.76752073695964]]]]}}]}