{"type": "FeatureCollection", "features": [{"id": "0", "type": "Feature", "properties": {"min_value": 46.0, "max_value": 50.0, "color": "#9ecae1"}, "geometry": {"type": "MultiPolygon", "coordinates": [[[[-87.7527272727276, 42.039999999999885], [-87.72000000000033, 42.039999999999885], [-87.64000000000033, 42.039999999999885], [-87.64000000000033, 41.95999999999988], [-87.64000000000033, 41.951325301204704], [-87.72000000000033, 41.94883720930221], [-87.76800000000033, 41.95999999999988], [-87.7527272727276, 42.039999999999885]]], [[[-87.80000000000032, 42.29230769230758], [-87.80000000000032, 42.27999999999989], [-87.80000000000032, 42.26399999999989], [-87.88000000000032, 42.26399999999989], [-87.88941176470621, 42.27999999999989], [-87.88000000000032, 42.29230769230758], [-87.80000000000032, 42.29230769230758]]], [[[-90.0133333333336, 43.07999999999991], [-90.12000000000027, 43.04799999999991], [-90.16571428571456, 43.07999999999991], [-90.12000000000027, 43.15999800004991], [-90.0133333333336, 43.07999999999991]]], [[[-89.88000000000028, 43.84999999999993], [-89.88000000000028, 43.879999999999924], [-89.88000000000028, 43.95999999999993], [-89.80000000000028, 43.95999999999993], [-89.786285714286, 43.95999999999993], [-89.73600000000029, 43.879999999999924], [-89.80000000000028, 43.72000799920001], [-89.81846153846182, 43.799999999999926], [-89.88000000000028, 43.84999999999993]]], [[[-90.36000000000027, 44.27999999999994], [-90.28000000000027, 44.27999999999994], [-90.20000000000027, 44.27999999999994], [-90.20000000000027, 44.19999999999993], [-90.20000000000027, 44.11999999999993], [-90.28000000000027, 44.11999999999993], [-90.36000000000027, 44.11999999999993], [-90.36000000000027, 44.19999999999993], [-90.36000000000027, 44.27999999999994]]], [[[-88.12000000000032, 45.39999999999996], [-88.04000000000032, 45.39999999999996], [-87.96000000000032, 45.39999999999996], [-87.96000000000032, 45.319999999999965], [-87.96000000000032, 45.23999999999996], [-88.04000000000032, 45.23999999999996], [-88.12000000000032, 45.23999999999996], [-88.12000000000032, 45.319999999999965], [-88.12000000000032, 45.39999999999996]]]]}}, {"id": "1", "type": "Feature", "properties": {"min_value": 50.0, "max_value": 80.0, "color": "#3182bd"}, "geometry": {"type": "MultiPolygon", "coordinates": [[[[-95.80000000000015, 43.319999999999915], [-95.80000000000015, 43.23999999999991], [-95.80000000000015, 43.15999999999991], [-95.88000000000015, 43.15999999999991], [-95.96000000000015, 43.15999999999991], [-95.96000000000015, 43.23999999999991], [-95.96000000000015, 43.319999999999915], [-95.88000000000015, 43.319999999999915], [-95.80000000000015, 43.319999999999915]]], [[[-96.60000000000014, 45.079999999999956], [-96.60000000000014, 44.99999999999996], [-96.60000000000014, 44.91999999999995], [-96.68000000000013, 44.91999999999995], [-96.76000000000013, 44.91999999999995], [-96.76000000000013, 44.99999999999996], [-96.76000000000013, 45.079999999999956], [-96.68000000000013, 45.079999999999956], [-96.60000000000014, 45.079999999999956]]], [[[-95.08000000000017, 46.51999999999999], [-95.00000000000017, 46.51999999999999], [-94.92000000000017, 46.51999999999999], [-94.84000000000017, 46.51999999999999], [-94.84000000000017, 46.43999999999998], [-94.84000000000017, 46.423999999999985], [-94.92000000000017, 46.423999999999985], [-95.04521739130452, 46.27999999999999], [-95.00000000000017, 46.21066666666665], [-94.96000000000018, 46.19999999999998], [-94.92000000000017, 46.19529411764704], [-94.84000000000017, 46.19529411764704], [-94.84000000000017, 46.119999999999976], [-94.84000000000017, 46.03999999999998], [-94.84000000000017, 45.95999999999998], [-94.84000000000017, 45.879999999999974], [-94.76000000000018, 45.879999999999974], [-94.68000000000018, 45.879999999999974], [-94.68000000000018, 45.79999999999997], [-94.68000000000018, 45.71999999999997], [-94.60000000000018, 45.71999999999997], [-94.52000000000018, 45.71999999999997], [-94.52000000000018, 45.63999999999997], [-94.52000000000018, 45.55999999999997], [-94.44000000000018, 45.55999999999997], [-94.36000000000018, 45.55999999999997], [-94.36000000000018, 45.47999999999996], [-94.36000000000018, 45.39999999999996], [-94.44000000000018, 45.39999999999996], [-94.52000000000018, 45.39999999999996], [-94.52000000000018, 45.319999999999965], [-94.52000000000018, 45.23999999999996], [-94.60000000000018, 45.23999999999996], [-94.68000000000018, 45.23999999999996], [-94.76000000000018, 45.23999999999996], [-94.84000000000017, 45.23999999999996], [-94.92000000000017, 45.23999999999996], [-95.00000000000017, 45.23999999999996], [-95.08000000000017, 45.23999999999996], [-95.16000000000017, 45.23999999999996], [-95.17379310344845, 45.23999999999996], [-95.17379310344845, 45.319999999999965], [-95.24000000000017, 45.43999999999996], [-95.34666666666683, 45.319999999999965], [-95.32941176470605, 45.23999999999996], [-95.32000000000016, 45.228571428571385], [-95.32000000000016, 45.159999999999954], [-95.32000000000016, 45.079999999999956], [-95.40000000000016, 45.079999999999956], [-95.48000000000016, 45.079999999999956], [-95.48000000000016, 44.99999999999996], [-95.48000000000016, 44.91999999999995], [-95.56000000000016, 44.91999999999995], [-95.64000000000016, 44.91999999999995], [-95.64000000000016, 44.99999999999996], [-95.64000000000016, 45.079999999999956], [-95.72000000000016, 45.079999999999956], [-95.80000000000015, 45.079999999999956], [-95.88000000000015, 45.079999999999956], [-95.96000000000015, 45.079999999999956], [-96.04000000000015, 45.079999999999956], [-96.12000000000015, 45.079999999999956], [-96.12000000000015, 45.159999999999954], [-96.12000000000015, 45.23999999999996], [-96.12000000000015, 45.319999999999965], [-96.12000000000015, 45.33894736842102], [-96.04000000000015, 45.34823529411761], [-95.91555555555571, 45.47999999999996], [-95.93333333333348, 45.63999999999997], [-96.04000000000015, 45.72000399979998], [-96.12000000000015, 45.763076923076895], [-96.12000000000015, 45.79999999999997], [-96.12000000000015, 45.814545454545424], [-96.04000000000015, 45.814545454545424], [-95.88000000000015, 45.91999999999997], [-95.857142857143, 45.95999999999998], [-95.88000000000015, 45.97454545454543], [-95.92408163265321, 46.03999999999998], [-95.96000000000015, 46.061463414634126], [-95.96000000000015, 46.119999999999976], [-95.96000000000015, 46.19999999999998], [-95.88000000000015, 46.19999999999998], [-95.80000000000015, 46.19999999999998], [-95.80000000000015, 46.119999999999976], [-95.80000000000015, 46.03999999999998], [-95.72000000000016, 46.03999999999998], [-95.64000000000016, 46.03999999999998], [-95.64000000000016, 46.119999999999976], [-95.64000000000016, 46.19999999999998], [-95.56000000000016, 46.19999999999998], [-95.48000000000016, 46.19999999999998], [-95.48000000000016, 46.119999999999976], [-95.48000000000016, 46.03999999999998], [-95.40000000000016, 46.03999999999998], [-95.32000000000016, 46.03999999999998], [-95.32000000000016, 46.119999999999976], [-95.32000000000016, 46.19999999999998], [-95.24000000000017, 46.19999999999998], [-95.16000000000017, 46.19999999999998], [-95.16000000000017, 46.27999999999999], [-95.16000000000017, 46.359999999999985], [-95.16000000000017, 46.43999999999998], [-95.16000000000017, 46.51999999999999], [-95.08000000000017, 46.51999999999999]], [[-95.16000000000017, 46.119999999999976], [-95.16000000000017, 46.03999999999998], [-95.08000000000017, 46.03999999999998], [-95.00000000000017, 46.03999999999998], [-95.00000000000017, 46.119999999999976], [-95.00000000000017, 46.19999999999998], [-95.08000000000017, 46.19999999999998], [-95.16000000000017, 46.19999999999998], [-95.16000000000017, 46.119999999999976]]], [[[-100.44000000000005, 45.879999999999974], [-100.36000000000006, 45.879999999999974], [-100.28000000000006, 45.879999999999974], [-100.26000000000006, 45.879999999999974], [-100.26000000000006, 45.79999999999997], [-100.26000000000006, 45.71999999999997], [-100.28000000000006, 45.71999999999997], [-100.36000000000006, 45.71999999999997], [-100.44000000000005, 45.71999999999997], [-100.44000000000005, 45.79999999999997], [-100.44000000000005, 45.879999999999974]]], [[[-97.88000000000011, 44.599999999999945], [-97.96000000000011, 44.599999999999945], [-98.0400000000001, 44.599999999999945], [-98.0400000000001, 44.67999999999995], [-98.0400000000001, 44.75999999999995], [-97.96000000000011, 44.75999999999995], [-97.88000000000011, 44.75999999999995], [-97.88000000000011, 44.83999999999995], [-97.88000000000011, 44.91999999999995], [-97.96000000000011, 44.91999999999995], [-98.0400000000001, 44.91999999999995], [-98.1200000000001, 44.91999999999995], [-98.2000000000001, 44.91999999999995], [-98.2000000000001, 44.83999999999995], [-98.2000000000001, 44.75999999999995], [-98.2800000000001, 44.75999999999995], [-98.3600000000001, 44.75999999999995], [-98.43999771435112, 44.75999999999995], [-98.43999771435112, 44.83999999999995], [-98.4400000000001, 44.84000123075025], [-98.5200000000001, 44.84000123075025], [-98.5200000000001, 44.91999999999995], [-98.5200000000001, 44.99999999999996], [-98.5200000000001, 45.079999999999956], [-98.52581818181828, 45.079999999999956], [-98.5200000000001, 45.09828571428567], [-98.49120000000009, 45.159999999999954], [-98.5200000000001, 45.210232558139495], [-98.53084745762722, 45.23999999999996], [-98.5200000000001, 45.23999999999996], [-98.5200000000001, 45.319999999999965], [-98.5200000000001, 45.39999999999996], [-98.4400000000001, 45.39999999999996], [-98.3600000000001, 45.39999999999996], [-98.3600000000001, 45.47999999999996], [-98.3600000000001, 45.55999999999997], [-98.4400000000001, 45.55999999999997], [-98.5200000000001, 45.55999999999997], [-98.5200000000001, 45.63999999999997], [-98.5200000000001, 45.71999999999997], [-98.5200000000001, 45.79999999999997], [-98.5200000000001, 45.879999999999974], [-98.4400000000001, 45.879999999999974], [-98.3600000000001, 45.879999999999974], [-98.3600000000001, 45.95999999999998], [-98.3600000000001, 46.03999999999998], [-98.3600000000001, 46.119999999999976], [-98.3600000000001, 46.19999999999998], [-98.3600000000001, 46.27999999999999], [-98.3600000000001, 46.359999999999985], [-98.3600000000001, 46.43999999999998], [-98.3600000000001, 46.51999999999999], [-98.3600000000001, 46.599999999999994], [-98.3600000000001, 46.67999999999999], [-98.3600000000001, 46.75999999999999], [-98.3600000000001, 46.839999999999996], [-98.3600000000001, 46.92], [-98.3600000000001, 47.0], [-98.2800000000001, 47.0], [-98.2000000000001, 47.0], [-98.1200000000001, 47.0], [-98.0400000000001, 47.0], [-97.96000000000011, 47.0], [-97.88000000000011, 47.0], [-97.80000000000011, 47.0], [-97.72000000000011, 47.0], [-97.64000000000011, 47.0], [-97.56000000000012, 47.0], [-97.48000000000012, 47.0], [-97.40000000000012, 47.0], [-97.32000000000012, 47.0], [-97.24000000000012, 47.0], [-97.16000000000012, 47.0], [-97.08000000000013, 47.0], [-97.00000000000013, 47.0], [-96.92000000000013, 47.0], [-96.84000000000013, 47.0], [-96.76000000000013, 47.0], [-96.68000000000013, 47.0], [-96.60000000000014, 47.0], [-96.52000000000014, 47.0], [-96.44000000000014, 47.0], [-96.36000000000014, 47.0], [-96.28000000000014, 47.0], [-96.20000000000014, 47.0], [-96.12000000000015, 47.0], [-96.12000000000015, 46.92], [-96.12000000000015, 46.839999999999996], [-96.12000000000015, 46.75999999999999], [-96.12000000000015, 46.67999999999999], [-96.20000000000014, 46.67999999999999], [-96.28000000000014, 46.67999999999999], [-96.28000000000014, 46.599999999999994], [-96.28000000000014, 46.51999999999999], [-96.20000000000014, 46.51999999999999], [-96.12000000000015, 46.51999999999999], [-96.12000000000015, 46.43999999999998], [-96.12000000000015, 46.359999999999985], [-96.20000000000014, 46.359999999999985], [-96.277142857143, 46.359999999999985], [-96.26857142857158, 46.43999999999998], [-96.28000000000014, 46.46879999999999], [-96.34736842105278, 46.51999999999999], [-96.36000000000014, 46.52347826086955], [-96.3726315789475, 46.51999999999999], [-96.44000000000014, 46.50545454545453], [-96.44000000000014, 46.51999999999999], [-96.52000000000014, 46.51999999999999], [-96.60000000000014, 46.51999999999999], [-96.60000000000014, 46.43999999999998], [-96.60000000000014, 46.359999999999985], [-96.68000000000013, 46.359999999999985], [-96.76000000000013, 46.359999999999985], [-96.76000000000013, 46.43999999999998], [-96.76000000000013, 46.51999999999999], [-96.80571428571442, 46.51999999999999], [-96.7866666666668, 46.599999999999994], [-96.84000000000013, 46.64571428571428], [-96.86909090909104, 46.599999999999994], [-96.86909090909104, 46.51999999999999], [-96.92000000000013, 46.51999999999999], [-97.00000000000013, 46.51999999999999], [-97.08000000000013, 46.51999999999999], [-97.08000000000013, 46.43999999999998], [-97.08000000000013, 46.359999999999985], [-97.00000000000013, 46.359999999999985], [-96.92000000000013, 46.359999999999985], [-96.92000000000013, 46.27999999999999], [-96.92000000000013, 46.19999999999998], [-97.00000000000013, 46.19999999999998], [-97.08000000000013, 46.19999999999998], [-97.08000000000013, 46.119999999999976], [-97.08000000000013, 46.03999999999998], [-97.16000000000012, 46.03999999999998], [-97.24000000000012, 46.03999999999998], [-97.24000000000012, 45.95999999999998], [-97.24000000000012, 45.879999999999974], [-97.16000000000012, 45.879999999999974], [-97.08000000000013, 45.879999999999974], [-97.00000000000013, 45.879999999999974], [-96.92000000000013, 45.879999999999974], [-96.92000000000013, 45.79999999999997], [-96.92000000000013, 45.71999999999997], [-96.92000000000013, 45.63999999999997], [-96.92000000000013, 45.55999999999997], [-96.92000000000013, 45.47999999999996], [-96.92000000000013, 45.39999999999996], [-97.00000000000013, 45.39999999999996], [-97.08000000000013, 45.39999999999996], [-97.08000000000013, 45.47999999999996], [-97.08000000000013, 45.55999999999997], [-97.16000000000012, 45.55999999999997], [-97.24000000000012, 45.55999999999997], [-97.24000000000012, 45.63999999999997], [-97.24000000000012, 45.71999999999997], [-97.32000000000012, 45.71999999999997], [-97.40000000000012, 45.71999999999997], [-97.48000000000012, 45.71999999999997], [-97.56000000000012, 45.71999999999997], [-97.56000000000012, 45.63999999999997], [-97.56000000000012, 45.55999999999997], [-97.64000000000011, 45.55999999999997], [-97.72000000000011, 45.55999999999997], [-97.72000000000011, 45.47999999999996], [-97.72000000000011, 45.39999999999996], [-97.80000000000011, 45.39999999999996], [-97.88000000000011, 45.39999999999996], [-97.96000000000011, 45.39999999999996], [-98.0400000000001, 45.39999999999996], [-98.0400000000001, 45.47999999999996], [-98.0400000000001, 45.55999999999997], [-98.1200000000001, 45.55999999999997], [-98.2000000000001, 45.55999999999997], [-98.2000000000001, 45.47999999999996], [-98.2000000000001, 45.39999999999996], [-98.2000000000001, 45.319999999999965], [-98.2000000000001, 45.23999999999996], [-98.1200000000001, 45.23999999999996], [-98.07428571428582, 45.23999999999996], [-98.07428571428582, 45.159999999999954], [-97.96000000000011, 45.09846153846149], [-97.91000000000011, 45.159999999999954], [-97.91000000000011, 45.23999999999996], [-97.88000000000011, 45.23999999999996], [-97.80000000000011, 45.23999999999996], [-97.72000000000011, 45.23999999999996], [-97.72000000000011, 45.159999999999954], [-97.72000000000011, 45.079999999999956], [-97.72000000000011, 44.99999999999996], [-97.72000000000011, 44.91999999999995], [-97.64000000000011, 44.91999999999995], [-97.56000000000012, 44.91999999999995], [-97.56000000000012, 44.83999999999995], [-97.56000000000012, 44.75999999999995], [-97.48000000000012, 44.75999999999995], [-97.40000000000012, 44.75999999999995], [-97.40000000000012, 44.67999999999995], [-97.40000000000012, 44.599999999999945], [-97.48000000000012, 44.599999999999945], [-97.56000000000012, 44.599999999999945], [-97.64000000000011, 44.599999999999945], [-97.72000000000011, 44.599999999999945], [-97.80000000000011, 44.599999999999945], [-97.88000000000011, 44.599999999999945]], [[-98.1200000000001, 46.66666666666666], [-98.16444444444454, 46.599999999999994], [-98.1200000000001, 46.538461538461526], [-98.05846153846164, 46.599999999999994], [-98.1200000000001, 46.66666666666666]], [[-96.36000000000014, 46.83578947368421], [-96.42857142857157, 46.75999999999999], [-96.36000000000014, 46.687999999999995], [-96.29142857142871, 46.75999999999999], [-96.36000000000014, 46.83578947368421]], [[-97.96000000000011, 46.033846153846135], [-98.02857142857154, 45.95999999999998], [-97.96000000000011, 45.89999999999998], [-97.89600000000011, 45.95999999999998], [-97.96000000000011, 46.033846153846135]]], [[[-94.20000000000019, 45.71999999999997], [-94.28000000000019, 45.71999999999997], [-94.36000000000018, 45.71999999999997], [-94.44000000000018, 45.71999999999997], [-94.52000000000018, 45.71999999999997], [-94.52000000000018, 45.79999999999997], [-94.52000000000018, 45.879999999999974], [-94.60000000000018, 45.879999999999974], [-94.68000000000018, 45.879999999999974], [-94.68000000000018, 45.95999999999998], [-94.68000000000018, 46.03999999999998], [-94.60000000000018, 46.03999999999998], [-94.52000000000018, 46.03999999999998], [-94.44000000000018, 46.03999999999998], [-94.36000000000018, 46.03999999999998], [-94.36000000000018, 46.119999999999976], [-94.36000000000018, 46.19999999999998], [-94.28000000000019, 46.19999999999998], [-94.20000000000019, 46.19999999999998], [-94.20000000000019, 46.119999999999976], [-94.20000000000019, 46.03999999999998], [-94.12000000000019, 46.03999999999998], [-94.04000000000019, 46.03999999999998], [-94.04000000000019, 45.95999999999998], [-94.04000000000019, 45.879999999999974], [-93.96000000000019, 45.879999999999974], [-93.8800000000002, 45.879999999999974], [-93.8800000000002, 45.79999999999997], [-93.8800000000002, 45.71999999999997], [-93.8800000000002, 45.63999999999997], [-93.8800000000002, 45.55999999999997], [-93.96000000000019, 45.55999999999997], [-94.04000000000019, 45.55999999999997], [-94.04000000000019, 45.63999999999997], [-94.04000000000019, 45.71999999999997], [-94.12000000000019, 45.71999999999997], [-94.20000000000019, 45.71999999999997]], [[-94.34303030303049, 45.95999999999998], [-94.28000000000019, 45.88827586206894], [-94.19999938462031, 45.95999999999998], [-94.20000000000019, 45.96000599955001], [-94.2182857142859, 46.03999999999998], [-94.28000000000019, 46.08235294117645], [-94.32408163265325, 46.03999999999998], [-94.34303030303049, 45.95999999999998]]], [[[-99.96000000000006, 45.55999999999997], [-100.04000000000006, 45.55999999999997], [-100.12000000000006, 45.55999999999997], [-100.12000000000006, 45.63999999999997], [-100.12000000000006, 45.71999999999997], [-100.04000000000006, 45.71999999999997], [-99.96000000000006, 45.71999999999997], [-99.96000000000006, 45.79999999999997], [-99.96000000000006, 45.879999999999974], [-99.88000000000007, 45.879999999999974], [-99.80000000000007, 45.879999999999974], [-99.80000000000007, 45.95999999999998], [-99.80000000000007, 46.03999999999998], [-99.88000000000007, 46.03999999999998], [-99.96000000000006, 46.03999999999998], [-100.00000000000006, 46.03999999999998], [-100.00000000000006, 46.119999999999976], [-100.02000000000007, 46.19999999999998], [-99.96000000000006, 46.19999999999998], [-99.96000000000006, 46.27999999999999], [-99.96000000000006, 46.359999999999985], [-99.88000000000007, 46.359999999999985], [-99.80000000000007, 46.359999999999985], [-99.75555555555563, 46.359999999999985], [-99.75555555555563, 46.27999999999999], [-99.72000000000007, 46.2342857142857], [-99.64000000000007, 46.2342857142857], [-99.64000000000007, 46.19999999999998], [-99.64000000000007, 46.119999999999976], [-99.64000000000007, 46.03999999999998], [-99.56000000000007, 46.03999999999998], [-99.48000000000008, 46.03999999999998], [-99.48000000000008, 45.95999999999998], [-99.48000000000008, 45.879999999999974], [-99.56000000000007, 45.879999999999974], [-99.64000000000007, 45.879999999999974], [-99.64000000000007, 45.79999999999997], [-99.64000000000007, 45.71999999999997], [-99.56000000000007, 45.71999999999997], [-99.48000000000008, 45.71999999999997], [-99.48000000000008, 45.63999999999997], [-99.48000000000008, 45.55999999999997], [-99.56000000000007, 45.55999999999997], [-99.64000000000007, 45.55999999999997], [-99.72000000000007, 45.55999999999997], [-99.80000000000007, 45.55999999999997], [-99.88000000000007, 45.55999999999997], [-99.96000000000006, 45.55999999999997]]], [[[-99.16421052631587, 45.95999999999998], [-99.16421052631587, 46.03999999999998], [-99.16000000000008, 46.03999999999998], [-99.08000000000008, 46.03999999999998], [-99.00000000000009, 46.03999999999998], [-99.00000000000009, 46.119999999999976], [-99.00000000000009, 46.19999999999998], [-98.92000000000009, 46.19999999999998], [-98.84000000000009, 46.19999999999998], [-98.84000000000009, 46.119999999999976], [-98.84000000000009, 46.03999999999998], [-98.84000000000009, 45.95999999999998], [-98.84000000000009, 45.879999999999974], [-98.92000000000009, 45.879999999999974], [-99.00000000000009, 45.879999999999974], [-99.00000000000009, 45.79999999999997], [-99.00000000000009, 45.71999999999997], [-99.08000000000008, 45.71999999999997], [-99.16000000000008, 45.71999999999997], [-99.16000000000008, 45.79999999999997], [-99.16000000000008, 45.879999999999974], [-99.18976744186055, 45.879999999999974], [-99.16421052631587, 45.95999999999998]]], [[[-100.76000000000005, 46.19999999999998], [-100.76000000000005, 46.119999999999976], [-100.76000000000005, 46.03999999999998], [-100.84000000000005, 46.03999999999998], [-100.92000000000004, 46.03999999999998], [-100.92000000000004, 46.119999999999976], [-100.92000000000004, 46.19999999999998], [-100.84000000000005, 46.19999999999998], [-100.76000000000005, 46.19999999999998]]], [[[-100.44000000000005, 46.03999999999998], [-100.44000000000005, 46.119999999999976], [-100.44000000000005, 46.19999999999998], [-100.36000000000006, 46.19999999999998], [-100.28000000000006, 46.19999999999998], [-100.28000000000006, 46.21454545454544], [-100.24800000000006, 46.19999999999998], [-100.20000000000006, 46.15999999999998], [-100.12000000000006, 46.13846153846152], [-100.09333333333339, 46.119999999999976], [-100.09333333333339, 46.03999999999998], [-100.12000000000006, 46.03999999999998], [-100.20000000000006, 46.03999999999998], [-100.28000000000006, 46.03999999999998], [-100.36000000000006, 46.03999999999998], [-100.44000000000005, 46.03999999999998]]], [[[-96.28000000000014, 46.34857142857141], [-96.28000000000014, 46.27999999999999], [-96.28000000000014, 46.19999999999998], [-96.36000000000014, 46.19999999999998], [-96.44000000000014, 46.19999999999998], [-96.44000000000014, 46.27999999999999], [-96.44000000000014, 46.30285714285713], [-96.36000000000014, 46.30285714285713], [-96.28000000000014, 46.34857142857141]]], [[[-99.40000000000008, 46.359999999999985], [-99.32000061537995, 46.359999999999985], [-99.32000061537995, 46.27999999999999], [-99.32000061537995, 46.19999999999998], [-99.40000000000008, 46.19999999999998], [-99.48000000000008, 46.19999999999998], [-99.48000000000008, 46.27999999999999], [-99.48000000000008, 46.359999999999985], [-99.40000000000008, 46.359999999999985]]], [[[-99.48000000000008, 46.51999999999999], [-99.48000000000008, 46.43999999999998], [-99.48000000000008, 46.359999999999985], [-99.56000000000007, 46.359999999999985], [-99.64000000000007, 46.359999999999985], [-99.64000000000007, 46.43999999999998], [-99.64000000000007, 46.51999999999999], [-99.56000000000007, 46.51999999999999], [-99.48000000000008, 46.51999999999999]]], [[[-101.56000000000003, 46.51999999999999], [-101.56000000000003, 46.599999999999994], [-101.56000000000003, 46.67999999999999], [-101.48000000000003, 46.67999999999999], [-101.40000000000003, 46.67999999999999], [-101.32000266657782, 46.67999999999999], [-101.32000266657782, 46.599999999999994], [-101.32000000000004, 46.59999840003199], [-101.24000000000004, 46.59999840003199], [-101.24000000000004, 46.51999999999999], [-101.24000000000004, 46.43999999999998], [-101.24000000000004, 46.359999999999985], [-101.32000000000004, 46.359999999999985], [-101.40000000000003, 46.359999999999985], [-101.48000000000003, 46.359999999999985], [-101.56000000000003, 46.359999999999985], [-101.56000000000003, 46.43999999999998], [-101.56000000000003, 46.51999999999999]]], [[[-95.96000000000015, 46.67999999999999], [-95.96000000000015, 46.599999999999994], [-95.96000000000015, 46.51999999999999], [-96.04000000000015, 46.51999999999999], [-96.12000000000015, 46.51999999999999], [-96.12000000000015, 46.599999999999994], [-96.12000000000015, 46.67999999999999], [-96.04000000000015, 46.67999999999999], [-95.96000000000015, 46.67999999999999]]], [[[-100.12000000000006, 46.75999999999999], [-100.12000000000006, 46.839999999999996], [-100.04000000000006, 46.839999999999996], [-99.96666666666673, 46.839999999999996], [-99.96000000000006, 46.82857142857142], [-99.88000000000007, 46.769999999999996], [-99.80000000000007, 46.778461538461535], [-99.80000000000007, 46.75999999999999], [-99.80000000000007, 46.75111111111111], [-99.88000000000007, 46.75111111111111], [-100.03111111111117, 46.599999999999994], [-100.03111111111117, 46.51999999999999], [-100.04000000000006, 46.51999999999999], [-100.12000000000006, 46.51999999999999], [-100.12000000000006, 46.599999999999994], [-100.12000000000006, 46.67999999999999], [-100.12000000000006, 46.75999999999999]]], [[[-99.00000000000009, 46.359999999999985], [-99.08000000000008, 46.359999999999985], [-99.16000000000008, 46.359999999999985], [-99.16000000000008, 46.43999999999998], [-99.16000000000008, 46.508571428571415], [-99.08000000000008, 46.508571428571415], [-98.99466666666675, 46.599999999999994], [-99.08000000000008, 46.67529411764705], [-99.16000000000008, 46.67529411764705], [-99.16000000000008, 46.67999999999999], [-99.16000000000008, 46.75999999999999], [-99.16000000000008, 46.839999999999996], [-99.24000000000008, 46.839999999999996], [-99.32000000000008, 46.839999999999996], [-99.40000000000008, 46.839999999999996], [-99.48000000000008, 46.839999999999996], [-99.48000000000008, 46.75999999999999], [-99.48000000000008, 46.67999999999999], [-99.56000000000007, 46.67999999999999], [-99.64000000000007, 46.67999999999999], [-99.64000000000007, 46.75999999999999], [-99.64000000000007, 46.839999999999996], [-99.72000000000007, 46.839999999999996], [-99.76363636363644, 46.839999999999996], [-99.75368421052639, 46.92], [-99.75368421052639, 47.0], [-99.72000000000007, 47.0], [-99.64000000000007, 47.0], [-99.56000000000007, 47.0], [-99.48000000000008, 47.0], [-99.40000000000008, 47.0], [-99.32000000000008, 47.0], [-99.24000000000008, 47.0], [-99.16000000000008, 47.0], [-99.08000000000008, 47.0], [-99.00000000000009, 47.0], [-98.92000000000009, 47.0], [-98.84000000000009, 47.0], [-98.76000000000009, 47.0], [-98.68000000000009, 47.0], [-98.6000000000001, 47.0], [-98.5200000000001, 47.0], [-98.5200000000001, 46.92], [-98.5200000000001, 46.839999999999996], [-98.5200000000001, 46.774545454545446], [-98.6000000000001, 46.774545454545446], [-98.61454545454555, 46.75999999999999], [-98.6000000000001, 46.748571428571424], [-98.5200000000001, 46.748571428571424], [-98.5200000000001, 46.67999999999999], [-98.5200000000001, 46.599999999999994], [-98.5200000000001, 46.51999999999999], [-98.5200000000001, 46.43999999999998], [-98.5200000000001, 46.359999999999985], [-98.6000000000001, 46.359999999999985], [-98.68000000000009, 46.359999999999985], [-98.76000000000009, 46.359999999999985], [-98.84000000000009, 46.359999999999985], [-98.92000000000009, 46.359999999999985], [-99.00000000000009, 46.359999999999985]]], [[[-86.40000000000035, 40.039999999999836], [-86.40000000000035, 39.95999999999984], [-86.44000000000035, 39.95999999999984], [-86.46666666666702, 39.95999999999984], [-86.46666666666702, 40.039999999999836], [-86.44000000000035, 40.07999999999984], [-86.40000000000035, 40.039999999999836]]], [[[-87.02000000000034, 40.039999999999836], [-86.92000000000034, 40.15428571428556], [-86.78666666666702, 40.039999999999836], [-86.78666666666702, 39.95999999999984], [-86.84000000000034, 39.95999999999984], [-86.92000000000034, 39.95999999999984], [-87.00000000000034, 39.95999999999984], [-87.02000000000034, 39.95999999999984], [-87.02000000000034, 40.039999999999836]]], [[[-88.62666666666698, 40.039999999999836], [-88.52000000000031, 40.19999800004984], [-88.40363636363668, 40.039999999999836], [-88.40363636363668, 39.95999999999984], [-88.44000000000031, 39.95999999999984], [-88.52000000000031, 39.95999999999984], [-88.6000000000003, 39.95999999999984], [-88.62666666666698, 39.95999999999984], [-88.62666666666698, 40.039999999999836]]], [[[-85.40000000000038, 39.95999999999984], [-85.48000000000037, 39.95999999999984], [-85.56000000000037, 39.95999999999984], [-85.60000000000036, 39.95999999999984], [-85.60000000000036, 40.039999999999836], [-85.57600000000038, 40.19999999999985], [-85.48000000000037, 40.26857142857127], [-85.35200000000037, 40.35999999999984], [-85.32000000000038, 40.38285714285699], [-85.16001599680102, 40.35999999999984], [-85.21333333333371, 40.19999999999985], [-85.16000000000038, 40.10399999999984], [-85.05333333333371, 40.039999999999836], [-85.05333333333371, 39.95999999999984], [-85.08000000000038, 39.95999999999984], [-85.16000000000038, 39.95999999999984], [-85.24000000000038, 39.95999999999984], [-85.32000000000038, 39.95999999999984], [-85.40000000000038, 39.95999999999984]]], [[[-88.24800000000032, 40.19999999999985], [-88.36000000000031, 40.08799999999984], [-88.51999771435133, 40.19999999999985], [-88.43999733342253, 40.35999999999984], [-88.36000000000031, 40.45599999999985], [-88.2800026665781, 40.35999999999984], [-88.24800000000032, 40.19999999999985]]], [[[-85.15999466702257, 40.35999999999984], [-85.00000000000038, 40.45599999999985], [-84.8400053329782, 40.35999999999984], [-85.00000000000038, 40.29142857142842], [-85.15999466702257, 40.35999999999984]]], [[[-84.4200000000004, 39.95999999999984], [-84.4200000000004, 40.039999999999836], [-84.5200000000004, 40.15428571428556], [-84.62666666666706, 40.19999999999985], [-84.5200000000004, 40.25333333333318], [-84.44000399980041, 40.19999999999985], [-84.3600000000004, 40.13599999999984], [-84.3280000000004, 40.19999999999985], [-84.3600000000004, 40.26399999999985], [-84.42857142857183, 40.35999999999984], [-84.51999600020038, 40.519999999999854], [-84.5200000000004, 40.52000399979986], [-84.59999800005039, 40.67999999999985], [-84.5200000000004, 40.83999600019985], [-84.36000399980041, 40.67999999999985], [-84.3600000000004, 40.67999600019984], [-84.35999600020038, 40.67999999999985], [-84.2000000000004, 40.80799999999986], [-84.0720000000004, 40.67999999999985], [-84.0400000000004, 40.59999200079977], [-83.9600000000004, 40.59999200079977], [-83.9600000000004, 40.519999999999854], [-83.9600000000004, 40.43999999999985], [-83.9600000000004, 40.35999999999984], [-83.9600000000004, 40.279999999999845], [-83.9600000000004, 40.23199999999984], [-84.0400000000004, 40.23199999999984], [-84.05777777777818, 40.19999999999985], [-84.0400000000004, 40.16799999999984], [-83.9600000000004, 40.16799999999984], [-83.9600000000004, 40.11999999999984], [-83.9600000000004, 40.039999999999836], [-83.9600000000004, 39.95999999999984], [-84.0400000000004, 39.95999999999984], [-84.1200000000004, 39.95999999999984], [-84.2000000000004, 39.95999999999984], [-84.2800000000004, 39.95999999999984], [-84.3600000000004, 39.95999999999984], [-84.4200000000004, 39.95999999999984]]], [[[-85.65777777777815, 40.67999999999985], [-85.64000000000037, 40.66222222222208], [-85.48000199995037, 40.519999999999854], [-85.64000000000037, 40.428571428571274], [-85.756363636364, 40.519999999999854], [-85.80000000000037, 40.56363636363621], [-85.95999800005036, 40.67999999999985], [-85.80000000000037, 40.80799999999986], [-85.65777777777815, 40.67999999999985]]], [[[-87.81600000000033, 40.67999999999985], [-87.72000000000033, 40.799999999999855], [-87.64000266657811, 40.67999999999985], [-87.72000000000033, 40.60000266657763], [-87.81600000000033, 40.67999999999985]]], [[[-87.64000000000033, 39.95999999999984], [-87.67130434782642, 39.95999999999984], [-87.67130434782642, 40.039999999999836], [-87.72000000000033, 40.08307692307676], [-87.85818181818215, 40.19999999999985], [-87.72000000000033, 40.33818181818167], [-87.57523809523842, 40.19999999999985], [-87.56000000000033, 40.182222222222066], [-87.53538461538494, 40.19999999999985], [-87.426666666667, 40.35999999999984], [-87.40000000000033, 40.413333333333185], [-87.24000000000034, 40.51999200079977], [-87.08000000000034, 40.47076923076908], [-86.95200000000034, 40.519999999999854], [-86.92000000000034, 40.54666666666652], [-86.82000000000035, 40.67999999999985], [-86.87428571428606, 40.83999999999986], [-86.92000000000034, 40.94666666666652], [-86.97333333333367, 40.83999999999986], [-87.08000000000034, 40.76000199994986], [-87.24000000000034, 40.78666666666652], [-87.39998400319969, 40.83999999999986], [-87.40000000000033, 40.84000799919994], [-87.56000000000033, 40.840002285648836], [-87.72000000000033, 40.92000799919994], [-87.88000000000032, 40.94666666666652], [-88.04000000000032, 40.840015996800496], [-88.04001599680096, 40.83999999999986], [-88.04000000000032, 40.839994667022054], [-87.94400000000032, 40.67999999999985], [-88.04000000000032, 40.583999999999854], [-88.16000000000031, 40.67999999999985], [-88.20000000000032, 40.760007999199935], [-88.36000000000031, 40.71999999999986], [-88.52000000000031, 40.680003999799865], [-88.6800000000003, 40.68000533297766], [-88.68000799920038, 40.67999999999985], [-88.8400000000003, 40.57333333333318], [-88.86666666666697, 40.519999999999854], [-88.86666666666697, 40.35999999999984], [-88.8400000000003, 40.319999999999844], [-88.68000533297811, 40.19999999999985], [-88.8400000000003, 40.12000266657762], [-88.96000000000029, 40.19999999999985], [-89.0000000000003, 40.22666666666651], [-89.05333333333363, 40.19999999999985], [-89.1600000000003, 40.04000799919992], [-89.1600053329781, 40.039999999999836], [-89.1600053329781, 39.95999999999984], [-89.2400000000003, 39.95999999999984], [-89.32000000000029, 39.95999999999984], [-89.40000000000029, 39.95999999999984], [-89.47999466702248, 39.95999999999984], [-89.47999466702248, 40.039999999999836], [-89.47998400319965, 40.19999999999985], [-89.48000000000029, 40.20001599680048], [-89.48001599680093, 40.19999999999985], [-89.64000000000028, 40.12000799919992], [-89.66666666666696, 40.039999999999836], [-89.66666666666696, 39.95999999999984], [-89.72000000000028, 39.95999999999984], [-89.80000000000028, 39.95999999999984], [-89.88000000000028, 39.95999999999984], [-89.96000000000028, 39.95999999999984], [-90.04000000000028, 39.95999999999984], [-90.12000000000027, 39.95999999999984], [-90.20000000000027, 39.95999999999984], [-90.28000000000027, 39.95999999999984], [-90.36000000000027, 39.95999999999984], [-90.44000000000027, 39.95999999999984], [-90.52000000000027, 39.95999999999984], [-90.60000000000026, 39.95999999999984], [-90.68000000000026, 39.95999999999984], [-90.76000000000026, 39.95999999999984], [-90.84000000000026, 39.95999999999984], [-90.92000000000026, 39.95999999999984], [-91.00000000000026, 39.95999999999984], [-91.08000000000025, 39.95999999999984], [-91.16000000000025, 39.95999999999984], [-91.24000000000025, 39.95999999999984], [-91.32000000000025, 39.95999999999984], [-91.40000000000025, 39.95999999999984], [-91.48000000000025, 39.95999999999984], [-91.48000000000025, 40.039999999999836], [-91.48000000000025, 40.11999999999984], [-91.56000000000024, 40.11999999999984], [-91.64000000000024, 40.11999999999984], [-91.64000000000024, 40.19999999999985], [-91.64000000000024, 40.279999999999845], [-91.72000000000024, 40.279999999999845], [-91.80000000000024, 40.279999999999845], [-91.80000000000024, 40.35999999999984], [-91.80000000000024, 40.43999999999985], [-91.88000000000024, 40.43999999999985], [-91.96000000000024, 40.43999999999985], [-92.04000000000023, 40.43999999999985], [-92.12000000000023, 40.43999999999985], [-92.12000000000023, 40.519999999999854], [-92.12000000000023, 40.59999999999985], [-92.20000000000023, 40.59999999999985], [-92.28000000000023, 40.59999999999985], [-92.28000000000023, 40.67999999999985], [-92.28000000000023, 40.759999999999856], [-92.36000000000023, 40.759999999999856], [-92.44000000000023, 40.759999999999856], [-92.49090909090931, 40.759999999999856], [-92.49090909090931, 40.83999999999986], [-92.52000000000022, 40.85230769230755], [-92.60000000000022, 40.85333333333319], [-92.60000000000022, 40.91999999999986], [-92.68000000000022, 40.91999999999986], [-92.76000000000022, 40.91999999999986], [-92.76000000000022, 40.99999999999986], [-92.76000000000022, 41.07999999999986], [-92.84000000000022, 41.07999999999986], [-92.92000000000021, 41.07999999999986], [-92.92000000000021, 41.15999999999987], [-92.92000000000021, 41.23999999999987], [-93.00000000000021, 41.23999999999987], [-93.08000000000021, 41.23999999999987], [-93.16000000000021, 41.23999999999987], [-93.24000000000021, 41.23999999999987], [-93.24000000000021, 41.319999999999865], [-93.24000000000021, 41.39999999999987], [-93.3200000000002, 41.39999999999987], [-93.4000000000002, 41.39999999999987], [-93.4000000000002, 41.479999999999876], [-93.4000000000002, 41.559999999999874], [-93.4800000000002, 41.559999999999874], [-93.5600000000002, 41.559999999999874], [-93.6400000000002, 41.559999999999874], [-93.7200000000002, 41.559999999999874], [-93.7200000000002, 41.63999999999987], [-93.7200000000002, 41.71999999999988], [-93.74909090909111, 41.71999999999988], [-93.7200000000002, 41.78736842105251], [-93.71040000000019, 41.79999999999988], [-93.8000000000002, 41.87724137931023], [-93.8800000000002, 41.858947368420935], [-93.8800000000002, 41.87999999999988], [-93.96000000000019, 41.87999999999988], [-94.04000000000019, 41.87999999999988], [-94.12000000000019, 41.87999999999988], [-94.20000000000019, 41.87999999999988], [-94.20000000000019, 41.95999999999988], [-94.20000000000019, 42.039999999999885], [-94.28000000000019, 42.039999999999885], [-94.36000000000018, 42.039999999999885], [-94.36000000000018, 42.11999999999989], [-94.36000000000018, 42.19999999999989], [-94.44000000000018, 42.19999999999989], [-94.52000000000018, 42.19999999999989], [-94.52000000000018, 42.27999999999989], [-94.52000000000018, 42.35999999999989], [-94.44000000000018, 42.35999999999989], [-94.36000000000018, 42.35999999999989], [-94.28000000000019, 42.35999999999989], [-94.20000000000019, 42.35999999999989], [-94.12000000000019, 42.35999999999989], [-94.04000000000019, 42.35999999999989], [-94.04000000000019, 42.27999999999989], [-94.04000000000019, 42.19999999999989], [-94.04000000000019, 42.11999999999989], [-94.04000000000019, 42.039999999999885], [-93.96000000000019, 42.039999999999885], [-93.8800000000002, 42.039999999999885], [-93.8800000000002, 42.11999999999989], [-93.8800000000002, 42.19999999999989], [-93.8800000000002, 42.27999999999989], [-93.8800000000002, 42.35999999999989], [-93.8000000000002, 42.35999999999989], [-93.7200000000002, 42.35999999999989], [-93.7200000000002, 42.4399999999999], [-93.7200000000002, 42.5199999999999], [-93.6400000000002, 42.5199999999999], [-93.5600000000002, 42.5199999999999], [-93.5600000000002, 42.599999999999895], [-93.5600000000002, 42.6799999999999], [-93.4800000000002, 42.6799999999999], [-93.4000000000002, 42.6799999999999], [-93.4000000000002, 42.759999999999906], [-93.4000000000002, 42.839999999999904], [-93.3200000000002, 42.839999999999904], [-93.24000000000021, 42.839999999999904], [-93.16000000000021, 42.839999999999904], [-93.08000000000021, 42.839999999999904], [-93.08000000000021, 42.9199999999999], [-93.08000000000021, 42.99999999999991], [-93.00000000000021, 42.99999999999991], [-92.92000000000021, 42.99999999999991], [-92.92000000000021, 43.07999999999991], [-92.92000000000021, 43.15999999999991], [-92.84000000000022, 43.15999999999991], [-92.76000000000022, 43.15999999999991], [-92.7426086956524, 43.15999999999991], [-92.7426086956524, 43.07999999999991], [-92.68000000000022, 42.96923076923068], [-92.60421052631601, 43.07999999999991], [-92.61828571428593, 43.15999999999991], [-92.60000000000022, 43.15999999999991], [-92.60000000000022, 43.23999999999991], [-92.60000000000022, 43.319999999999915], [-92.52000000000022, 43.319999999999915], [-92.4713043478263, 43.319999999999915], [-92.4713043478263, 43.23999999999991], [-92.36000000000023, 43.12363636363627], [-92.20000000000023, 43.11999999999991], [-92.10857142857166, 43.23999999999991], [-92.10857142857166, 43.319999999999915], [-92.04000000000023, 43.319999999999915], [-91.96000000000024, 43.319999999999915], [-91.96000000000024, 43.23999999999991], [-91.96000000000024, 43.15999999999991], [-91.88000000000024, 43.15999999999991], [-91.80000000000024, 43.15999999999991], [-91.80000000000024, 43.21818181818173], [-91.72000000000024, 43.204444444444356], [-91.68800000000024, 43.23999999999991], [-91.68800000000024, 43.319999999999915], [-91.64000000000024, 43.319999999999915], [-91.56000000000024, 43.319999999999915], [-91.48000000000025, 43.319999999999915], [-91.40000000000025, 43.319999999999915], [-91.32000000000025, 43.319999999999915], [-91.32000000000025, 43.23999999999991], [-91.32000000000025, 43.15999999999991], [-91.24000000000025, 43.15999999999991], [-91.16000000000025, 43.15999999999991], [-91.08000000000025, 43.15999999999991], [-91.00000000000026, 43.15999999999991], [-91.00000000000026, 43.23999999999991], [-91.00000000000026, 43.319999999999915], [-91.00000000000026, 43.33882352941168], [-90.92000000000026, 43.33882352941168], [-90.86057142857169, 43.39999999999992], [-90.86057142857169, 43.47999999999992], [-90.84000000000026, 43.47999999999992], [-90.76000000000026, 43.47999999999992], [-90.68000000000026, 43.47999999999992], [-90.68000000000026, 43.55094339622634], [-90.60000000000026, 43.5489655172413], [-90.44000000000027, 43.53499999999992], [-90.40521739130462, 43.55999999999992], [-90.39555555555583, 43.63999999999992], [-90.36000000000027, 43.63999999999992], [-90.36000000000027, 43.70399999999992], [-90.28000000000027, 43.711578947368345], [-90.27238095238123, 43.71999999999993], [-90.27238095238123, 43.799999999999926], [-90.20000000000027, 43.799999999999926], [-90.12000000000027, 43.799999999999926], [-90.04000000000028, 43.799999999999926], [-89.96000000000028, 43.799999999999926], [-89.88000000000028, 43.799999999999926], [-89.88000000000028, 43.84999999999993], [-89.81846153846182, 43.799999999999926], [-89.80000000000028, 43.72000799920001], [-89.73600000000029, 43.879999999999924], [-89.786285714286, 43.95999999999993], [-89.72000000000028, 43.95999999999993], [-89.72000000000028, 44.039999999999935], [-89.72000000000028, 44.11999999999993], [-89.64000000000028, 44.11999999999993], [-89.56000000000029, 44.11999999999993], [-89.56000000000029, 44.166511627906914], [-89.48000000000029, 44.172571428571366], [-89.4160000000003, 44.19999999999993], [-89.4224000000003, 44.27999999999994], [-89.40000000000029, 44.27999999999994], [-89.40000000000029, 44.35999999999994], [-89.40000000000029, 44.43999999999994], [-89.32000000000029, 44.43999999999994], [-89.2400000000003, 44.43999999999994], [-89.2400000000003, 44.457391304347766], [-89.1600000000003, 44.45599999999994], [-89.08615384615415, 44.51999999999994], [-89.08615384615415, 44.599999999999945], [-89.0800000000003, 44.599999999999945], [-89.0000000000003, 44.599999999999945], [-88.9200000000003, 44.599999999999945], [-88.9200000000003, 44.67999999999995], [-88.9200000000003, 44.75999999999995], [-88.8400000000003, 44.75999999999995], [-88.7600000000003, 44.75999999999995], [-88.6800000000003, 44.75999999999995], [-88.6000000000003, 44.75999999999995], [-88.52000000000031, 44.75999999999995], [-88.44000000000031, 44.75999999999995], [-88.36000000000031, 44.75999999999995], [-88.28000000000031, 44.75999999999995], [-88.28000000000031, 44.83999999999995], [-88.28000000000031, 44.91999999999995], [-88.20000000000032, 44.91999999999995], [-88.12000000000032, 44.91999999999995], [-88.12000000000032, 44.83999999999995], [-88.12000000000032, 44.75999999999995], [-88.04000000000032, 44.75999999999995], [-87.96000000000032, 44.75999999999995], [-87.96000000000032, 44.83999999999995], [-87.96000000000032, 44.91999999999995], [-87.99809523809556, 44.91999999999995], [-87.96960000000033, 44.99999999999996], [-87.96000000000032, 45.05538461538457], [-87.94967741935515, 45.079999999999956], [-87.88000000000032, 45.11789473684206], [-87.80000000000032, 45.11789473684206], [-87.80000000000032, 45.079999999999956], [-87.80000000000032, 44.99999999999996], [-87.80000000000032, 44.91999999999995], [-87.80000000000032, 44.83999999999995], [-87.80000000000032, 44.75999999999995], [-87.72000000000033, 44.75999999999995], [-87.64000000000033, 44.75999999999995], [-87.64000000000033, 44.67999999999995], [-87.64000000000033, 44.599999999999945], [-87.64000000000033, 44.51999999999994], [-87.64000000000033, 44.43999999999994], [-87.64000000000033, 44.35999999999994], [-87.64000000000033, 44.27999999999994], [-87.56000000000033, 44.27999999999994], [-87.48000000000033, 44.27999999999994], [-87.48000000000033, 44.19999999999993], [-87.48000000000033, 44.11999999999993], [-87.56000000000033, 44.11999999999993], [-87.64000000000033, 44.11999999999993], [-87.64000000000033, 44.039999999999935], [-87.64000000000033, 43.95999999999993], [-87.72000000000033, 43.95999999999993], [-87.80000000000032, 43.95999999999993], [-87.80000000000032, 43.879999999999924], [-87.80000000000032, 43.799999999999926], [-87.80000000000032, 43.71999999999993], [-87.80000000000032, 43.63999999999992], [-87.80000000000032, 43.55999999999992], [-87.80000000000032, 43.47999999999992], [-87.80000000000032, 43.39999999999992], [-87.80000000000032, 43.319999999999915], [-87.88000000000032, 43.319999999999915], [-87.96000000000032, 43.319999999999915], [-87.96000000000032, 43.23999999999991], [-87.96000000000032, 43.15999999999991], [-87.96000000000032, 43.07999999999991], [-87.96000000000032, 42.99999999999991], [-87.88000000000032, 42.99999999999991], [-87.80000000000032, 42.99999999999991], [-87.80000000000032, 42.9199999999999], [-87.80000000000032, 42.839999999999904], [-87.80000000000032, 42.759999999999906], [-87.80000000000032, 42.6799999999999], [-87.80000000000032, 42.599999999999895], [-87.80000000000032, 42.5199999999999], [-87.80000000000032, 42.4399999999999], [-87.80000000000032, 42.35999999999989], [-87.80000000000032, 42.29230769230758], [-87.88000000000032, 42.29230769230758], [-87.88941176470621, 42.27999999999989], [-87.88000000000032, 42.26399999999989], [-87.80000000000032, 42.26399999999989], [-87.80000000000032, 42.19999999999989], [-87.80000000000032, 42.11999999999989], [-87.80000000000032, 42.039999999999885], [-87.7527272727276, 42.039999999999885], [-87.76800000000033, 41.95999999999988], [-87.72000000000033, 41.94883720930221], [-87.64000000000033, 41.951325301204704], [-87.64000000000033, 41.87999999999988], [-87.60540540540573, 41.87999999999988], [-87.64000000000033, 41.8491566265059], [-87.72000000000033, 41.83720930232546], [-87.76444444444476, 41.79999999999988], [-87.72000000000033, 41.748387096774074], [-87.56000000000033, 41.75519999999988], [-87.48000000000033, 41.75519999999988], [-87.48000000000033, 41.71999999999988], [-87.48000000000033, 41.63999999999987], [-87.48000000000033, 41.559999999999874], [-87.40000000000033, 41.559999999999874], [-87.32000000000033, 41.559999999999874], [-87.24000000000034, 41.559999999999874], [-87.16000000000034, 41.559999999999874], [-87.08000000000034, 41.559999999999874], [-87.00000000000034, 41.559999999999874], [-87.00000000000034, 41.63999999999987], [-87.00000000000034, 41.71999999999988], [-86.92000000000034, 41.71999999999988], [-86.84000000000034, 41.71999999999988], [-86.76000000000035, 41.71999999999988], [-86.68000000000035, 41.71999999999988], [-86.68000000000035, 41.79999999999988], [-86.68000000000035, 41.87999999999988], [-86.6891803278692, 41.87999999999988], [-86.68000000000035, 41.90947368421041], [-86.6571428571432, 41.95999999999988], [-86.6571428571432, 42.039999999999885], [-86.60000000000035, 42.039999999999885], [-86.52000000000035, 42.039999999999885], [-86.52000000000035, 42.11999999999989], [-86.52000000000035, 42.19999999999989], [-86.44000000000035, 42.19999999999989], [-86.36000000000035, 42.19999999999989], [-86.36000000000035, 42.27999999999989], [-86.36000000000035, 42.35999999999989], [-86.28000000000036, 42.35999999999989], [-86.20000000000036, 42.35999999999989], [-86.20000000000036, 42.4399999999999], [-86.20000000000036, 42.5199999999999], [-86.20000000000036, 42.599999999999895], [-86.20000000000036, 42.6799999999999], [-86.20000000000036, 42.759999999999906], [-86.20000000000036, 42.839999999999904], [-86.20000000000036, 42.9199999999999], [-86.20000000000036, 42.99999999999991], [-86.12000000000036, 42.99999999999991], [-86.04000000000036, 42.99999999999991], [-86.04000000000036, 43.07999999999991], [-86.04000000000036, 43.15999900001241], [-85.96000000000036, 43.15999900001241], [-85.95999733342258, 43.15999999999991], [-85.88000000000036, 43.181818181818095], [-85.88000000000036, 43.15999999999991], [-85.80000000000037, 43.15999999999991], [-85.72000000000037, 43.15999999999991], [-85.64000000000037, 43.15999999999991], [-85.56000000000037, 43.15999999999991], [-85.48000000000037, 43.15999999999991], [-85.40000000000038, 43.15999999999991], [-85.32000000000038, 43.15999999999991], [-85.24000000000038, 43.15999999999991], [-85.16000000000038, 43.15999999999991], [-85.08000000000038, 43.15999999999991], [-85.00000000000038, 43.15999999999991], [-84.92000000000039, 43.15999999999991], [-84.84000000000039, 43.15999999999991], [-84.76000000000039, 43.15999999999991], [-84.68000000000039, 43.15999999999991], [-84.60000000000039, 43.15999999999991], [-84.5200000000004, 43.15999999999991], [-84.4400000000004, 43.15999999999991], [-84.3600000000004, 43.15999999999991], [-84.2800000000004, 43.15999999999991], [-84.2000000000004, 43.15999999999991], [-84.1200000000004, 43.15999999999991], [-84.0400000000004, 43.15999999999991], [-83.9600000000004, 43.15999999999991], [-83.9600000000004, 43.07999999999991], [-83.9600000000004, 42.99999999999991], [-83.9600000000004, 42.9199999999999], [-83.9600000000004, 42.839999999999904], [-83.9600000000004, 42.759999999999906], [-83.9600000000004, 42.6799999999999], [-83.9600000000004, 42.599999999999895], [-83.9600000000004, 42.5199999999999], [-83.9600000000004, 42.4399999999999], [-83.9600000000004, 42.35999999999989], [-83.9600000000004, 42.27999999999989], [-83.9600000000004, 42.19999999999989], [-83.9600000000004, 42.11999999999989], [-83.9600000000004, 42.039999999999885], [-83.9600000000004, 41.95999999999988], [-83.9600000000004, 41.87999999999988], [-83.9600000000004, 41.79999999999988], [-83.9600000000004, 41.71999999999988], [-83.9600000000004, 41.63999999999987], [-83.9600000000004, 41.559999999999874], [-83.9600000000004, 41.479999999999876], [-83.9600000000004, 41.39999999999987], [-83.9600000000004, 41.32000799919995], [-84.0400000000004, 41.32000799919995], [-84.04000533297821, 41.319999999999865], [-84.0400000000004, 41.31998400319923], [-83.9600000000004, 41.31998400319923], [-83.9600000000004, 41.23999999999987], [-83.9600000000004, 41.15999999999987], [-83.9600000000004, 41.07999999999986], [-83.9600000000004, 40.99999999999986], [-83.9600000000004, 40.91999999999986], [-83.9600000000004, 40.885714285714144], [-84.0400000000004, 40.885714285714144], [-84.2000000000004, 40.87199999999986], [-84.3600000000004, 40.89333333333319], [-84.41333333333372, 40.99999999999986], [-84.5200000000004, 41.063999999999865], [-84.65714285714324, 41.15999999999987], [-84.68000000000039, 41.191999999999865], [-84.7200000000004, 41.15999999999987], [-84.84000000000039, 41.039999999999864], [-84.8800000000004, 40.99999999999986], [-85.00000000000038, 40.84000533297766], [-85.16000000000038, 40.85230769230755], [-85.32000000000038, 40.85882352941162], [-85.34461538461576, 40.83999999999986], [-85.48000000000037, 40.70461538461524], [-85.64000000000037, 40.692307692307544], [-85.77714285714322, 40.83999999999986], [-85.80000000000037, 40.885714285714144], [-85.96000000000036, 40.887999999999856], [-86.04000266657815, 40.83999999999986], [-85.96000266657815, 40.67999999999985], [-86.12000000000036, 40.52000266657763], [-86.21600000000036, 40.67999999999985], [-86.19999733342257, 40.83999999999986], [-86.26400000000035, 40.99999999999986], [-86.28000000000036, 41.01999999999986], [-86.44000000000035, 41.00000159996786], [-86.440015996801, 40.99999999999986], [-86.44000000000035, 40.99998400319922], [-86.40000000000035, 40.83999999999986], [-86.44000000000035, 40.760007999199935], [-86.45230769230804, 40.67999999999985], [-86.60000000000035, 40.542857142856995], [-86.62666666666702, 40.519999999999854], [-86.60000000000035, 40.43999600019984], [-86.44000799920043, 40.35999999999984], [-86.60000000000035, 40.29599999999984], [-86.76000000000035, 40.27272727272712], [-86.92000000000034, 40.24571428571413], [-87.08000000000034, 40.26399999999985], [-87.24000000000034, 40.28000399979985], [-87.26461538461572, 40.19999999999985], [-87.31272727272761, 40.039999999999836], [-87.31272727272761, 39.95999999999984], [-87.32000000000033, 39.95999999999984], [-87.40000000000033, 39.95999999999984], [-87.48000000000033, 39.95999999999984], [-87.56000000000033, 39.95999999999984], [-87.64000000000033, 39.95999999999984]], [[-90.0133333333336, 43.07999999999991], [-90.12000000000027, 43.15999800004991], [-90.16571428571456, 43.07999999999991], [-90.12000000000027, 43.04799999999991], [-90.0133333333336, 43.07999999999991]], [[-91.08000000000025, 42.67058823529402], [-91.17600000000026, 42.599999999999895], [-91.08000000000025, 42.49999999999989], [-90.98000000000026, 42.599999999999895], [-91.08000000000025, 42.67058823529402]], [[-86.04000000000036, 42.599999999999895], [-86.04000000000036, 42.5199999999999], [-85.96000000000036, 42.5199999999999], [-85.88000000000036, 42.5199999999999], [-85.88000000000036, 42.599999999999895], [-85.88000000000036, 42.6799999999999], [-85.96000000000036, 42.6799999999999], [-86.04000000000036, 42.6799999999999], [-86.04000000000036, 42.599999999999895]], [[-85.32000000000038, 42.35499999999989], [-85.39058823529449, 42.27999999999989], [-85.32000000000038, 42.187692307692195], [-85.22769230769269, 42.27999999999989], [-85.32000000000038, 42.35499999999989]], [[-90.28000000000027, 41.81999999999988], [-90.30285714285742, 41.79999999999988], [-90.28000000000027, 41.78545454545443], [-90.26666666666694, 41.79999999999988], [-90.28000000000027, 41.81999999999988]], [[-87.88000000000032, 41.20571428571415], [-87.92000000000033, 41.15999999999987], [-87.88000000000032, 41.0533333333332], [-87.826666666667, 41.15999999999987], [-87.88000000000032, 41.20571428571415]], [[-92.36000000000023, 41.11519999999987], [-92.42857142857166, 40.99999999999986], [-92.36000000000023, 40.89333333333319], [-92.249230769231, 40.99999999999986], [-92.36000000000023, 41.11519999999987]], [[-86.76000000000035, 41.000001999949866], [-86.76001599680099, 40.99999999999986], [-86.76000000000035, 40.99999680012785], [-86.7599840031997, 40.99999999999986], [-86.76000000000035, 41.000001999949866]], [[-91.40000000000025, 43.12479999999991], [-91.49333333333358, 43.07999999999991], [-91.40000000000025, 43.01411764705873], [-91.35130434782633, 43.07999999999991], [-91.40000000000025, 43.12479999999991]], [[-89.80000000000028, 43.582857142857065], [-89.84210526315817, 43.55999999999992], [-89.82608695652202, 43.47999999999992], [-89.88000000000028, 43.47999999999992], [-89.88000000000028, 43.39999999999992], [-89.88000000000028, 43.319999999999915], [-89.80000000000028, 43.319999999999915], [-89.72000000000028, 43.319999999999915], [-89.72000000000028, 43.39999999999992], [-89.72000000000028, 43.47999999999992], [-89.77966101694943, 43.47999999999992], [-89.77142857142886, 43.55999999999992], [-89.80000000000028, 43.582857142857065]], [[-89.32000000000029, 40.360015996800485], [-89.32001599680093, 40.35999999999984], [-89.32000000000029, 40.35998400319921], [-89.31999600020028, 40.35999999999984], [-89.32000000000029, 40.360015996800485]], [[-88.6800000000003, 43.66434782608688], [-88.8300000000003, 43.55999999999992], [-88.6800000000003, 43.426666666666584], [-88.56000000000031, 43.55999999999992], [-88.6800000000003, 43.66434782608688]], [[-89.0000000000003, 43.88941176470581], [-89.00888888888919, 43.879999999999924], [-89.0000000000003, 43.86222222222215], [-88.98222222222252, 43.879999999999924], [-89.0000000000003, 43.88941176470581]], [[-88.8400000000003, 44.22999999999993], [-88.9200013333114, 44.19999999999993], [-88.8400000000003, 44.13599999999993], [-88.7920000000003, 44.19999999999993], [-88.8400000000003, 44.22999999999993]]], [[[-89.72000000000028, 44.75999999999995], [-89.72000000000028, 44.67999999999995], [-89.72000000000028, 44.599999999999945], [-89.80000000000028, 44.599999999999945], [-89.88000000000028, 44.599999999999945], [-89.88000000000028, 44.67999999999995], [-89.88000000000028, 44.75999999999995], [-89.80000000000028, 44.75999999999995], [-89.72000000000028, 44.75999999999995]]], [[[-88.12000000000032, 44.934814814814764], [-88.1051851851855, 44.91999999999995], [-88.12000000000032, 44.91999999999995], [-88.12000000000032, 44.934814814814764]]], [[[-93.5600000000002, 45.879999999999974], [-93.5600000000002, 45.79999999999997], [-93.5600000000002, 45.71999999999997], [-93.6400000000002, 45.71999999999997], [-93.7200000000002, 45.71999999999997], [-93.7200000000002, 45.79999999999997], [-93.7200000000002, 45.879999999999974], [-93.6400000000002, 45.879999999999974], [-93.5600000000002, 45.879999999999974]]], [[[-93.7200000000002, 46.119999999999976], [-93.7200000000002, 46.03999999999998], [-93.8000000000002, 46.03999999999998], [-93.8800000000002, 46.03999999999998], [-93.96000000000019, 46.03999999999998], [-94.04000000000019, 46.03999999999998], [-94.04000000000019, 46.119999999999976], [-94.04000000000019, 46.19999999999998], [-93.96000000000019, 46.19999999999998], [-93.8800000000002, 46.19999999999998], [-93.8000000000002, 46.19999999999998], [-93.7200000000002, 46.19999999999998], [-93.7200000000002, 46.119999999999976]]], [[[-94.20000000000019, 46.19999999999998], [-94.20000000000019, 46.27999999999999], [-94.20000000000019, 46.359999999999985], [-94.12000000000019, 46.359999999999985], [-94.04000000000019, 46.359999999999985], [-94.04000000000019, 46.27999999999999], [-94.04000000000019, 46.19999999999998], [-94.12000000000019, 46.19999999999998], [-94.20000000000019, 46.19999999999998]]], [[[-94.20000000000019, 46.51999999999999], [-94.20000000000019, 46.43999999999998], [-94.20000000000019, 46.359999999999985], [-94.28000000000019, 46.359999999999985], [-94.36000000000018, 46.359999999999985], [-94.36000000000018, 46.43999999999998], [-94.36000000000018, 46.51999999999999], [-94.28000000000019, 46.51999999999999], [-94.20000000000019, 46.51999999999999]]]]}}, {"id": "2", "type": "Feature", "properties": {"min_value": 80.0, "max_value": 100.0, "color": "#08519c"}, "geometry": {"type": "MultiPolygon", "coordinates": [[[[-96.44000000000014, 44.67999999999995], [-96.44000000000014, 44.599999999999945], [-96.52000000000014, 44.599999999999945], [-96.60000000000014, 44.599999999999945], [-96.60000000000014, 44.67999999999995], [-96.60000000000014, 44.75999999999995], [-96.52000000000014, 44.75999999999995], [-96.44000000000014, 44.75999999999995], [-96.44000000000014, 44.67999999999995]]], [[[-98.4400000000001, 44.84000123075025], [-98.43999771435112, 44.83999999999995], [-98.43999771435112, 44.75999999999995], [-98.4400000000001, 44.75999999999995], [-98.5200000000001, 44.75999999999995], [-98.5200000000001, 44.83999999999995], [-98.5200000000001, 44.84000123075025], [-98.4400000000001, 44.84000123075025]]], [[[-98.68000000000009, 45.23999999999996], [-98.6000000000001, 45.23999999999996], [-98.53084745762722, 45.23999999999996], [-98.5200000000001, 45.210232558139495], [-98.49120000000009, 45.159999999999954], [-98.5200000000001, 45.09828571428567], [-98.52581818181828, 45.079999999999956], [-98.6000000000001, 45.079999999999956], [-98.68000000000009, 45.079999999999956], [-98.68000000000009, 45.159999999999954], [-98.68000000000009, 45.23999999999996]]], [[[-96.76000000000013, 45.159999999999954], [-96.76000000000013, 45.079999999999956], [-96.84000000000013, 45.079999999999956], [-96.92000000000013, 45.079999999999956], [-96.92000000000013, 45.159999999999954], [-96.92000000000013, 45.23999999999996], [-96.84000000000013, 45.23999999999996], [-96.76000000000013, 45.23999999999996], [-96.76000000000013, 45.159999999999954]]], [[[-97.91000000000011, 45.23999999999996], [-97.91000000000011, 45.159999999999954], [-97.96000000000011, 45.09846153846149], [-98.07428571428582, 45.159999999999954], [-98.07428571428582, 45.23999999999996], [-98.0400000000001, 45.23999999999996], [-97.96000000000011, 45.23999999999996], [-97.91000000000011, 45.23999999999996]]], [[[-99.32000000000008, 45.319999999999965], [-99.32000000000008, 45.23999999999996], [-99.40000000000008, 45.23999999999996], [-99.48000000000008, 45.23999999999996], [-99.48000000000008, 45.319999999999965], [-99.48000000000008, 45.39999999999996], [-99.40000000000008, 45.39999999999996], [-99.32000000000008, 45.39999999999996], [-99.32000000000008, 45.319999999999965]]], [[[-97.56000000000012, 45.319999999999965], [-97.56000000000012, 45.23999999999996], [-97.64000000000011, 45.23999999999996], [-97.72000000000011, 45.23999999999996], [-97.72000000000011, 45.319999999999965], [-97.72000000000011, 45.39999999999996], [-97.64000000000011, 45.39999999999996], [-97.56000000000012, 45.39999999999996], [-97.56000000000012, 45.319999999999965]]], [[[-100.12000000000006, 45.79999999999997], [-100.12000000000006, 45.71999999999997], [-100.20000000000006, 45.71999999999997], [-100.26000000000006, 45.71999999999997], [-100.26000000000006, 45.79999999999997], [-100.26000000000006, 45.879999999999974], [-100.20000000000006, 45.879999999999974], [-100.12000000000006, 45.879999999999974], [-100.12000000000006, 45.79999999999997]]], [[[-99.24000000000008, 46.03999999999998], [-99.16421052631587, 46.03999999999998], [-99.16421052631587, 45.95999999999998], [-99.18976744186055, 45.879999999999974], [-99.24000000000008, 45.879999999999974], [-99.32000000000008, 45.879999999999974], [-99.32000000000008, 45.95999999999998], [-99.32000000000008, 46.03999999999998], [-99.24000000000008, 46.03999999999998]]], [[[-98.02857142857154, 45.95999999999998], [-97.96000000000011, 46.033846153846135], [-97.89600000000011, 45.95999999999998], [-97.96000000000011, 45.89999999999998], [-98.02857142857154, 45.95999999999998]]], [[[-100.20000000000006, 46.15999999999998], [-100.24800000000006, 46.19999999999998], [-100.28000000000006, 46.21454545454544], [-100.28000000000006, 46.27999999999999], [-100.28000000000006, 46.359999999999985], [-100.20000000000006, 46.359999999999985], [-100.12000000000006, 46.359999999999985], [-100.12000000000006, 46.27999999999999], [-100.12000000000006, 46.19999999999998], [-100.04000000000006, 46.19999999999998], [-100.02000000000007, 46.19999999999998], [-100.00000000000006, 46.119999999999976], [-100.00000000000006, 46.03999999999998], [-100.04000000000006, 46.03999999999998], [-100.09333333333339, 46.03999999999998], [-100.09333333333339, 46.119999999999976], [-100.12000000000006, 46.13846153846152], [-100.20000000000006, 46.15999999999998]]], [[[-99.24000000000008, 46.359999999999985], [-99.16000000000008, 46.359999999999985], [-99.16000000000008, 46.27999999999999], [-99.16000000000008, 46.19999999999998], [-99.24000000000008, 46.19999999999998], [-99.32000000000008, 46.19999999999998], [-99.32000061537995, 46.19999999999998], [-99.32000061537995, 46.27999999999999], [-99.32000061537995, 46.359999999999985], [-99.32000000000008, 46.359999999999985], [-99.24000000000008, 46.359999999999985]]], [[[-99.64000000000007, 46.27999999999999], [-99.64000000000007, 46.2342857142857], [-99.72000000000007, 46.2342857142857], [-99.75555555555563, 46.27999999999999], [-99.75555555555563, 46.359999999999985], [-99.72000000000007, 46.359999999999985], [-99.64000000000007, 46.359999999999985], [-99.64000000000007, 46.27999999999999]]], [[[-96.7866666666668, 46.599999999999994], [-96.80571428571442, 46.51999999999999], [-96.84000000000013, 46.51999999999999], [-96.86909090909104, 46.51999999999999], [-96.86909090909104, 46.599999999999994], [-96.84000000000013, 46.64571428571428], [-96.7866666666668, 46.599999999999994]]], [[[-99.08000000000008, 46.67529411764705], [-98.99466666666675, 46.599999999999994], [-99.08000000000008, 46.508571428571415], [-99.16000000000008, 46.508571428571415], [-99.16000000000008, 46.51999999999999], [-99.16000000000008, 46.599999999999994], [-99.16000000000008, 46.67529411764705], [-99.08000000000008, 46.67529411764705]]], [[[-98.16444444444454, 46.599999999999994], [-98.1200000000001, 46.66666666666666], [-98.05846153846164, 46.599999999999994], [-98.1200000000001, 46.538461538461526], [-98.16444444444454, 46.599999999999994]]], [[[-99.80000000000007, 46.67999999999999], [-99.80000000000007, 46.599999999999994], [-99.80000000000007, 46.51999999999999], [-99.88000000000007, 46.51999999999999], [-99.96000000000006, 46.51999999999999], [-100.03111111111117, 46.51999999999999], [-100.03111111111117, 46.599999999999994], [-99.88000000000007, 46.75111111111111], [-99.80000000000007, 46.75111111111111], [-99.80000000000007, 46.67999999999999]]], [[[-101.24000000000004, 46.599999999999994], [-101.24000000000004, 46.59999840003199], [-101.32000000000004, 46.59999840003199], [-101.32000266657782, 46.599999999999994], [-101.32000266657782, 46.67999999999999], [-101.32000000000004, 46.67999999999999], [-101.24000000000004, 46.67999999999999], [-101.24000000000004, 46.599999999999994]]], [[[-102.04000000000002, 46.75999999999999], [-102.04000000000002, 46.67999999999999], [-102.12000000000002, 46.67999999999999], [-102.20000000000002, 46.67999999999999], [-102.20000000000002, 46.75999999999999], [-102.20000000000002, 46.839999999999996], [-102.12000000000002, 46.839999999999996], [-102.04000000000002, 46.839999999999996], [-102.04000000000002, 46.75999999999999]]], [[[-98.5200000000001, 46.748571428571424], [-98.6000000000001, 46.748571428571424], [-98.61454545454555, 46.75999999999999], [-98.6000000000001, 46.774545454545446], [-98.5200000000001, 46.774545454545446], [-98.5200000000001, 46.75999999999999], [-98.5200000000001, 46.748571428571424]]], [[[-96.42857142857157, 46.75999999999999], [-96.36000000000014, 46.83578947368421], [-96.29142857142871, 46.75999999999999], [-96.36000000000014, 46.687999999999995], [-96.42857142857157, 46.75999999999999]]], [[[-99.96000000000006, 47.0], [-99.88000000000007, 47.0], [-99.80000000000007, 47.0], [-99.75368421052639, 47.0], [-99.75368421052639, 46.92], [-99.76363636363644, 46.839999999999996], [-99.80000000000007, 46.839999999999996], [-99.80000000000007, 46.778461538461535], [-99.88000000000007, 46.769999999999996], [-99.96000000000006, 46.82857142857142], [-99.96666666666673, 46.839999999999996], [-99.96000000000006, 46.839999999999996], [-99.96000000000006, 46.92], [-99.96000000000006, 47.0]]], [[[-92.52000000000022, 40.85230769230755], [-92.49090909090931, 40.83999999999986], [-92.49090909090931, 40.759999999999856], [-92.52000000000022, 40.759999999999856], [-92.60000000000022, 40.759999999999856], [-92.60000000000022, 40.83999999999986], [-92.60000000000022, 40.85333333333319], [-92.52000000000022, 40.85230769230755]]], [[[-92.42857142857166, 40.99999999999986], [-92.36000000000023, 41.11519999999987], [-92.249230769231, 40.99999999999986], [-92.36000000000023, 40.89333333333319], [-92.42857142857166, 40.99999999999986]]], [[[-93.8800000000002, 41.858947368420935], [-93.8000000000002, 41.87724137931023], [-93.71040000000019, 41.79999999999988], [-93.7200000000002, 41.78736842105251], [-93.74909090909111, 41.71999999999988], [-93.8000000000002, 41.71999999999988], [-93.8800000000002, 41.71999999999988], [-93.8800000000002, 41.79999999999988], [-93.8800000000002, 41.858947368420935]]], [[[-90.30285714285742, 41.79999999999988], [-90.28000000000027, 41.81999999999988], [-90.26666666666694, 41.79999999999988], [-90.28000000000027, 41.78545454545443], [-90.30285714285742, 41.79999999999988]]], [[[-93.8800000000002, 42.4399999999999], [-93.8800000000002, 42.35999999999989], [-93.96000000000019, 42.35999999999989], [-94.04000000000019, 42.35999999999989], [-94.04000000000019, 42.4399999999999], [-94.04000000000019, 42.5199999999999], [-93.96000000000019, 42.5199999999999], [-93.8800000000002, 42.5199999999999], [-93.8800000000002, 42.4399999999999]]], [[[-91.17600000000026, 42.599999999999895], [-91.08000000000025, 42.67058823529402], [-90.98000000000026, 42.599999999999895], [-91.08000000000025, 42.49999999999989], [-91.17600000000026, 42.599999999999895]]], [[[-92.60421052631601, 43.07999999999991], [-92.68000000000022, 42.96923076923068], [-92.7426086956524, 43.07999999999991], [-92.7426086956524, 43.15999999999991], [-92.68000000000022, 43.15999999999991], [-92.61828571428593, 43.15999999999991], [-92.60421052631601, 43.07999999999991]]], [[[-91.49333333333358, 43.07999999999991], [-91.40000000000025, 43.12479999999991], [-91.35130434782633, 43.07999999999991], [-91.40000000000025, 43.01411764705873], [-91.49333333333358, 43.07999999999991]]], [[[-92.36000000000023, 43.319999999999915], [-92.28000000000023, 43.319999999999915], [-92.20000000000023, 43.319999999999915], [-92.12000000000023, 43.319999999999915], [-92.10857142857166, 43.319999999999915], [-92.10857142857166, 43.23999999999991], [-92.20000000000023, 43.11999999999991], [-92.36000000000023, 43.12363636363627], [-92.4713043478263, 43.23999999999991], [-92.4713043478263, 43.319999999999915], [-92.44000000000023, 43.319999999999915], [-92.36000000000023, 43.319999999999915]]], [[[-91.68800000000024, 43.319999999999915], [-91.68800000000024, 43.23999999999991], [-91.72000000000024, 43.204444444444356], [-91.80000000000024, 43.21818181818173], [-91.80000000000024, 43.23999999999991], [-91.80000000000024, 43.319999999999915], [-91.72000000000024, 43.319999999999915], [-91.68800000000024, 43.319999999999915]]], [[[-95.32000000000016, 43.39999999999992], [-95.32000000000016, 43.319999999999915], [-95.40000000000016, 43.319999999999915], [-95.48000000000016, 43.319999999999915], [-95.48000000000016, 43.39999999999992], [-95.48000000000016, 43.47999999999992], [-95.40000000000016, 43.47999999999992], [-95.32000000000016, 43.47999999999992], [-95.32000000000016, 43.39999999999992]]], [[[-91.80000000000024, 43.39999999999992], [-91.80000000000024, 43.319999999999915], [-91.88000000000024, 43.319999999999915], [-91.96000000000024, 43.319999999999915], [-91.96000000000024, 43.39999999999992], [-91.96000000000024, 43.47999999999992], [-91.88000000000024, 43.47999999999992], [-91.80000000000024, 43.47999999999992], [-91.80000000000024, 43.39999999999992]]], [[[-91.00000000000026, 43.39999999999992], [-91.00000000000026, 43.47999999999992], [-90.92000000000026, 43.47999999999992], [-90.86057142857169, 43.47999999999992], [-90.86057142857169, 43.39999999999992], [-90.92000000000026, 43.33882352941168], [-91.00000000000026, 43.33882352941168], [-91.00000000000026, 43.39999999999992]]], [[[-91.00000000000026, 43.63999999999992], [-91.00000000000026, 43.55999999999992], [-91.00000000000026, 43.47999999999992], [-91.08000000000025, 43.47999999999992], [-91.16000000000025, 43.47999999999992], [-91.16000000000025, 43.55999999999992], [-91.16000000000025, 43.63999999999992], [-91.08000000000025, 43.63999999999992], [-91.00000000000026, 43.63999999999992]]], [[[-90.60000000000026, 43.63999999999992], [-90.52000000000027, 43.63999999999992], [-90.44000000000027, 43.63999999999992], [-90.39555555555583, 43.63999999999992], [-90.40521739130462, 43.55999999999992], [-90.44000000000027, 43.53499999999992], [-90.60000000000026, 43.5489655172413], [-90.68000000000026, 43.55094339622634], [-90.68000000000026, 43.55999999999992], [-90.68000000000026, 43.63999999999992], [-90.60000000000026, 43.63999999999992]]], [[[-90.27238095238123, 43.799999999999926], [-90.27238095238123, 43.71999999999993], [-90.28000000000027, 43.711578947368345], [-90.36000000000027, 43.70399999999992], [-90.36000000000027, 43.71999999999993], [-90.36000000000027, 43.799999999999926], [-90.28000000000027, 43.799999999999926], [-90.27238095238123, 43.799999999999926]]], [[[-95.34666666666683, 45.319999999999965], [-95.24000000000017, 45.43999999999996], [-95.17379310344845, 45.319999999999965], [-95.17379310344845, 45.23999999999996], [-95.24000000000017, 45.23999999999996], [-95.32000000000016, 45.23999999999996], [-95.32000000000016, 45.228571428571385], [-95.32941176470605, 45.23999999999996], [-95.34666666666683, 45.319999999999965]]], [[[-96.28000000000014, 45.47999999999996], [-96.28000000000014, 45.55999999999997], [-96.28000000000014, 45.63999999999997], [-96.28000000000014, 45.71999999999997], [-96.20000000000014, 45.71999999999997], [-96.12000000000015, 45.71999999999997], [-96.12000000000015, 45.763076923076895], [-96.04000000000015, 45.72000399979998], [-95.93333333333348, 45.63999999999997], [-95.91555555555571, 45.47999999999996], [-96.04000000000015, 45.34823529411761], [-96.12000000000015, 45.33894736842102], [-96.12000000000015, 45.39999999999996], [-96.20000000000014, 45.39999999999996], [-96.28000000000014, 45.39999999999996], [-96.28000000000014, 45.47999999999996]]], [[[-96.12000000000015, 46.03999999999998], [-96.04000000000015, 46.03999999999998], [-95.96000000000015, 46.03999999999998], [-95.96000000000015, 46.061463414634126], [-95.92408163265321, 46.03999999999998], [-95.88000000000015, 45.97454545454543], [-95.857142857143, 45.95999999999998], [-95.88000000000015, 45.91999999999997], [-96.04000000000015, 45.814545454545424], [-96.12000000000015, 45.814545454545424], [-96.12000000000015, 45.879999999999974], [-96.12000000000015, 45.95999999999998], [-96.12000000000015, 46.03999999999998]]], [[[-94.20000000000019, 45.96000599955001], [-94.19999938462031, 45.95999999999998], [-94.28000000000019, 45.88827586206894], [-94.34303030303049, 45.95999999999998], [-94.32408163265325, 46.03999999999998], [-94.28000000000019, 46.08235294117645], [-94.2182857142859, 46.03999999999998], [-94.20000000000019, 45.96000599955001]]], [[[-94.84000000000017, 46.423999999999985], [-94.84000000000017, 46.359999999999985], [-94.84000000000017, 46.27999999999999], [-94.84000000000017, 46.19999999999998], [-94.84000000000017, 46.19529411764704], [-94.92000000000017, 46.19529411764704], [-94.96000000000018, 46.19999999999998], [-95.00000000000017, 46.21066666666665], [-95.04521739130452, 46.27999999999999], [-94.92000000000017, 46.423999999999985], [-94.84000000000017, 46.423999999999985]]], [[[-96.3726315789475, 46.51999999999999], [-96.36000000000014, 46.52347826086955], [-96.34736842105278, 46.51999999999999], [-96.28000000000014, 46.46879999999999], [-96.26857142857158, 46.43999999999998], [-96.277142857143, 46.359999999999985], [-96.28000000000014, 46.359999999999985], [-96.28000000000014, 46.34857142857141], [-96.36000000000014, 46.30285714285713], [-96.44000000000014, 46.30285714285713], [-96.44000000000014, 46.359999999999985], [-96.44000000000014, 46.43999999999998], [-96.44000000000014, 46.50545454545453], [-96.3726315789475, 46.51999999999999]]], [[[-89.66666666666696, 40.039999999999836], [-89.64000000000028, 40.12000799919992], [-89.48001599680093, 40.19999999999985], [-89.48000000000029, 40.20001599680048], [-89.47998400319965, 40.19999999999985], [-89.47999466702248, 40.039999999999836], [-89.47999466702248, 39.95999999999984], [-89.48000000000029, 39.95999999999984], [-89.56000000000029, 39.95999999999984], [-89.64000000000028, 39.95999999999984], [-89.66666666666696, 39.95999999999984], [-89.66666666666696, 40.039999999999836]]], [[[-83.9600000000004, 40.16799999999984], [-84.0400000000004, 40.16799999999984], [-84.05777777777818, 40.19999999999985], [-84.0400000000004, 40.23199999999984], [-83.9600000000004, 40.23199999999984], [-83.9600000000004, 40.19999999999985], [-83.9600000000004, 40.16799999999984]]], [[[-89.32001599680093, 40.35999999999984], [-89.32000000000029, 40.360015996800485], [-89.31999600020028, 40.35999999999984], [-89.32000000000029, 40.35998400319921], [-89.32001599680093, 40.35999999999984]]], [[[-88.04000000000032, 39.95999999999984], [-88.12000000000032, 39.95999999999984], [-88.20000000000032, 39.95999999999984], [-88.28000000000031, 39.95999999999984], [-88.36000000000031, 39.95999999999984], [-88.40363636363668, 39.95999999999984], [-88.40363636363668, 40.039999999999836], [-88.52000000000031, 40.19999800004984], [-88.62666666666698, 40.039999999999836], [-88.62666666666698, 39.95999999999984], [-88.6800000000003, 39.95999999999984], [-88.7600000000003, 39.95999999999984], [-88.8400000000003, 39.95999999999984], [-88.9200000000003, 39.95999999999984], [-89.0000000000003, 39.95999999999984], [-89.0800000000003, 39.95999999999984], [-89.1600000000003, 39.95999999999984], [-89.1600053329781, 39.95999999999984], [-89.1600053329781, 40.039999999999836], [-89.1600000000003, 40.04000799919992], [-89.05333333333363, 40.19999999999985], [-89.0000000000003, 40.22666666666651], [-88.96000000000029, 40.19999999999985], [-88.8400000000003, 40.12000266657762], [-88.68000533297811, 40.19999999999985], [-88.8400000000003, 40.319999999999844], [-88.86666666666697, 40.35999999999984], [-88.86666666666697, 40.519999999999854], [-88.8400000000003, 40.57333333333318], [-88.68000799920038, 40.67999999999985], [-88.6800000000003, 40.68000533297766], [-88.52000000000031, 40.680003999799865], [-88.36000000000031, 40.71999999999986], [-88.20000000000032, 40.760007999199935], [-88.16000000000031, 40.67999999999985], [-88.04000000000032, 40.583999999999854], [-87.94400000000032, 40.67999999999985], [-88.04000000000032, 40.839994667022054], [-88.04001599680096, 40.83999999999986], [-88.04000000000032, 40.840015996800496], [-87.88000000000032, 40.94666666666652], [-87.72000000000033, 40.92000799919994], [-87.56000000000033, 40.840002285648836], [-87.40000000000033, 40.84000799919994], [-87.39998400319969, 40.83999999999986], [-87.24000000000034, 40.78666666666652], [-87.08000000000034, 40.76000199994986], [-86.97333333333367, 40.83999999999986], [-86.92000000000034, 40.94666666666652], [-86.87428571428606, 40.83999999999986], [-86.82000000000035, 40.67999999999985], [-86.92000000000034, 40.54666666666652], [-86.95200000000034, 40.519999999999854], [-87.08000000000034, 40.47076923076908], [-87.24000000000034, 40.51999200079977], [-87.40000000000033, 40.413333333333185], [-87.426666666667, 40.35999999999984], [-87.53538461538494, 40.19999999999985], [-87.56000000000033, 40.182222222222066], [-87.57523809523842, 40.19999999999985], [-87.72000000000033, 40.33818181818167], [-87.85818181818215, 40.19999999999985], [-87.72000000000033, 40.08307692307676], [-87.67130434782642, 40.039999999999836], [-87.67130434782642, 39.95999999999984], [-87.72000000000033, 39.95999999999984], [-87.80000000000032, 39.95999999999984], [-87.88000000000032, 39.95999999999984], [-87.96000000000032, 39.95999999999984], [-88.04000000000032, 39.95999999999984]], [[-88.36000000000031, 40.08799999999984], [-88.24800000000032, 40.19999999999985], [-88.2800026665781, 40.35999999999984], [-88.36000000000031, 40.45599999999985], [-88.43999733342253, 40.35999999999984], [-88.51999771435133, 40.19999999999985], [-88.36000000000031, 40.08799999999984]], [[-87.72000000000033, 40.799999999999855], [-87.81600000000033, 40.67999999999985], [-87.72000000000033, 40.60000266657763], [-87.64000266657811, 40.67999999999985], [-87.72000000000033, 40.799999999999855]]], [[[-84.76000000000039, 39.95999999999984], [-84.84000000000039, 39.95999999999984], [-84.92000000000039, 39.95999999999984], [-85.00000000000038, 39.95999999999984], [-85.05333333333371, 39.95999999999984], [-85.05333333333371, 40.039999999999836], [-85.16000000000038, 40.10399999999984], [-85.21333333333371, 40.19999999999985], [-85.16001599680102, 40.35999999999984], [-85.32000000000038, 40.38285714285699], [-85.35200000000037, 40.35999999999984], [-85.48000000000037, 40.26857142857127], [-85.57600000000038, 40.19999999999985], [-85.60000000000036, 40.039999999999836], [-85.60000000000036, 39.95999999999984], [-85.64000000000037, 39.95999999999984], [-85.72000000000037, 39.95999999999984], [-85.80000000000037, 39.95999999999984], [-85.88000000000036, 39.95999999999984], [-85.96000000000036, 39.95999999999984], [-86.04000000000036, 39.95999999999984], [-86.12000000000036, 39.95999999999984], [-86.20000000000036, 39.95999999999984], [-86.28000000000036, 39.95999999999984], [-86.36000000000035, 39.95999999999984], [-86.40000000000035, 39.95999999999984], [-86.40000000000035, 40.039999999999836], [-86.44000000000035, 40.07999999999984], [-86.46666666666702, 40.039999999999836], [-86.46666666666702, 39.95999999999984], [-86.52000000000035, 39.95999999999984], [-86.60000000000035, 39.95999999999984], [-86.68000000000035, 39.95999999999984], [-86.76000000000035, 39.95999999999984], [-86.78666666666702, 39.95999999999984], [-86.78666666666702, 40.039999999999836], [-86.92000000000034, 40.15428571428556], [-87.02000000000034, 40.039999999999836], [-87.02000000000034, 39.95999999999984], [-87.08000000000034, 39.95999999999984], [-87.16000000000034, 39.95999999999984], [-87.24000000000034, 39.95999999999984], [-87.31272727272761, 39.95999999999984], [-87.31272727272761, 40.039999999999836], [-87.26461538461572, 40.19999999999985], [-87.24000000000034, 40.28000399979985], [-87.08000000000034, 40.26399999999985], [-86.92000000000034, 40.24571428571413], [-86.76000000000035, 40.27272727272712], [-86.60000000000035, 40.29599999999984], [-86.44000799920043, 40.35999999999984], [-86.60000000000035, 40.43999600019984], [-86.62666666666702, 40.519999999999854], [-86.60000000000035, 40.542857142856995], [-86.45230769230804, 40.67999999999985], [-86.44000000000035, 40.760007999199935], [-86.40000000000035, 40.83999999999986], [-86.44000000000035, 40.99998400319922], [-86.440015996801, 40.99999999999986], [-86.44000000000035, 41.00000159996786], [-86.28000000000036, 41.01999999999986], [-86.26400000000035, 40.99999999999986], [-86.19999733342257, 40.83999999999986], [-86.21600000000036, 40.67999999999985], [-86.12000000000036, 40.52000266657763], [-85.96000266657815, 40.67999999999985], [-86.04000266657815, 40.83999999999986], [-85.96000000000036, 40.887999999999856], [-85.80000000000037, 40.885714285714144], [-85.77714285714322, 40.83999999999986], [-85.64000000000037, 40.692307692307544], [-85.48000000000037, 40.70461538461524], [-85.34461538461576, 40.83999999999986], [-85.32000000000038, 40.85882352941162], [-85.16000000000038, 40.85230769230755], [-85.00000000000038, 40.84000533297766], [-84.8800000000004, 40.99999999999986], [-84.84000000000039, 41.039999999999864], [-84.7200000000004, 41.15999999999987], [-84.68000000000039, 41.191999999999865], [-84.65714285714324, 41.15999999999987], [-84.5200000000004, 41.063999999999865], [-84.41333333333372, 40.99999999999986], [-84.3600000000004, 40.89333333333319], [-84.2000000000004, 40.87199999999986], [-84.0400000000004, 40.885714285714144], [-83.9600000000004, 40.885714285714144], [-83.9600000000004, 40.83999999999986], [-83.9600000000004, 40.759999999999856], [-83.9600000000004, 40.67999999999985], [-83.9600000000004, 40.59999999999985], [-83.9600000000004, 40.59999200079977], [-84.0400000000004, 40.59999200079977], [-84.0720000000004, 40.67999999999985], [-84.2000000000004, 40.80799999999986], [-84.35999600020038, 40.67999999999985], [-84.3600000000004, 40.67999600019984], [-84.36000399980041, 40.67999999999985], [-84.5200000000004, 40.83999600019985], [-84.59999800005039, 40.67999999999985], [-84.5200000000004, 40.52000399979986], [-84.51999600020038, 40.519999999999854], [-84.42857142857183, 40.35999999999984], [-84.3600000000004, 40.26399999999985], [-84.3280000000004, 40.19999999999985], [-84.3600000000004, 40.13599999999984], [-84.44000399980041, 40.19999999999985], [-84.5200000000004, 40.25333333333318], [-84.62666666666706, 40.19999999999985], [-84.5200000000004, 40.15428571428556], [-84.4200000000004, 40.039999999999836], [-84.4200000000004, 39.95999999999984], [-84.4400000000004, 39.95999999999984], [-84.5200000000004, 39.95999999999984], [-84.60000000000039, 39.95999999999984], [-84.68000000000039, 39.95999999999984], [-84.76000000000039, 39.95999999999984]], [[-85.00000000000038, 40.45599999999985], [-85.15999466702257, 40.35999999999984], [-85.00000000000038, 40.29142857142842], [-84.8400053329782, 40.35999999999984], [-85.00000000000038, 40.45599999999985]], [[-85.80000000000037, 40.56363636363621], [-85.756363636364, 40.519999999999854], [-85.64000000000037, 40.428571428571274], [-85.48000199995037, 40.519999999999854], [-85.64000000000037, 40.66222222222208], [-85.65777777777815, 40.67999999999985], [-85.80000000000037, 40.80799999999986], [-85.95999800005036, 40.67999999999985], [-85.80000000000037, 40.56363636363621]]], [[[-86.76001599680099, 40.99999999999986], [-86.76000000000035, 41.000001999949866], [-86.7599840031997, 40.99999999999986], [-86.76000000000035, 40.99999680012785], [-86.76001599680099, 40.99999999999986]]], [[[-87.92000000000033, 41.15999999999987], [-87.88000000000032, 41.20571428571415], [-87.826666666667, 41.15999999999987], [-87.88000000000032, 41.0533333333332], [-87.92000000000033, 41.15999999999987]]], [[[-83.9600000000004, 41.31998400319923], [-84.0400000000004, 41.31998400319923], [-84.04000533297821, 41.319999999999865], [-84.0400000000004, 41.32000799919995], [-83.9600000000004, 41.32000799919995], [-83.9600000000004, 41.319999999999865], [-83.9600000000004, 41.31998400319923]]], [[[-87.60540540540573, 41.87999999999988], [-87.56000000000033, 41.87999999999988], [-87.48000000000033, 41.87999999999988], [-87.48000000000033, 41.79999999999988], [-87.48000000000033, 41.75519999999988], [-87.56000000000033, 41.75519999999988], [-87.72000000000033, 41.748387096774074], [-87.76444444444476, 41.79999999999988], [-87.72000000000033, 41.83720930232546], [-87.64000000000033, 41.8491566265059], [-87.60540540540573, 41.87999999999988]]], [[[-86.84000000000034, 42.039999999999885], [-86.76000000000035, 42.039999999999885], [-86.68000000000035, 42.039999999999885], [-86.6571428571432, 42.039999999999885], [-86.6571428571432, 41.95999999999988], [-86.68000000000035, 41.90947368421041], [-86.6891803278692, 41.87999999999988], [-86.76000000000035, 41.87999999999988], [-86.84000000000034, 41.87999999999988], [-86.84000000000034, 41.95999999999988], [-86.84000000000034, 42.039999999999885]]], [[[-85.39058823529449, 42.27999999999989], [-85.32000000000038, 42.35499999999989], [-85.22769230769269, 42.27999999999989], [-85.32000000000038, 42.187692307692195], [-85.39058823529449, 42.27999999999989]]], [[[-85.96000000000036, 43.319999999999915], [-85.88000000000036, 43.319999999999915], [-85.88000000000036, 43.23999999999991], [-85.88000000000036, 43.181818181818095], [-85.95999733342258, 43.15999999999991], [-85.96000000000036, 43.15999900001241], [-86.04000000000036, 43.15999900001241], [-86.04000000000036, 43.15999999999991], [-86.04000000000036, 43.23999999999991], [-86.04000000000036, 43.319999999999915], [-85.96000000000036, 43.319999999999915]]], [[[-89.77142857142886, 43.55999999999992], [-89.77966101694943, 43.47999999999992], [-89.80000000000028, 43.47999999999992], [-89.82608695652202, 43.47999999999992], [-89.84210526315817, 43.55999999999992], [-89.80000000000028, 43.582857142857065], [-89.77142857142886, 43.55999999999992]]], [[[-88.8300000000003, 43.55999999999992], [-88.6800000000003, 43.66434782608688], [-88.56000000000031, 43.55999999999992], [-88.6800000000003, 43.426666666666584], [-88.8300000000003, 43.55999999999992]]], [[[-89.00888888888919, 43.879999999999924], [-89.0000000000003, 43.88941176470581], [-88.98222222222252, 43.879999999999924], [-89.0000000000003, 43.86222222222215], [-89.00888888888919, 43.879999999999924]]], [[[-88.9200013333114, 44.19999999999993], [-88.8400000000003, 44.22999999999993], [-88.7920000000003, 44.19999999999993], [-88.8400000000003, 44.13599999999993], [-88.9200013333114, 44.19999999999993]]], [[[-89.4224000000003, 44.27999999999994], [-89.4160000000003, 44.19999999999993], [-89.48000000000029, 44.172571428571366], [-89.56000000000029, 44.166511627906914], [-89.56000000000029, 44.19999999999993], [-89.56000000000029, 44.27999999999994], [-89.48000000000029, 44.27999999999994], [-89.4224000000003, 44.27999999999994]]], [[[-89.88000000000028, 44.51999999999994], [-89.88000000000028, 44.43999999999994], [-89.96000000000028, 44.43999999999994], [-90.04000000000028, 44.43999999999994], [-90.04000000000028, 44.51999999999994], [-90.04000000000028, 44.599999999999945], [-89.96000000000028, 44.599999999999945], [-89.88000000000028, 44.599999999999945], [-89.88000000000028, 44.51999999999994]]], [[[-89.08615384615415, 44.599999999999945], [-89.08615384615415, 44.51999999999994], [-89.1600000000003, 44.45599999999994], [-89.2400000000003, 44.457391304347766], [-89.2400000000003, 44.51999999999994], [-89.2400000000003, 44.599999999999945], [-89.1600000000003, 44.599999999999945], [-89.08615384615415, 44.599999999999945]]], [[[-88.12000000000032, 45.079999999999956], [-88.04000000000032, 45.079999999999956], [-87.96000000000032, 45.079999999999956], [-87.96000000000032, 45.159999999999954], [-87.96000000000032, 45.23999999999996], [-87.88000000000032, 45.23999999999996], [-87.80000000000032, 45.23999999999996], [-87.80000000000032, 45.159999999999954], [-87.80000000000032, 45.11789473684206], [-87.88000000000032, 45.11789473684206], [-87.94967741935515, 45.079999999999956], [-87.96000000000032, 45.05538461538457], [-87.96960000000033, 44.99999999999996], [-87.99809523809556, 44.91999999999995], [-88.04000000000032, 44.91999999999995], [-88.1051851851855, 44.91999999999995], [-88.12000000000032, 44.934814814814764], [-88.12000000000032, 44.99999999999996], [-88.12000000000032, 45.079999999999956]]]]}}]}